"Name","City","Country","Domes","Status","EPN Inclusion","Station Log","OperationalCentre","TectonicPlate","Latitude","Longitude","Elevation","X","Y","Z","IGS","ITRF2014","IGS14"
"ACOR00ESP","A Coruna","Spain","13434M001","A","1999-09-05","acor00esp_20191202.log","IGE","EURASIAN","43.3644","-8.3989","67.0","4594489.94","-678368.07","4357065.90","","ITRF2014",""
"ADAR00GBR","Aberdaron","United Kingdom","19161M001","A","2017-02-12","adar00gbr_20200224.log","OS","EURASIAN","52.7892","-4.7413","148.4","3852250.00","-319511.00","5056510.00","","",""
"AJAC00FRA","Ajaccio","France","10077M005","A","2000-02-20","ajac00fra_20200123.log","IGN_RGP","EURASIAN","41.9275","8.7626","98.8","4696990.00","723994.00","4239678.00","IGS","ITRF2014","IGS14"
"ALAC00ESP","Alicante","Spain","13433M001","A","1999-09-05","alac00esp_20200326.log","IGE","EURASIAN","38.3389","-0.4812","60.3","5009051.41","-42072.47","3935057.48","","ITRF2014",""
"ALBA00ESP","Albacete","Spain","13452M001","A","2007-09-09","alba00esp_20200326.log","IGE","EURASIAN","38.9779","-1.8564","751.7","4962848.20","-160854.40","3990884.20","","",""
"ALME00ESP","Almeria","Spain","13437M001","A","2001-01-21","alme00esp_20180612.log","IGE","EURASIAN","36.8525","-2.4595","127.5","5105220.29","-219278.78","3804386.86","","ITRF2014",""
"AQUI00ITA","L'Aquila","Italy","12757M001","A","2001-10-14","aqui00ita_20180725.log","ASI","EURASIAN","42.3682","13.3502","713.0","4592507.54","1089876.36","4276392.90","","",""
"ARGI00FRO","Argir, Torshavn","Faroe Islands","10117M002","A","2011-02-27","argi00fro_20170419.log","SDFE","EURASIAN","61.9974","-6.7835","110.2","2981489.90","-354651.39","5608474.89","","ITRF2014",""
"ARIS00GBR","Arisaig","United Kingdom","19190M001","A","2017-02-12","aris00gbr_20190902.log","OS","EURASIAN","56.9096","-5.8494","59.2","3472288.00","-355730.00","5320459.00","","",""
"ARJ600SWE","Arjeplog","Sweden","10428M002","A","2014-06-22","arj600swe_20191105.log","LMV","EURASIAN","66.3180","18.1250","489.7","2441772.83","799272.22","5818730.25","","",""
"AUBG00DEU","Augsburg","Germany","10913M001","A","2016-08-14","aubg00deu_20181128.log","BKG","EURASIAN","48.4213","10.9213","508.7","4164313.50","803525.40","4748474.60","","",""
"AUT100GRC","Thessaloniki","Greece","12619M002","A","2005-04-24","aut100grc_20180416.log","DGS","EURASIAN","40.5668","23.0037","150.0","4466283.50","1896166.75","4126096.68","","ITRF2014",""
"AUTN00FRA","Autun","France","10080M001","A","2005-07-03","autn00fra_20190313.log","IGN_RGP","EURASIAN","46.9538","4.2890","352.9","4349466.00","326196.00","4638521.00","","",""
"AXPV00FRA","Aix En Provence","France","10057M001","A","2010-03-28","axpv00fra_20190313.log","IGN_RGP","EURASIAN","43.4912","5.3332","229.0","4614667.00","430786.00","4367411.00","","",""
"BACA00ROU","Bacau","Romania","11405M001","A","2006-02-12","baca00rou_20200323.log","NACLR","EURASIAN","46.5621","26.9122","219.3","3917525.40","1988523.90","4608585.50","","",""
"BADH00DEU","Bad Homburg","Germany","14288M001","A","2006-05-07","badh00deu_20191029.log","FSW","EURASIAN","50.2280","8.6099","261.3","4042497.93","612081.42","4879251.04","","",""
"BAIA00ROU","Baia Mare","Romania","11406M001","A","2006-02-12","baia00rou_20200323.log","NACLR","EURASIAN","47.6518","23.5577","271.0","3945840.20","1720428.10","4691082.60","","",""
"BAUT00DEU","Bautzen","Germany","14102M001","A","2019-05-05","baut00deu_20200312.log","BKG","EURASIAN","51.1923","14.5217","211.8","3877545.55","1004370.90","4947148.05","","",""
"BBYS00SVK","Banska Bystrica","Slovak Republic","11514M001","A","2007-02-04","bbys00svk_20200117.log","GKU","EURASIAN","48.7518","19.1510","487.4","3980358.80","1382292.10","4772772.00","","",""
"BCLN00ESP","Sant Vicenc dels Horts","Spain","13412M001","A","2015-08-02","bcln00esp_20200326.log","IGE","EURASIAN","41.4054","2.0042","84.7","4788065.00","167551.00","4196355.00","","",""
"BELL00ESP","Bellmunt de Segarra","Spain","13431M001","A","1999-01-31","bell00esp_20190405.log","ICGC","EURASIAN","41.5996","1.4011","852.5","4775849.00","116814.00","4213018.00","","ITRF2014",""
"BISK00CZE","Zlate Hory","Czech Republic","11520M001","A","2005-04-24","bisk00cze_20200219.log","IRSM","EURASIAN","50.2567","17.4286","950.9","3898946.10","1223993.20","4881826.40","","",""
"BOGE00POL","Borowa Gora","Poland","12207M004","A","2019-05-05","boge00pol_20190319.log","IGIK","EURASIAN","52.4752","21.0350","142.3","3633803.40","1397432.40","5035298.60","","",""
"BOGI00POL","Borowa Gora","Poland","12207M003","A","2002-09-22","bogi00pol_20190227.log","IGIK","EURASIAN","52.4750","21.0352","139.9","3633815.70","1397453.90","5035280.80","IGS","",""
"BOGO00POL","Borowa Gora","Poland","12207M002","A","1996-06-30","bogo00pol_20180123.log","IGIK","EURASIAN","52.4759","21.0353","149.6","3633739.30","1397433.90","5035353.30","","ITRF2014",""
"BOLG00ITA","Bologna","Italy","12771M001","A","2005-03-27","bolg00ita_20190326.log","UNIBO","EURASIAN","44.5002","11.3568","99.6","4467541.09","897307.28","4447975.11","","",""
"BOR100POL","Borowiec","Poland","12205M002","A","1995-12-31","bor100pol_20181228.log","SRCPAS","EURASIAN","52.2770","17.0735","124.9","3738358.83","1148173.96","5021816.11","IGS","ITRF2014","IGS14"
"BORJ00DEU","Borkum (Island of Borkum)","Germany","14268M002","A","2006-12-24","borj00deu_20200312.log","BKG","EURASIAN","53.5789","6.6664","53.0","3769403.10","440564.10","5109099.00","","ITRF2014",""
"BORR00ESP","Borriana","Spain","13480M001","A","2007-10-21","borr00esp_20200402.log","ICV","EURASIAN","39.9052","-0.0832","72.9","4899519.31","-7115.81","4069961.42","","",""
"BPDL00POL","Biala Podlaska","Poland","12223M001","A","2008-06-08","bpdl00pol_20190605.log","ASGEUPOS","EURASIAN","52.0353","23.1274","196.7","3615990.00","1544391.00","5005374.00","","",""
"BRMF00FRA","Bron","France","19686M002","A","2015-07-26","brmf00fra_20190313.log","IGN_RGP","EURASIAN","45.7261","4.9384","256.7","4443793.00","383967.20","4544228.60","","",""
"BRST00FRA","Brest","France","10004M004","A","1998-12-06","brst00fra_20200218.log","IGN_RGP","EURASIAN","48.3805","-4.4966","65.5","4231162.00","-332747.00","4745131.00","IGS","ITRF2014","IGS14"
"BRUX00BEL","Brussels","Belgium","13101M010","A","2012-03-11","brux00bel_20200225.log","ROB","EURASIAN","50.7981","4.3586","158.3","4027881.63","306998.54","4919498.98","IGS","ITRF2014","IGS14"
"BSCN00FRA","Besançon","France","10028M007","A","2005-12-18","bscn00fra_20190313.log","IGN_RGP","EURASIAN","47.2469","5.9894","358.6","4314139.00","452626.00","4660703.00","","",""
"BUCU00ROU","Bucuresti","Romania","11401M001","A","1999-02-21","bucu00rou_20170310.log","FSW","EURASIAN","44.4639","26.1257","143.2","4093760.99","2007793.67","4445129.86","IGS","ITRF2014","IGS14"
"BUDP00DNK","Kobenhavn","Denmark","10101M003","A","2003-01-19","budp00dnk_20200402.log","SDFE","EURASIAN","55.7390","12.5000","94.0","3513638.56","778956.19","5248216.25","","ITRF2014",""
"BUTE00HUN","Budapest","Hungary","11209M001","A","2004-10-31","bute00hun_20200129.log","BMEDGS","EURASIAN","47.4809","19.0565","180.9","4081882.42","1410011.13","4678199.42","","",""
"BYDG00POL","Bydgoszcz","Poland","12224M001","A","2008-06-08","bydg00pol_20190830.log","ASGEUPOS","EURASIAN","53.1346","17.9936","104.3","3647217.00","1184604.00","5079625.00","","",""
"BZRG00ITA","Bolzano - Bozen","Italy","12751M001","A","1998-10-25","bzrg00ita_20190409.log","STPOS","EURASIAN","46.4990","11.3368","329.0","4312657.75","864634.31","4603844.05","IGS","",""
"CACE00ESP","Caceres","Spain","13447M001","A","2001-08-19","cace00esp_20191202.log","IGE","EURASIAN","39.4789","-6.3418","437.9","4899866.00","-544567.00","4033773.00","","",""
"CAEN00FRA","Caen","France","19994M001","A","2010-03-28","caen00fra_20190313.log","IGN_RGP","EURASIAN","49.1827","-0.4571","113.7","4177021.00","-33327.00","4803950.00","","",""
"CAG100ITA","Cagliari","Italy","12702M002","A","2016-01-31","cag100ita_20190314.log","DICAAR","EURASIAN","39.2280","9.1101","135.0","4885053.78","783346.33","4012043.34","","",""
"CAKO00HRV","Cakovec","Croatia","11906M001","A","2013-06-16","cako00hrv_20200302.log","SGA","EURASIAN","46.3871","16.4391","222.1","4227250.78","1247280.62","4595193.32","","",""
"CANT00ESP","Santander","Spain","13438M001","A","2001-01-21","cant00esp_20200326.log","IGE","EURASIAN","43.4720","-3.7981","99.3","4625924.68","-307096.78","4365771.15","","ITRF2014",""
"CARG00ESP","Cartagena","Spain","19412M001","A","2015-09-27","carg00esp_20200327.log","IGE","EURASIAN","37.5966","-0.9739","57.3","5059185.52","-85999.15","3870099.23","","",""
"CASC00PRT","Cascais","Portugal","13909S001","A","1998-09-20","casc00prt_20191127.log","DGT","EURASIAN","38.6934","-9.4185","77.1","4917537.87","-815726.53","3965857.98","","ITRF2014",""
"CASE00ESP","Cassa de la Selva","Spain","13494M001","A","2016-07-31","case00esp_20190329.log","ICGC","EURASIAN","41.8829","2.9042","250.6","4749772.00","240959.00","4236095.00","","",""
"CEBR00ESP","Cebreros","Spain","13408M001","A","2010-04-11","cebr00esp_20190925.log","ESOC","EURASIAN","40.4534","-4.3679","775.8","4846664.92","-370195.20","4116929.53","IGS","ITRF2014",""
"CEU100ESP","Ceuta","Spain","13449M002","A","2008-03-09","ceu100esp_20191202.log","IGE","AFRICAN","35.8920","-5.3064","52.5","5150908.02","-478415.02","3718518.24","","ITRF2014",""
"CFRM00CZE","Frydek Mistek","Czech Republic","11525M001","A","2010-03-21","cfrm00cze_20181205.log","ZU","EURASIAN","49.6848","18.3532","373.6","3924573.26","1301971.08","4840464.42","","",""
"CHIO00GBR","Chilbolton","United Kingdom","19194M001","A","2017-02-12","chio00gbr_20200224.log","OS","EURASIAN","51.1490","-1.4383","130.4","4007955.00","-100633.00","4944060.00","","",""
"CHIZ00FRA","Chize","France","10020M001","A","2000-11-26","chiz00fra_20190405.log","LIENSS","EURASIAN","46.1335","-0.4077","113.2","4427603.32","-31506.13","4575621.74","","ITRF2014",""
"CLIB00CZE","Liberec","Czech Republic","11526M001","A","2010-03-21","clib00cze_20181018.log","ZU","EURASIAN","50.7717","15.0599","448.4","3903195.49","1050232.28","4917869.73","","",""
"CNIV00UKR","Chernihiv","Ukraine","15501M001","A","2006-10-29","cniv00ukr_20190902.log","MAO","EURASIAN","51.5189","31.3136","175.9","3397785.21","2066990.56","4969811.58","","",""
"COBA00ESP","Cordoba","Spain","13453M001","A","2005-02-27","coba00esp_20200326.log","IGE","EURASIAN","37.9157","-4.7211","212.8","5021261.40","-414685.50","3898192.70","","",""
"COMO00ITA","Como","Italy","12761M001","A","2004-04-11","como00ita_20190411.log","DICA","EURASIAN","45.8022","9.0956","292.3","4398306.15","704150.02","4550154.78","","",""
"COST00ROU","Constanta","Romania","11407M001","A","2006-02-12","cost00rou_20200323.log","NACLR","EURASIAN","44.1615","28.6575","46.1","4021613.90","2197896.00","4421014.50","","",""
"CPAR00CZE","Pardubice","Czech Republic","11527M001","A","2010-03-21","cpar00cze_20181006.log","ZU","EURASIAN","50.0395","15.7832","283.3","3949919.12","1116467.15","4865832.52","","",""
"CRAK00CZE","Rakovnik","Czech Republic","11528M001","A","2010-03-21","crak00cze_20181120.log","ZU","EURASIAN","50.1024","13.7292","381.9","3982251.40","972921.28","4870394.76","","",""
"CREU00ESP","Cadaques","Spain","13432M001","A","1999-01-31","creu00esp_20190329.log","ICGC","EURASIAN","42.3188","3.3156","132.7","4715420.00","273177.00","4271946.00","","",""
"CTAB00CZE","Tabor","Czech Republic","11529M001","A","2010-03-21","ctab00cze_20181011.log","ZU","EURASIAN","49.4098","14.6802","495.2","4022509.60","1053801.48","4820711.47","","",""
"DARE00GBR","Daresbury","United Kingdom","13208S001","A","2003-07-27","dare00gbr_20200224.log","OS","EURASIAN","53.3448","-2.6405","87.7","3811965.00","-175800.00","5093615.00","","",""
"DELF00NLD","Delft","Netherlands","13502M004","A","1996-02-18","delf00nld_20191026.log","DUT","EURASIAN","51.9861","4.3876","74.4","3924687.74","301132.77","5001910.80","","",""
"DENT00BEL","Dentergem","Belgium","13112M001","A","1996-01-14","dent00bel_20181109.log","ROB","EURASIAN","50.9337","3.3997","63.9","4020711.60","238850.99","4928949.57","","",""
"DEVA00ROU","Deva","Romania","11408M001","A","2006-02-12","deva00rou_20200323.log","NACLR","EURASIAN","45.8784","22.9135","246.7","4097210.90","1731870.20","4556026.60","","",""
"DGOR00MNE","Podgorica","Montenegro","12001M001","A","2019-12-15","dgor00mne_20190930.log","FIST","EURASIAN","42.4175","19.2034","95.0","4453507.16","1551168.23","4280016.17","","",""
"DIEP00DEU","Diepholz","Germany","14287M001","A","2016-08-14","diep00deu_20200312.log","BKG","EURASIAN","52.5881","8.3422","81.7","3842153.21","563401.58","5042888.38","","",""
"DILL00DEU","Dillingen","Germany","14286M001","A","2016-08-14","dill00deu_20191114.log","BKG","EURASIAN","49.3716","6.6997","227.6","4132892.48","485479.06","4817740.36","","",""
"DLF100NLD","Delft","Netherlands","13502M009","A","2015-09-27","dlf100nld_20191026.log","DUT","EURASIAN","51.9860","4.3875","75.8","3924697.94","301124.89","5001905.15","IGS","",""
"DNMU00UKR","Dnipro","Ukraine","12369M001","A","2017-02-19","dnmu00ukr_20191108.log","MAO","EURASIAN","48.4551","35.0627","174.6","3468976.75","2434669.44","4750720.19","","",""
"DOUR00BEL","Dourbes","Belgium","13113M001","A","1996-01-14","dour00bel_20190911.log","ROB","EURASIAN","50.0949","4.5950","282.7","4086778.26","328451.86","4869782.54","","",""
"DRAG00ISR","Metzoki dragot","Israel","20710S001","A","2000-11-26","drag00isr_20190203.log","SOI","AFRICAN","31.5932","35.3921","31.8","4432980.66","3149432.09","3322110.44","IGS","ITRF2014","IGS14"
"DUB200HRV","Dubrovnik","Croatia","11901M002","A","2013-06-16","dub200hrv_20200213.log","SGA","EURASIAN","42.6500","18.1104","453.2","4465939.00","1460594.00","4299291.00","","",""
"DUTH00GRC","Xanthi","Greece","12621M001","A","2009-02-22","duth00grc_20160303.log","DGS","EURASIAN","41.1402","24.9168","109.2","4362689.88","2026647.97","4174234.22","","",""
"DYNG00GRC","DIONYSOS","Greece","12602M006","A","2013-10-20","dyng00grc_20191223.log","CNES","EURASIAN","38.0786","23.9324","510.6","4595220.02","2039434.09","3912625.99","IGS","ITRF2014",""
"EBRE00ESP","Roquetes","Spain","13410M001","A","1996-10-13","ebre00esp_20190621.log","ICGC","EURASIAN","40.8209","0.4924","107.3","4833520.00","41536.00","4147461.00","IGS","ITRF2014","IGS14"
"EDIN00GBR","Edinburgh","United Kingdom","13217S001","A","2017-02-12","edin00gbr_20200224.log","OS","EURASIAN","55.9248","-3.2948","118.6","3575928.00","-205860.00","5259853.00","","ITRF2014",""
"EGLT00FRA","Egletons","France","10032M001","A","2005-07-03","eglt00fra_20190313.log","IGN_RGP","EURASIAN","45.4034","2.0520","667.0","4483373.66","160636.51","4519408.93","","",""
"EIJS00NLD","Eijsden","Netherlands","13533M001","A","1999-06-20","eijs00nld_20190916.log","DUT","EURASIAN","50.7582","5.6836","103.8","4023086.53","400394.88","4916655.32","","",""
"ELBA00ITA","San Piero Campo Nell'Elba - Elba","Italy","12721M002","A","2001-10-14","elba00ita_20180725.log","ASI","EURASIAN","42.7529","10.2111","269.5","4616531.67","831568.43","4307569.07","","",""
"ENAO00PRT","Santa Cruz da Graciosa","Portugal","31902M005","A","2020-03-29","enao00prt_20200227.log","GFZ","EURASIAN","39.0912","-28.0260","91.9","4375732.62","-2329166.96","4000238.27","IGS","",""
"ENIS00GBR","Enniskillen","United Kingdom","13246M001","A","2009-03-15","enis00gbr_20190613.log","OSNI","EURASIAN","54.3954","-7.6449","107.3","3688504.10","-495090.78","5162577.25","","",""
"ENTZ00FRA","Entzheim","France","10014M002","A","2005-07-03","entz00fra_20190313.log","IGN_RGP","EURASIAN","48.5494","7.6399","203.1","4192710.00","562398.00","4757685.00","","",""
"ESCO00ESP","Naut Aran","Spain","13435M001","A","1999-09-05","esco00esp_20190621.log","ICGC","EURASIAN","42.6936","0.9757","2507.8","4696265.00","79978.00","4304244.00","","ITRF2014",""
"EUSK00DEU","Euskirchen","Germany","14258M003","A","1998-08-30","eusk00deu_20190201.log","FSW","EURASIAN","50.6741","6.7635","245.3","4022106.37","477010.95","4910840.64","","",""
"FFMJ00DEU","Frankfurt / Main","Germany","14279M001","A","2019-12-15","ffmj00deu_20200312.log","BKG","EURASIAN","50.0906","8.6650","178.2","4053455.99","617729.53","4869395.62","IGS","",""
"FINS00FIN","Finstrom","Finland","10523M001","A","2017-03-19","fins00fin_20191028.log","FGI","EURASIAN","60.2291","19.9513","53.4","2984444.50","1083375.68","5513243.09","","",""
"FLRS00PRT","Santa Cruz das Flores","Portugal","31907M001","A","2008-08-31","flrs00prt_20191212.log","DGT","NORTH AMERICAN","39.4538","-31.1264","79.9","4221530.01","-2549242.33","4031397.80","IGS","ITRF2014","IGS14"
"FOYL00GBR","Londonderry","United Kingdom","13241M001","A","2009-03-15","foyl00gbr_20190304.log","OSNI","EURASIAN","54.9838","-7.3367","68.9","3638083.50","-468414.90","5200402.30","","ITRF2014",""
"FUNC00PRT","Funchal","Portugal","13911S001","A","2008-07-06","func00prt_20191212.log","DGT","AFRICAN","32.6479","-16.9076","78.5","5143339.43","-1563412.87","3421191.44","IGS","ITRF2014","IGS14"
"GAIA00PRT","Gaia","Portugal","13902M001","A","2001-02-11","gaia00prt_20191128.log","DGT","EURASIAN","41.1060","-8.5891","287.8","4759095.62","-718818.80","4171491.32","","ITRF2014",""
"GANP00SVK","Ganovce - Poprad","Slovak Republic","11515M001","A","2003-11-16","ganp00svk_20200117.log","GKU","EURASIAN","49.0347","20.3229","746.0","3929181.50","1455236.80","4793653.90","IGS","ITRF2014","IGS14"
"GARI00ITA","Porto Garibaldi","Italy","19517M001","A","2009-11-08","gari00ita_20190416.log","ENDIF","EURASIAN","44.6769","12.2494","48.2","4439514.00","963867.00","4461922.00","","ITRF2014",""
"GDRS00UKR","Gorodok","Ukraine","15595M001","A","2019-04-14","gdrs00ukr_20181105.log","MAO","EURASIAN","50.5984","29.4465","196.9","3532701.78","1994351.36","4905461.56","","",""
"GELL00DEU","Gellin","Germany","10908M001","A","2016-08-14","gell00deu_20191105.log","BKG","EURASIAN","53.4503","14.3212","75.3","3688288.60","941586.30","5100607.85","","",""
"GENO00ITA","Genova","Italy","12712M002","A","1998-11-29","geno00ita_20180725.log","ASI","EURASIAN","44.4194","8.9211","153.5","4507890.27","707618.97","4441603.01","IGS","ITRF2014",""
"GLSV00UKR","Kiev","Ukraine","12356M001","A","1998-05-10","glsv00ukr_20190627.log","MAO","EURASIAN","50.3642","30.4967","226.8","3512889.29","2068980.65","4888903.26","IGS","ITRF2014","IGS14"
"GOP600CZE","Ondrejov","Czech Republic","11502M006","A","2015-07-05","gop600cze_20200219.log","GOP","EURASIAN","49.9137","14.7856","592.6","3979319.62","1050311.94","4857064.38","IGS","",""
"GOPE00CZE","Ondrejov","Czech Republic","11502M002","A","1995-12-31","gope00cze_20200325.log","GOP","EURASIAN","49.9137","14.7856","592.6","3979316.13","1050312.48","4857067.11","IGS","ITRF2014",""
"GOR200DEU","Gorleben","Germany","14115M002","A","2016-08-14","gor200deu_20190326.log","BKG","EURASIAN","53.0497","11.3496","61.9","3767160.11","756145.21","5073920.13","","",""
"GRAC00FRA","Caussols","France","10002M010","A","2015-11-08","grac00fra_20190313.log","IGN_RGP","EURASIAN","43.7545","6.9208","1319.8","4581708.63","556132.23","4389340.93","IGS","",""
"GRAS00FRA","Caussols","France","10002M006","A","1995-12-31","gras00fra_20190220.log","CNES","EURASIAN","43.7547","6.9206","1319.3","4581690.81","556114.97","4389360.88","IGS","ITRF2014","IGS14"
"GRAZ00AUT","Graz","Austria","11001M002","A","1995-12-31","graz00aut_20200224.log","BEV","EURASIAN","47.0671","15.4935","538.3","4194424.12","1162702.46","4647245.19","IGS","ITRF2014","IGS14"
"GSR100SVN","Ljubljana","Slovenia","14501M001","A","2001-02-25","gsr100svn_20190402.log","SMA","EURASIAN","46.0481","14.5437","351.7","4292609.81","1113638.99","4569215.39","","",""
"GUIP00FRA","Guipavas","France","10004M501","A","2005-07-03","guip00fra_20200203.log","IGN_RGP","EURASIAN","48.4446","-4.4118","154.7","4226392.77","-326080.30","4749929.35","","ITRF2014",""
"GWWL00POL","Gorzow Wielkopolski","Poland","12225M001","A","2008-06-08","gwwl00pol_20190830.log","ASGEUPOS","EURASIAN","52.7380","15.2052","127.4","3734526.00","1015013.00","5053043.00","","",""
"HAS600SWE","Hassleholm","Sweden","10429M002","A","2014-09-28","has600swe_20191105.log","LMV","EURASIAN","56.0922","13.7180","114.4","3464660.83","845747.15","5270269.15","","",""
"HEL200DEU","Helgoland Island","Germany","14264M002","A","2016-08-14","hel200deu_20190520.log","BKG","EURASIAN","54.1863","7.8765","92.1","3705183.20","512589.50","5148980.60","","",""
"HELG00DEU","Helgoland Island","Germany","14264M001","A","1999-11-28","helg00deu_20200312.log","BKG","EURASIAN","54.1745","7.8931","48.3","3706067.27","513803.75","5148174.30","","ITRF2014",""
"HERS00GBR","Hailsham","United Kingdom","13212M007","A","1996-01-14","hers00gbr_20200220.log","NSGF","EURASIAN","50.8673","0.3362","76.5","4033471.33","23667.86","4924300.35","IGS","ITRF2014","IGS14"
"HERT00GBR","Hailsham","United Kingdom","13212M010","A","2003-08-17","hert00gbr_20150921.log","NSGF","EURASIAN","50.8675","0.3344","83.3","4033461.04","23537.66","4924318.17","IGS","ITRF2014","IGS14"
"HETT00FIN","Hetta","Finland","10524M001","A","2018-09-30","hett00fin_20191028.log","FGI","EURASIAN","68.4067","23.6653","403.7","2156252.69","944971.33","5908310.84","","",""
"HOBU00DEU","Hohenbuenstorf, Eschenberg","Germany","14202M003","A","2000-06-11","hobu00deu_20190619.log","FSW","EURASIAN","53.0506","10.4763","152.2","3778220.10","698635.22","5074054.03","","",""
"HOFJ00DEU","Hof","Germany","14289M001","A","2016-08-14","hofj00deu_20200227.log","BKG","EURASIAN","50.3129","11.8759","615.9","3994172.08","839949.18","4885561.92","","",""
"HOFN00ISL","Hoefn","Iceland","10204M002","A","1997-09-28","hofn00isl_20190613.log","FSW","EURASIAN","64.2673","-15.1979","82.3","2679689.85","-727951.34","5722788.90","IGS","ITRF2014","IGS14"
"HUEL00ESP","Huelva","Spain","13451M001","A","2007-09-09","huel00esp_20191202.log","IGE","EURASIAN","37.2000","-6.9203","81.8","5049613.10","-612885.60","3835143.80","","ITRF2014",""
"IBIZ00ESP","Ibiza","Spain","13454S001","A","2017-02-19","ibiz00esp_20200331.log","IGE","EURASIAN","38.9112","1.4490","59.9","4967979.70","125662.83","3984692.56","","ITRF2014",""
"IENG00ITA","Torino","Italy","12724S001","A","2004-02-01","ieng00ita_20190927.log","INRIM","EURASIAN","45.0151","7.6394","316.6","4476537.40","600431.46","4488761.34","IGS","ITRF2014",""
"IGEO00MDA","Chisinau","Republic of Moldova","15101M001","A","2007-08-05","igeo00mda_20181217.log","INGEOCAD","EURASIAN","47.0304","28.8435","100.8","3814971.80","2101073.50","4644140.70","","",""
"IGM200ITA","Firenze","Italy","12701M005","A","2018-11-04","igm200ita_20190618.log","IGMI","EURASIAN","43.7958","11.2139","94.9","4523237.05","896768.78","4391808.90","","",""
"IGMI00ITA","Firenze","Italy","12701M003","A","2007-01-28","igmi00ita_20190813.log","IGMI","EURASIAN","43.7957","11.2138","95.1","4523251.08","896760.23","4391796.49","","",""
"IJMU00NLD","Ijmuiden","Netherlands","13537M001","A","2016-05-29","ijmu00nld_20190916.log","DUT","EURASIAN","52.4620","4.5561","54.1","3882053.27","309346.21","5034330.23","","ITRF2014",""
"ILDX00FRA","Ile d'Aix","France","19724M001","A","2013-05-12","ildx00fra_20191024.log","IGN_RGP","EURASIAN","46.0094","-1.1768","59.7","4436671.28","-91138.37","4566018.86","","",""
"INVR00GBR","Inverness","United Kingdom","13221M001","A","2009-04-19","invr00gbr_20200226.log","OS","EURASIAN","57.4863","-4.2193","65.5","3427172.00","-252834.00","5355255.00","","",""
"IRBE00LVA","Irbene","Latvia","10726M001","A","2016-04-17","irbe00lva_20200325.log","LGIA","EURASIAN","57.5544","21.8520","45.8","3183614.90","1276707.50","5359315.00","","",""
"ISTA00TUR","Istanbul","Turkey","20807M001","A","2000-01-30","ista00tur_20181211.log","FSW","EURASIAN","41.1044","29.0193","147.2","4208830.46","2334850.14","4171267.18","IGS","ITRF2014",""
"IZAN00ESP","Guimar","Spain","31309M002","A","2009-01-18","izan00esp_20191021.log","IGE","AFRICAN","28.3081","-16.4997","2417.4","5390243.45","-1596630.08","3007752.76","","",""
"IZMI00TUR","izmir","Turkey","20817M001","A","2019-02-17","izmi00tur_20191224.log","GCM","EURASIAN","38.3948","27.0818","74.9","4456584.24","2278765.51","3939930.89","IGS","",""
"IZRS00UKR","Izmail","Ukraine","18115M002","A","2019-04-14","izrs00ukr_20181105.log","MAO","EURASIAN","45.3335","28.8355","86.8","3934475.30","2166172.96","4513539.91","","",""
"JOE200FIN","Joensuu","Finland","10512M002","A","2017-03-19","joe200fin_20191025.log","FGI","EURASIAN","62.3911","30.0962","113.8","2564142.15","1486152.76","5628949.30","","",""
"JOEN00FIN","Joensuu","Finland","10512M001","A","1996-11-03","joen00fin_20191104.log","FGI","EURASIAN","62.3912","30.0962","113.4","2564139.00","1486150.00","5628951.00","","ITRF2014",""
"JON600SWE","Jonkoping","Sweden","10430M002","A","2014-06-22","jon600swe_20191105.log","LMV","EURASIAN","57.7454","14.0597","260.4","3309994.36","828938.43","5370879.86","","",""
"JOZ200POL","Jozefoslaw","Poland","12204M002","A","2003-09-14","joz200pol_20191223.log","WUT","EURASIAN","52.0978","21.0323","152.3","3664881.00","1409190.00","5009618.00","IGS","ITRF2014",""
"JOZE00POL","Jozefoslaw","Poland","12204M001","A","1995-12-31","joze00pol_20200206.log","WUT","EURASIAN","52.0973","21.0315","141.4","3664940.50","1409153.59","5009571.17","IGS","ITRF2014","IGS14"
"KAD600SWE","Karlstad","Sweden","10431M002","A","2014-09-28","kad600swe_20191105.log","LMV","EURASIAN","59.4441","13.5056","114.0","3160760.44","759158.92","5469347.04","","",""
"KARL00DEU","Karlsruhe","Germany","14216M001","A","1998-08-30","karl00deu_20200309.log","BKG","EURASIAN","49.0112","8.4113","182.9","4146524.65","613137.82","4791516.95","","ITRF2014",""
"KATO00POL","Katowice","Poland","12219S001","A","2003-08-10","kato00pol_20200213.log","ASGEUPOS","EURASIAN","50.2533","19.0356","332.4","3862992.00","1332823.00","4881105.00","","",""
"KEV200FIN","Utsjoki","Finland","10515M002","A","2017-04-02","kev200fin_20191028.log","FGI","EURASIAN","69.7560","27.0071","136.4","1972152.32","1005171.52","5961801.74","","",""
"KILP00FIN","Kilpisjarvi","Finland","10525M001","A","2017-04-02","kilp00fin_20191028.log","FGI","EURASIAN","68.9416","20.9141","539.7","2147249.90","820562.31","5930137.17","","",""
"KIR000SWE","Kiruna","Sweden","10422M001","A","1996-11-03","kir000swe_20200204.log","LMV","EURASIAN","67.8776","21.0602","498.0","2248123.50","865686.53","5886425.59","IGS","ITRF2014",""
"KIR800SWE","Kiruna","Sweden","10422M002","A","2016-01-31","kir800swe_20191107.log","LMV","EURASIAN","67.8775","21.0602","498.0","2248127.37","865685.47","5886424.30","IGS","",""
"KIRU00SWE","Kiruna","Sweden","10403M002","A","1995-12-31","kiru00swe_20191112.log","ESOC","EURASIAN","67.8574","20.9684","390.9","2251421.00","862817.09","5885476.56","IGS","ITRF2014","IGS14"
"KIV200FIN","Aanekoski","Finland","10516M002","A","2017-04-02","kiv200fin_20191028.log","FGI","EURASIAN","62.8199","25.7019","217.0","2632281.58","1266941.23","5651030.07","","",""
"KLOP00DEU","Kloppenheim / Frankfurt","Germany","14214M002","A","1999-10-31","klop00deu_20191018.log","FSW","EURASIAN","50.2198","8.7299","222.4","4041875.73","620655.06","4878636.61","","",""
"KNJA00SRB","Knjazevac","Serbia","12113M001","A","2015-09-27","knja00srb_20190412.log","RGZ","EURASIAN","43.5665","22.2553","291.0","4284174.97","1753166.35","4373521.60","","",""
"KOS100NLD","Kootwijk","Netherlands","13504M005","A","2016-04-17","kos100nld_20190916.log","DUT","EURASIAN","52.1734","5.8182","104.8","3899613.95","397361.59","5014738.67","IGS","",""
"KRA100POL","Krakow","Poland","12218M002","A","2010-03-21","kra100pol_20180129.log","AGH","EURASIAN","50.0661","19.9205","267.1","3856938.88","1397750.23","4867717.35","","",""
"KRAW00POL","Krakow","Poland","12218M001","A","2003-01-26","kraw00pol_20190420.log","AGH","EURASIAN","50.0661","19.9205","266.6","3856936.00","1397750.00","4867719.00","","",""
"KRRS00UKR","Kropyvnytsky","Ukraine","15597M001","A","2018-04-29","krrs00ukr_20180321.log","MAO","EURASIAN","48.5182","32.2630","162.7","3579308.75","2259514.75","4755360.11","","",""
"KRS100TUR","Kars","Turkey","20816M001","A","2019-01-13","krs100tur_20191224.log","GCM","EURASIAN","40.5885","43.0934","1811.7","3542999.67","3314720.17","4129002.59","IGS","",""
"KTVL00UKR","Katzively, Greater Yalta","Ukraine","12337M003","A","2010-06-13","ktvl00ukr_20170801.log","MAO","EURASIAN","44.3929","33.9695","67.4","3785991.69","2550749.11","4439438.29","","ITRF2014",""
"KUNZ00CZE","Kunzak","Czech Republic","11524M001","A","2010-12-12","kunz00cze_20180515.log","GOP","EURASIAN","49.1073","15.2009","703.3","4037498.00","1097035.00","4798910.00","","",""
"KURE00EST","Kuressaare","Estonia","10604S001","A","2008-04-27","kure00est_20190930.log","ELB","EURASIAN","58.2556","22.5101","41.5","3107617.76","1287856.33","5400807.11","","",""
"KUU200FIN","Kuusamo","Finland","10517M002","A","2018-09-30","kuu200fin_20191028.log","FGI","EURASIAN","65.9102","29.0336","379.2","2282711.76","1267076.73","5800214.89","","",""
"LAGO00PRT","Lagos","Portugal","13903M001","A","2001-02-11","lago00prt_20191129.log","DGT","EURASIAN","37.0989","-8.6684","62.7","5035246.68","-767657.38","3826194.04","","ITRF2014",""
"LAMA00POL","Olsztyn","Poland","12209M001","A","1995-12-31","lama00pol_20180823.log","UWM","EURASIAN","53.8924","20.6699","186.7","3524523.00","1329693.00","5129846.00","IGS","ITRF2014",""
"LAMP00ITA","Lampedusa","Italy","12706M002","A","1999-06-20","lamp00ita_20200326.log","ASI","AFRICAN","35.4995","12.6057","57.8","5073182.34","1134516.39","3683155.96","","ITRF2014",""
"LARM00GRC","Larisa","Greece","12610M002","A","2011-05-01","larm00grc_20180319.log","DGS","EURASIAN","39.6141","22.3879","151.3","4549397.17","1874003.14","4045167.61","","",""
"LDB200DEU","Lindenberg","Germany","14114M002","A","2017-03-12","ldb200deu_20190812.log","BKG","EURASIAN","52.2091","14.1209","159.5","3798345.26","955552.84","5017221.54","","",""
"LEIJ00DEU","Leipzig","Germany","14267M001","A","2016-08-14","leij00deu_20200210.log","BKG","EURASIAN","51.3540","12.3741","178.4","3898736.52","855345.12","4958372.37","IGS","",""
"LEK600SWE","Leksand","Sweden","10433M002","A","2014-09-28","lek600swe_20191105.log","LMV","EURASIAN","60.7222","14.8771","477.7","3022567.26","802951.31","5540685.85","","",""
"LEON00ESP","Leon","Spain","13475M001","A","2007-09-09","leon00esp_20200326.log","IGE","EURASIAN","42.5884","-5.6510","970.3","4680871.40","-463168.40","4294606.60","","",""
"LERI00GBR","Lerwick","United Kingdom","19159M003","A","2017-02-12","leri00gbr_20200226.log","OS","EURASIAN","60.1383","-1.1837","131.4","3183134.00","-65772.00","5508281.00","","",""
"LIL200FRA","Lille","France","10051M003","A","2010-03-28","lil200fra_20190313.log","IGN_RGP","EURASIAN","50.6135","3.1360","96.5","4049341.00","221853.00","4906449.00","","",""
"LINZ00AUT","Linz","Austria","11033S001","A","2001-08-19","linz00aut_20200318.log","LINZAG","EURASIAN","48.3098","14.2831","335.3","4118899.00","1048597.00","4740106.00","","",""
"LLIV00ESP","Llivia","Spain","13436M001","A","1999-06-13","lliv00esp_20190329.log","ICGC","EURASIAN","42.4784","1.9731","1466.9","4709564.00","162251.00","4285937.00","","ITRF2014",""
"LODZ00POL","Lodz","Poland","12226M001","A","2008-06-08","lodz00pol_20190830.log","ASGEUPOS","EURASIAN","51.7787","19.4595","259.3","3728602.00","1317402.00","4987811.00","","",""
"LOV600SWE","Lovo","Sweden","10434M002","A","2014-09-28","lov600swe_20191105.log","LMV","EURASIAN","59.3379","17.8289","79.5","3104211.12","998381.58","5463295.58","","",""
"LPAL00ESP","Roque de los Muchachos","Spain","81701M001","A","2002-05-12","lpal00esp_20191202.log","IGE","AFRICAN","28.7640","-17.8938","2207.0","5326648.00","-1719828.00","3052056.00","IGS","ITRF2014","IGS14"
"LROC00FRA","La Rochelle","France","10023M001","A","2002-05-12","lroc00fra_20190418.log","LIENSS","EURASIAN","46.1589","-1.2193","57.9","4424632.80","-94175.50","4577543.90","IGS","ITRF2014","IGS14"
"M0SE00ITA","Roma","Italy","12772M001","A","2007-07-01","m0se00ita_20200323.log","AGG","EURASIAN","41.8931","12.4933","120.6","4642432.50","1028629.40","4236854.20","IGS","",""
"MALA00ESP","Malaga","Spain","13443M001","A","2005-11-13","mala00esp_20200326.log","IGE","EURASIAN","36.7261","-4.3935","119.8","5103282.26","-392096.54","3793147.05","","ITRF2014",""
"MALL00ESP","Palma de Mallorca","Spain","13444M001","A","2001-01-21","mall00esp_20191202.log","IGE","EURASIAN","39.5526","2.6246","62.0","4919369.64","225499.60","4039849.56","","ITRF2014",""
"MAN200FRA","Le Mans","France","10091M002","A","2010-03-28","man200fra_20181001.log","IGN_RGP","EURASIAN","48.0186","0.1553","168.0","4274276.05","11584.22","4718385.97","","",""
"MAR600SWE","Maartsbo","Sweden","10405M002","A","1996-11-03","mar600swe_20200213.log","LMV","EURASIAN","60.5951","17.2585","75.4","2998189.71","931451.59","5533398.47","IGS","ITRF2014","IGS14"
"MAR700SWE","Gavle","Sweden","10405M003","A","2016-01-31","mar700swe_20191107.log","LMV","EURASIAN","60.5951","17.2584","74.3","2998198.76","931449.71","5533392.64","IGS","",""
"MARP00UKR","Mariupol","Ukraine","15556M001","A","2017-02-19","marp00ukr_20191114.log","MAO","EURASIAN","47.0974","37.4979","96.2","3451047.12","2647880.75","4649213.53","","",""
"MARS00FRA","Marseille","France","10073M008","A","1998-10-04","mars00fra_20191024.log","IGN_RGP","EURASIAN","43.2788","5.3538","61.7","4630532.80","433946.10","4350142.60","IGS","ITRF2014",""
"MAS100ESP","Maspalomas","Spain","31303M002","A","1995-12-31","mas100esp_20200108.log","ESOC","AFRICAN","27.7637","-15.6333","197.2","5439192.26","-1522055.61","2953454.72","IGS","ITRF2014","IGS14"
"MAT100ITA","MATERA","Italy","12734M009","A","2019-12-29","mat100ita_20180725.log","ASI","EURASIAN","40.6491","16.7045","534.5","4641951.51","1393053.60","4133280.82","IGS","ITRF2014","IGS14"
"MATE00ITA","Matera","Italy","12734M008","A","1995-12-31","mate00ita_20180725.log","ASI","EURASIAN","40.6491","16.7045","535.6","4641949.71","1393045.30","4133287.33","IGS","ITRF2014","IGS14"
"MATG00ITA","Matera","Italy","12734M010","A","2015-08-09","matg00ita_20200326.log","ASI","EURASIAN","40.6490","16.7047","537.0","4641953.04","1393063.55","4133279.59","IGS","",""
"MDVJ00RUS","Mendeleevo","Russian Federation","12309M005","A","2007-03-04","mdvj00rus_20190409.log","IMVP","EURASIAN","56.0215","37.2145","257.4","2845456.30","2160954.30","5265993.40","IGS","ITRF2014","IGS14"
"MEDI00ITA","Medicina","Italy","12711M003","A","1996-01-21","medi00ita_20200326.log","ASI","EURASIAN","44.5200","11.6468","50.0","4461400.89","919593.44","4449504.67","IGS","ITRF2014","IGS14"
"MELI00ESP","Melilla","Spain","19379M001","A","2012-08-12","meli00esp_20200326.log","IGE","AFRICAN","35.2812","-2.9516","93.5","5205630.00","-268410.00","3663434.00","IGS","",""
"MERS00TUR","Erdemli","Turkey","20814M001","A","2019-03-17","mers00tur_20191224.log","GCM","EURASIAN","36.5664","34.2559","38.5","4239149.45","2886967.94","3778877.02","IGS","ITRF2014",""
"MET300FIN","Kirkkonummi","Finland","10503M010","A","2017-03-19","met300fin_20191025.log","FGI","EURASIAN","60.2175","24.3945","79.2","2892583.98","1311799.56","5512619.85","IGS","",""
"METG00FIN","METSAHOVI","Finland","10503M002","A","2018-05-13","metg00fin_20200220.log","CNES","EURASIAN","60.2420","24.3842","59.7","2890652.50","1310295.55","5513958.88","IGS","",""
"METS00FIN","Kirkkonummi","Finland","10503S011","A","1995-12-31","mets00fin_20191025.log","FGI","EURASIAN","60.2175","24.3953","94.6","2892571.00","1311843.28","5512634.01","IGS","ITRF2014","IGS14"
"MIK300FIN","Mikkeli","Finland","10526M001","A","2018-06-24","mik300fin_20191028.log","FGI","EURASIAN","61.5741","27.1028","167.3","2709831.93","1386860.95","5586222.94","","",""
"MIKL00UKR","Mykolaiv","Ukraine","12335M001","A","2002-11-10","mikl00ukr_20191018.log","MAO","EURASIAN","46.9728","31.9728","94.7","3698554.63","2308675.27","4639770.43","IGS","ITRF2014",""
"MKRS00UKR","Mukachevo","Ukraine","15599M001","A","2018-04-29","mkrs00ukr_20180321.log","MAO","EURASIAN","48.3787","22.7093","188.2","3915409.08","1638600.28","4745087.11","","",""
"MLVL00FRA","Marne-la-Vallee","France","10092M001","A","2000-10-22","mlvl00fra_20190313.log","IGN_RGP","EURASIAN","48.8411","2.5873","160.7","4201577.00","189860.00","4779065.00","","",""
"MOP200SVK","Modra-Piesok","Slovak Republic","11507M002","A","2008-08-24","mop200svk_20200117.log","SUT","EURASIAN","48.3727","17.2738","581.3","4053743.00","1260570.00","4744940.00","","",""
"MOPI00SVK","Modra-Piesok","Slovak Republic","11507M001","A","1996-11-17","mopi00svk_20191224.log","SUT","EURASIAN","48.3727","17.2739","578.3","4053738.00","1260571.00","4744940.00","","",""
"MOPS00ITA","Modena","Italy","12791M001","A","2007-04-22","mops00ita_20190221.log","DIEF","EURASIAN","44.6294","10.9492","85.0","4463913.40","863588.18","4458190.17","","",""
"MORP00GBR","Morpeth","United Kingdom","13299S001","A","2002-11-03","morp00gbr_20200203.log","NCL","EURASIAN","55.2128","-1.6855","144.5","3645667.90","-107277.30","5215053.50","IGS","ITRF2014",""
"MSEL00ITA","Medicina","Italy","12711M008","A","2004-10-10","msel00ita_20190326.log","UNIBO","EURASIAN","44.5200","11.6465","49.3","4461399.55","919567.22","4449510.36","","",""
"NEWL00GBR","Newlyn","United Kingdom","13273M103","A","2004-06-27","newl00gbr_20190920.log","IESSG","EURASIAN","50.1030","-5.5428","64.5","4079954.10","-395930.40","4870196.80","","ITRF2014",""
"NICO00CYP","Nicosia","Cyprus","14302M001","A","1997-06-22","nico00cyp_20191108.log","FSW","AFRICAN","35.1410","33.3964","191.7","4359417.88","2874117.01","3650778.27","IGS","ITRF2014","IGS14"
"NOA100GRC","Athens","Greece","12620M001","A","2006-05-07","noa100grc_20200312.log","NOA","EURASIAN","38.0471","23.8640","537.8","4599641.95","2034827.31","3909890.60","","",""
"NOR700SWE","Norrkoping","Sweden","10410M003","A","2014-06-22","nor700swe_20191105.log","LMV","EURASIAN","58.5901","16.2464","40.5","3199101.56","932233.01","5420316.87","","",""
"NPAZ00SRB","Novi Pazar","Serbia","12110M001","A","2015-06-21","npaz00srb_20190412.log","RGZ","EURASIAN","43.1396","20.5193","549.5","4365991.15","1634052.95","4339210.57","","",""
"NYA100NOR","Ny-Alesund","Norway","10317M003","A","1998-05-03","nya100nor_20181203.log","NMA","EURASIAN","78.9296","11.8653","83.7","1202434.00","252632.00","6237772.00","IGS","ITRF2014","IGS14"
"NYA200NOR","Ny Alesund","Norway","10317M008","A","2018-09-30","nya200nor_20200402.log","GFZ","EURASIAN","78.9303","11.8586","81.5","1202379.31","252474.65","6237786.54","IGS","",""
"OBE400DEU","Oberpfaffenhofen","Germany","14208M007","A","2015-03-08","obe400deu_20200313.log","GFZ","EURASIAN","48.0848","11.2779","650.6","4186704.43","834903.58","4723664.86","IGS","",""
"OLK200FIN","Rauma","Finland","10518M002","A","2018-06-24","olk200fin_20191028.log","FGI","EURASIAN","61.1910","21.5058","39.4","2866981.12","1129668.95","5565665.82","","",""
"ONS100SWE","Onsala","Sweden","10402M007","A","2016-01-31","ons100swe_20191106.log","LMV","EURASIAN","57.3953","11.9245","44.4","3370667.20","711818.72","5349787.88","IGS","",""
"ONSA00SWE","Onsala","Sweden","10402M004","A","1995-12-31","onsa00swe_20191104.log","LMV","EURASIAN","57.3953","11.9255","45.5","3370658.83","711876.94","5349786.75","IGS","ITRF2014","IGS14"
"ORID00MKD","Ohrid","Macedonia","15601M001","A","2000-07-30","orid00mkd_20200218.log","FSW","EURASIAN","41.1273","20.7940","773.0","4498451.81","1708266.83","4173591.78","IGS","ITRF2014",""
"ORIV00FIN","Orivesi","Finland","10527M001","A","2018-10-28","oriv00fin_20191028.log","FGI","EURASIAN","61.6163","24.2118","155.9","2772556.07","1246719.59","5588449.56","","",""
"OROS00HUN","Oroshaza","Hungary","11207M001","A","2001-12-09","oros00hun_20190402.log","SGO","EURASIAN","46.5550","20.6710","134.3","4110967.50","1551025.70","4607983.30","","",""
"OSK600SWE","Oskarshamn","Sweden","10435M002","A","2014-06-22","osk600swe_20191105.log","LMV","EURASIAN","57.0657","15.9969","150.2","3341336.36","957914.56","5330005.70","","",""
"OSLS00NOR","Oslo","Norway","10307M001","A","2000-12-10","osls00nor_20200131.log","NMA","EURASIAN","59.7366","10.3678","221.5","3169982.15","579956.60","5485936.47","","ITRF2014",""
"OST600SWE","Ostersund","Sweden","10436M002","A","2014-09-28","ost600swe_20191105.log","LMV","EURASIAN","63.4428","14.8580","489.8","2763889.55","733243.49","5682651.67","","",""
"OUL200FIN","Oulu","Finland","10519M002","A","2017-03-19","oul200fin_20191028.log","FGI","EURASIAN","65.0864","25.8925","82.6","2423797.11","1176543.07","5761848.50","","",""
"OVE600SWE","Overkalix","Sweden","10437M002","A","2014-06-22","ove600swe_20191105.log","LMV","EURASIAN","66.3178","22.7734","222.8","2368886.86","994496.33","5818476.68","","",""
"PADO00ITA","Padova","Italy","12750S001","A","2001-12-02","pado00ita_20200220.log","CISAS","EURASIAN","45.4112","11.8961","64.7","4388882.41","924567.03","4519588.45","IGS","ITRF2014",""
"PASA00ESP","Pasaia","Spain","19351S001","A","2015-11-08","pasa00esp_20200123.log","ARA","EURASIAN","43.3218","-1.9315","67.3","4644909.24","-156645.17","4353622.78","","ITRF2014",""
"PAT000GRC","Patras","Greece","12622M001","A","2009-06-14","pat000grc_20200325.log","INSU","EURASIAN","38.2837","21.7868","121.0","4655002.72","1860619.67","3930281.84","","ITRF2014",""
"PDEL00PRT","Ponta Delgada","Portugal","31906M004","A","2001-02-11","pdel00prt_20200103.log","DGT","EURASIAN","37.7477","-25.6628","110.8","4551596.14","-2186893.42","3883410.68","IGS","ITRF2014","IGS14"
"PENC00HUN","Penc","Hungary","11206M006","A","1996-03-03","penc00hun_20160303.log","SGO","EURASIAN","47.7896","19.2815","291.7","4052449.80","1417680.80","4701406.90","IGS","ITRF2014",""
"PFA200AUT","Bregenz","Austria","11005M003","A","2008-10-05","pfa200aut_20200204.log","BEV","EURASIAN","47.5153","9.7847","1090.3","4253560.00","733545.00","4681453.00","","",""
"PFA300AUT","Bregenz","Austria","11005M004","A","2019-03-17","pfa300aut_20181128.log","BEV","EURASIAN","47.5153","9.7847","1090.3","4253561.38","733544.83","4681451.82","","",""
"PMTH00GBR","Plymouth","United Kingdom","13229M001","A","2017-02-12","pmth00gbr_20200306.log","OS","EURASIAN","50.4165","-4.1262","175.1","4061825.00","-293021.00","4892572.00","","ITRF2014",""
"POLV00UKR","Poltava","Ukraine","12336M001","A","2001-09-09","polv00ukr_20191125.log","MAO","EURASIAN","49.6026","34.5429","178.1","3411557.34","2348463.83","4834396.64","IGS","ITRF2014","IGS14"
"PORE00HRV","Porec","Croatia","11907M001","A","2013-06-16","pore00hrv_20200213.log","SGA","EURASIAN","45.2260","13.5950","66.2","4373762.07","1057723.72","4505121.30","","",""
"POTS00DEU","Potsdam","Germany","14106M003","A","1995-12-31","pots00deu_20200402.log","GFZ","EURASIAN","52.3793","13.0661","144.4","3800689.63","882077.39","5028791.32","IGS","ITRF2014","IGS14"
"POUS00CZE","Poustka","Czech Republic","11518M001","A","2005-10-16","pous00cze_20200219.log","IRSM","EURASIAN","50.1384","12.2979","572.2","4002424.80","872512.90","4873111.70","","",""
"POZE00HRV","Pozega","Croatia","11908M001","A","2013-06-16","poze00hrv_20200302.log","SGA","EURASIAN","45.3328","17.6755","212.5","4279473.14","1363734.68","4513577.82","","",""
"PRAT00ITA","Prato","Italy","12760M001","A","2003-07-13","prat00ita_20190312.log","UNIFI","EURASIAN","43.8856","11.0991","120.0","4518264.43","886376.44","4399019.13","","",""
"PRYL00UKR","Pryluky","Ukraine","15502M001","A","2017-02-19","pryl00ukr_20191125.log","MAO","EURASIAN","50.5922","32.4004","172.5","3425673.04","2174035.50","4904999.95","","",""
"PTBB00DEU","Braunschweig","Germany","14234M001","A","2000-04-23","ptbb00deu_20200305.log","FSW","EURASIAN","52.2962","10.4597","130.2","3844060.11","709661.20","5023129.46","IGS","ITRF2014",""
"PULK00RUS","ST.PETERSBURG","Russian Federation","12305M001","A","2008-05-18","pulk00rus_20200127.log","PLK","EURASIAN","59.7718","30.3278","101.2","2778606.90","1625494.60","5487811.00","","",""
"PUYV00FRA","Le Puy en Velay","France","10065M001","A","2005-07-03","puyv00fra_20190313.log","IGN_RGP","EURASIAN","45.0436","3.8789","710.0","4504322.00","305405.00","4491277.00","","",""
"PYHA00FIN","Pyhajoki","Finland","10528M001","A","2018-10-28","pyha00fin_20191028.log","FGI","EURASIAN","64.4976","24.2376","26.3","2510901.14","1130426.70","5733838.62","","",""
"QAQ100GRL","Qaqortoq / Julianehaab","Greenland","43007M001","A","2002-09-08","qaq100grl_20200205.log","DNSC","NORTH AMERICAN","60.7153","-46.0478","110.4","2170942.18","-2251829.95","5539988.29","IGS","ITRF2014","IGS14"
"RAEG00PRT","Vila do Porto","Portugal","31912M003","A","2017-05-28","raeg00prt_20200330.log","IGE","EURASIAN","36.9857","-25.1264","297.9","4618477.73","-2166047.53","3816304.85","IGS","",""
"RAMO00ISR","Mitzpe Ramon","Israel","20703S001","A","1998-10-04","ramo00isr_20190203.log","SOI","AFRICAN","30.5978","34.7631","893.1","4514719.10","3133506.00","3228042.60","IGS","ITRF2014","IGS14"
"RANT00DEU","Rantum / Island Sylt","Germany","10914M001","A","2015-05-24","rant00deu_20200312.log","BKG","EURASIAN","54.8105","8.2907","47.1","3645376.75","531201.70","5189296.71","","",""
"REDU00BEL","Redu","Belgium","13102M001","A","2003-06-22","redu00bel_20191029.log","ESOC","EURASIAN","50.0015","5.1449","369.9","4091423.46","368380.43","4863179.70","IGS","ITRF2014",""
"REDZ00POL","Redzikowo","Poland","12227M001","A","2008-06-08","redz00pol_20190830.log","ASGEUPOS","EURASIAN","54.4724","17.1175","108.4","3550067.00","1093332.00","5167562.00","","ITRF2014",""
"REYK00ISL","Reykjavik","Iceland","10202M001","A","1995-12-31","reyk00isl_20190613.log","FSW","NORTH AMERICAN","64.1388","-21.9555","93.1","2587384.53","-1043033.50","5716564.01","IGS","ITRF2014",""
"RIGA00LVA","Riga","Latvia","12302M002","A","1996-11-03","riga00lva_20191016.log","LUAI","EURASIAN","56.9486","24.0588","34.7","3183899.34","1421478.38","5322810.74","IGS","ITRF2014","IGS14"
"RIO100ESP","Logrono","Spain","13448M002","A","2012-08-12","rio100esp_20200326.log","IGE","EURASIAN","42.4642","-2.4261","450.4","4708447.20","-199490.81","4284089.34","","",""
"ROM200FIN","Kuhmo","Finland","10520M002","A","2017-04-02","rom200fin_20191104.log","FGI","EURASIAN","64.2174","29.9318","243.0","2410840.27","1388076.19","5720514.68","","",""
"ROVE00ITA","Rovereto","Italy","12774M001","A","2006-04-09","rove00ita_20160307.log","ITCG","EURASIAN","45.8935","11.0421","261.7","4364680.87","851736.60","4557204.71","","",""
"SABA00SRB","Sabac","Serbia","12112M001","A","2015-06-21","saba00srb_20190531.log","RGZ","EURASIAN","44.7596","19.6967","140.9","4271111.88","1529000.29","4468514.48","","",""
"SALA00ESP","Salamanca","Spain","13469M001","A","2006-11-12","sala00esp_20200326.log","IGE","EURASIAN","40.9451","-5.4959","855.4","4803054.10","-462132.20","4158380.00","","",""
"SAS200DEU","Sassnitz Island of Ruegen","Germany","14281M002","A","2016-09-11","sas200deu_20200312.log","BKG","EURASIAN","54.5110","13.6431","39.2","3606364.60","875342.90","5170000.20","","",""
"SAVU00FIN","Savukoski","Finland","10529M001","A","2018-10-28","savu00fin_20191028.log","FGI","EURASIAN","67.9608","28.9558","265.2","2100286.21","1162091.70","5889701.34","","",""
"SBG200AUT","Salzburg","Austria","11031M002","A","2008-10-05","sbg200aut_20200204.log","BEV","EURASIAN","47.8034","13.1104","1323.0","4180931.00","973735.00","4703203.00","","",""
"SCIL00GBR","Hugh Town","United Kingdom","19201M001","A","2017-02-12","scil00gbr_20200306.log","OS","EURASIAN","49.9145","-6.2958","83.8","4090376.00","-451279.00","4856738.00","","ITRF2014",""
"SCOA00FRA","Ciboure","France","10088M002","A","2010-03-28","scoa00fra_20190313.log","IGN_RGP","EURASIAN","43.3952","-1.6817","60.2","4639941.90","-136225.50","4359552.00","","ITRF2014",""
"SCOR00GRL","Scoresbysund/Ittoqqoormiit","Greenland","43006M002","A","2011-07-17","scor00grl_20200205.log","DNSC","NORTH AMERICAN","70.4853","-21.9503","128.5","1982096.10","-798821.00","5989464.50","IGS","ITRF2014","IGS14"
"SFER00ESP","San Fernando","Spain","13402M004","A","1996-06-09","sfer00esp_20190924.log","ROA","EURASIAN","36.4643","-6.2056","84.1","5105519.05","-555146.01","3769803.25","IGS","ITRF2014","IGS14"
"SHOE00GBR","Shoeburyness","United Kingdom","19197M001","A","2017-03-19","shoe00gbr_20200306.log","OS","EURASIAN","51.5548","0.8270","49.0","3973493.00","57358.00","4972193.00","","ITRF2014",""
"SJDV00FRA","Saint Jean des Vignes","France","10090M001","A","1998-07-19","sjdv00fra_20200402.log","OSUG","EURASIAN","45.8791","4.6766","432.4","4433469.65","362673.10","4556211.88","","ITRF2014",""
"SKE000SWE","Skellefteaa","Sweden","10426M001","A","2003-10-05","ske000swe_20200217.log","LMV","EURASIAN","64.8792","21.0483","81.2","2534031.20","975174.40","5752078.34","","ITRF2014",""
"SKE800SWE","Skellefteaa","Sweden","10426M002","A","2014-09-28","ske800swe_20191105.log","LMV","EURASIAN","64.8792","21.0481","81.2","2534032.88","975167.94","5752078.72","","",""
"SMID00DNK","Smidstrup, Vejle","Denmark","10114M001","A","2003-06-29","smid00dnk_20200324.log","SDFE","EURASIAN","55.6406","9.5593","122.8","3557911.52","599176.47","5242066.26","","",""
"SMLA00UKR","Smila","Ukraine","15503M001","A","2009-11-01","smla00ukr_20171011.log","MAO","EURASIAN","49.2016","31.8663","183.1","3546267.69","2204463.96","4805379.19","","",""
"SMNE00FRA","Saint-Mandé","France","10001M007","A","2010-03-28","smne00fra_20190313.log","IGN_RGP","EURASIAN","48.8444","2.4250","126.2","4201792.08","177945.43","4779286.87","","",""
"SNEO00GBR","St Neots","United Kingdom","19135M002","A","2017-02-12","sneo00gbr_20200306.log","OS","EURASIAN","52.1854","-0.1125","119.3","3918752.00","-7694.00","5015570.00","","",""
"SOD300FIN","Sodankyla","Finland","10513M002","A","2017-04-02","sod300fin_20191028.log","FGI","EURASIAN","67.4208","26.3893","300.8","2200149.22","1091650.85","5866868.64","IGS","",""
"SODA00FIN","Sodankyla","Finland","10513M001","A","1997-02-16","soda00fin_20191028.log","FGI","EURASIAN","67.4209","26.3890","299.7","2200147.00","1091638.20","5866870.60","","",""
"SOFI00BGR","Sofia","Bulgaria","11101M002","A","1997-06-22","sofi00bgr_20140722.log","FSW","EURASIAN","42.5561","23.3947","1119.6","4319372.39","1868687.57","4292063.80","IGS","ITRF2014","IGS14"
"SONS00ESP","Sonseca","Spain","13446M001","A","2007-09-09","sons00esp_20191202.log","IGE","EURASIAN","39.6754","-3.9640","808.9","4904660.50","-339868.00","4050823.50","","",""
"SPRN00HUN","Sopron","Hungary","11227M001","A","2007-07-22","sprn00hun_20190403.log","SGO","EURASIAN","47.6836","16.5831","279.0","4123048.38","1227806.16","4693474.06","","",""
"SPT000SWE","Boras","Sweden","10425M001","A","2002-07-07","spt000swe_20200217.log","LMV","EURASIAN","57.7150","12.8913","219.9","3328984.81","761910.07","5369033.47","IGS","ITRF2014",""
"SRJV00BIH","Sarajevo","Bosnia and Herzegovina","11801S001","A","1999-11-28","srjv00bih_20190716.log","GDFCE","EURASIAN","43.8679","18.4139","645.1","4370292.00","1454981.00","4397965.00","","",""
"STAS00NOR","Stavanger","Norway","10330M001","A","2000-12-10","stas00nor_20200131.log","NMA","EURASIAN","59.0177","5.5986","104.9","3275753.90","321110.86","5445041.88","","ITRF2014",""
"SULD00DNK","Suldrup","Denmark","10113M001","A","2003-06-29","suld00dnk_20200318.log","SDFE","EURASIAN","56.8418","9.7422","120.7","3446394.50","591712.93","5316383.25","","",""
"SULP00UKR","Lviv","Ukraine","12366M001","A","2001-10-21","sulp00ukr_20190401.log","NULP","EURASIAN","49.8356","24.0145","370.5","3765296.99","1677559.20","4851297.41","IGS","ITRF2014",""
"SUN600SWE","Sundsvall","Sweden","10440M002","A","2015-05-17","sun600swe_20191105.log","LMV","EURASIAN","62.2325","17.6598","32.3","2838911.30","903817.02","5620660.91","","",""
"SUR400EST","Suurupi","Estonia","10601M002","A","2012-01-29","sur400est_20190930.log","ELB","EURASIAN","59.4636","24.3803","84.4","2959057.25","1341058.50","5470426.81","","",""
"SVE600SWE","Sveg","Sweden","10441M002","A","2014-06-22","sve600swe_20191105.log","LMV","EURASIAN","62.0174","14.7001","491.0","2902498.27","761460.40","5609857.28","","",""
"SVTL00RUS","Svetloe","Russian Federation","12350M001","A","1996-11-10","svtl00rus_20191004.log","IAA","EURASIAN","60.5329","29.7809","76.8","2730156.00","1562365.00","5529989.00","IGS","ITRF2014",""
"SWAS00GBR","Swansea","United Kingdom","19193M001","A","2017-02-12","swas00gbr_20200306.log","OS","EURASIAN","51.5655","-3.9818","91.9","3963407.00","-275880.00","4972970.00","","ITRF2014",""
"SWKI00POL","Suwalki","Poland","12228M001","A","2008-06-08","swki00pol_20190830.log","ASGEUPOS","EURASIAN","54.0986","22.9282","215.8","3452305.00","1460315.00","5143362.00","","",""
"TAR000ESP","Tarifa","Spain","19350M002","A","2019-09-15","tar000esp_20200326.log","IGE","EURASIAN","36.0086","-5.6024","67.5","5140822.00","-504276.00","3728999.00","","",""
"TERC00PRT","Angra do Heroismo","Portugal","31909M001","A","2010-01-03","terc00prt_20190410.log","DSCIG","EURASIAN","38.7190","-27.1530","406.9","4434022.31","-2274181.40","3968279.94","","ITRF2014",""
"TERS00NLD","West-Terschelling","Netherlands","13534M001","A","1999-06-20","ters00nld_20190916.log","DUT","EURASIAN","53.3627","5.2194","56.1","3798580.87","346993.83","5094780.82","","ITRF2014",""
"TERU00ESP","Teruel","Spain","13487M001","A","2008-09-28","teru00esp_20191202.log","IGE","EURASIAN","40.3505","-1.1243","956.2","4867391.68","-95523.89","4108341.28","","",""
"TIT200DEU","Titz","Germany","14278M002","A","2019-12-15","tit200deu_20200311.log","BKG","EURASIAN","51.0352","6.4316","156.1","3993787.26","450203.89","4936131.69","IGS","",""
"TLL100IRL","Dublin","Ireland","13630M002","A","2019-02-17","tll100irl_20200213.log","OSI","EURASIAN","53.2915","-6.3635","163.2","3797282.48","-423484.68","5090128.47","","",""
"TLMF00FRA","Toulouse","France","10003M010","A","2010-03-28","tlmf00fra_20190313.log","IGN_RGP","EURASIAN","43.5746","1.3751","220.9","4627009.80","111069.40","4374123.00","","",""
"TLSE00FRA","Toulouse","France","10003M009","A","2001-03-18","tlse00fra_20200220.log","CNES","EURASIAN","43.5607","1.4809","207.2","4627851.90","119638.55","4372993.54","IGS","ITRF2014","IGS14"
"TOIL00EST","Toila","Estonia","10605S001","A","2008-04-27","toil00est_20190930.log","ELB","EURASIAN","59.4220","27.5366","76.7","2884257.58","1503793.89","5468067.78","","",""
"TOR100ESP","TORREJON DE ARDOZ","Spain","17018M001","A","2019-09-15","tor100esp_20190416.log","ESSP","EURASIAN","40.4727","-3.4524","661.0","4850488.18","-292626.01","4118482.21","","",""
"TOR200EST","Tõravere","Estonia","10602M001","A","2012-01-29","tor200est_20190930.log","ELB","EURASIAN","58.2647","26.4616","96.2","3010734.09","1498576.82","5401387.34","","",""
"TORI00ITA","Torino","Italy","12724M002","A","1999-01-31","tori00ita_20191022.log","POLITO","EURASIAN","45.0634","7.6613","310.7","4472544.44","601634.23","4492545.11","","ITRF2014",""
"TORN00FIN","Tornio","Finland","10530M001","A","2018-10-28","torn00fin_20191028.log","FGI","EURASIAN","66.0776","24.3320","70.7","2363238.07","1068632.51","5807526.19","","",""
"TRDS00NOR","Trondheim","Norway","10331M001","A","2000-12-10","trds00nor_20200131.log","NMA","EURASIAN","63.3714","10.3192","317.7","2820171.11","513485.91","5678935.75","","ITRF2014",""
"TRF200AUT","Pernitz","Austria","11047M002","A","2008-10-05","trf200aut_20200204.log","BEV","EURASIAN","47.9280","15.8589","1092.2","4119400.00","1170248.00","4712324.00","","",""
"TRO100NOR","Tromsoe","Norway","10302M006","A","1998-05-03","tro100nor_20200131.log","NMA","EURASIAN","69.6627","18.9396","138.0","2102929.00","721619.00","5958196.00","IGS","ITRF2014","IGS14"
"TUBI00TUR","Gebze","Turkey","20806M001","A","1999-08-08","tubi00tur_20190405.log","TUBITAK","EURASIAN","40.7867","29.4507","221.8","4211318.52","2377865.76","4144664.46","IGS","ITRF2014",""
"TUBO00CZE","Brno","Czech Republic","11503M001","A","2001-09-23","tubo00cze_20190417.log","GOP","EURASIAN","49.2059","16.5928","324.4","4001470.40","1192345.50","4805795.60","","",""
"TUC200GRC","Chania","Greece","12617M003","A","2004-10-24","tuc200grc_20190329.log","TUC","EURASIAN","35.5332","24.0706","161.0","4744543.85","2119411.87","3686258.94","","ITRF2014",""
"TUO200FIN","Kaarina","Finland","10521M002","A","2018-10-28","tuo200fin_20191025.log","FGI","EURASIAN","60.4158","22.4433","59.4","2917812.77","1205216.52","5523549.06","","",""
"UCAG00ITA","Cagliari","Italy","12702M003","A","2015-08-09","ucag00ita_20200326.log","ASI","EURASIAN","39.2280","9.1101","132.5","4885051.54","783345.18","4012042.31","","",""
"UME600SWE","Umea","Sweden","10442M002","A","2014-06-22","ume600swe_20191105.log","LMV","EURASIAN","63.5781","19.5095","55.1","2682409.98","950391.38","5688993.58","","",""
"UNPG00ITA","Perugia","Italy","12752M001","A","1999-01-31","unpg00ita_20190718.log","UNPG","EURASIAN","43.1194","12.3557","351.2","4555146.16","997822.21","4337432.55","","ITRF2014",""
"UNTR00ITA","Terni","Italy","12785M001","A","2007-03-04","untr00ita_20200124.log","UNPG","EURASIAN","42.5587","12.6738","219.3","4590764.88","1032366.65","4291666.31","","",""
"USAL00ITA","Lecce","Italy","19527M001","A","2010-06-13","usal00ita_20180726.log","ASI","EURASIAN","40.3349","18.1115","66.6","4627539.84","1513540.02","4106446.89","","",""
"USDL00POL","Ustrzyki Dolne","Poland","12229M001","A","2008-06-08","usdl00pol_20190830.log","ASGEUPOS","EURASIAN","49.4329","22.5858","529.9","3837558.00","1596303.00","4822410.00","","",""
"VAA200FIN","Vaasa","Finland","10511M002","A","2017-04-02","vaa200fin_20191028.log","FGI","EURASIAN","62.9612","21.7706","58.4","2699867.81","1078261.64","5658064.00","","",""
"VAAS00FIN","Vaasa","Finland","10511M001","A","1996-11-03","vaas00fin_20191028.log","FGI","EURASIAN","62.9612","21.7706","58.5","2699865.00","1078264.00","5658065.00","","ITRF2014",""
"VACO00CZE","Vacov","Czech Republic","11516M001","A","2005-04-24","vaco00cze_20200219.log","IRSM","EURASIAN","49.1338","13.7242","799.4","4062326.00","992104.50","4800911.20","","ITRF2014",""
"VAE600SWE","Vanersborg","Sweden","10443M002","A","2014-06-22","vae600swe_20191105.log","LMV","EURASIAN","58.6932","12.0351","169.8","3249402.75","692761.95","5426399.89","","",""
"VALA00ESP","Valladolid","Spain","13463M002","A","2008-04-20","vala00esp_20190806.log","ITACYL","EURASIAN","41.7025","-4.7083","765.9","4753521.68","-391505.62","4221500.53","","",""
"VALE00ESP","Valencia","Spain","13439M001","A","2001-02-11","vale00esp_20200326.log","IGE","EURASIAN","39.4808","-0.3377","77.6","4929534.04","-29050.67","4033709.91","","ITRF2014",""
"VARS00NOR","Vardoe","Norway","10322M002","A","2000-12-10","vars00nor_20200131.log","NMA","EURASIAN","70.3364","31.0312","174.8","1844607.62","1109719.11","5983936.01","","ITRF2014",""
"VEN100ITA","Venezia","Italy","19513M001","A","2009-12-13","ven100ita_20180726.log","ASI","EURASIAN","45.4306","12.3541","58.9","4379845.49","959292.11","4521099.33","","ITRF2014",""
"VFCH00FRA","Villefranche-sur-Cher","France","10046M001","A","2005-07-03","vfch00fra_20190313.log","IGN_RGP","EURASIAN","47.2942","1.7197","154.6","4331863.60","130055.20","4664122.60","","",""
"VIGO00ESP","Vigo","Spain","13450M001","A","2005-11-13","vigo00esp_20191202.log","IGE","EURASIAN","42.1840","-8.8131","87.8","4677481.06","-725205.07","4260827.17","","ITRF2014",""
"VIL000SWE","Vilhelmina","Sweden","10424M001","A","1996-11-03","vil000swe_20191107.log","LMV","EURASIAN","64.6978","16.5599","449.9","2620258.89","779137.98","5743799.28","","ITRF2014",""
"VIL600SWE","Vilhelmina","Sweden","10424M002","A","2014-06-22","vil600swe_20191105.log","LMV","EURASIAN","64.6978","16.5599","450.4","2620263.74","779138.32","5743797.54","","",""
"VILL00ESP","Villafranca","Spain","13406M001","A","1995-12-31","vill00esp_20200108.log","ESOC","EURASIAN","40.4436","-3.9520","647.4","4849833.87","-335049.26","4116014.81","IGS","ITRF2014",""
"VIR200FIN","Virolahti","Finland","10522M002","A","2017-03-19","vir200fin_20191025.log","FGI","EURASIAN","60.5388","27.5549","37.0","2788251.10","1454871.44","5530279.28","","",""
"VIS000SWE","Visby","Sweden","10423M001","A","1996-11-03","vis000swe_20190926.log","LMV","EURASIAN","57.6539","18.3673","79.8","3246470.56","1077900.31","5365277.90","IGS","ITRF2014",""
"VIS600SWE","Visby","Sweden","10423M002","A","2014-06-22","vis600swe_20191105.log","LMV","EURASIAN","57.6539","18.3674","79.4","3246466.56","1077901.83","5365279.61","","",""
"VLIS00NLD","Vlissingen","Netherlands","13538M001","A","2016-05-15","vlis00nld_20190916.log","DUT","EURASIAN","51.4429","3.5973","54.4","3975805.22","249950.08","4964446.09","","ITRF2014",""
"VLN100IRL","Valentia","Ireland","13626M002","A","2019-09-15","vln100irl_20200213.log","OSI","EURASIAN","51.9396","-10.2417","76.8","3877520.03","-700588.99","4998722.41","","",""
"VLNS00LTU","Vilnius","Lithuania","10801M001","A","1999-02-21","vlns00ltu_20150925.log","VGTUGI","EURASIAN","54.6531","25.2987","240.8","3343600.97","1580417.58","5179337.09","","",""
"VNRS00UKR","Vinnytsia","Ukraine","18101M001","A","2019-03-24","vnrs00ukr_20181003.log","MAO","EURASIAN","49.2197","28.4273","318.9","3670860.47","1987087.33","4806792.84","","",""
"WARE00BEL","Waremme","Belgium","13114M001","A","1996-01-14","ware00bel_20191210.log","ROB","EURASIAN","50.6899","5.2453","187.9","4031947.31","370150.91","4911905.90","","",""
"WARN00DEU","Rostock-Warnemuende","Germany","14277M002","A","2003-10-26","warn00deu_20200311.log","BKG","EURASIAN","54.1698","12.1014","50.8","3658785.93","784470.84","5147870.56","IGS","ITRF2014",""
"WRLG00DEU","Bad Koetzting","Germany","14201M024","A","2016-09-11","wrlg00deu_20181211.log","FSW","EURASIAN","49.1450","12.8757","660.4","4075564.97","931610.55","4801620.67","","",""
"WROC00POL","Wroclaw","Poland","12217M001","A","1996-11-24","wroc00pol_20181106.log","IGG","EURASIAN","51.1133","17.0620","180.3","3835751.00","1177249.00","4941605.00","IGS","ITRF2014",""
"WSRT00NLD","Westerbork","Netherlands","13506M005","A","1997-07-20","wsrt00nld_20200218.log","DUT","EURASIAN","52.9146","6.6045","86.0","3828739.00","443305.00","5064887.00","IGS","ITRF2014","IGS14"
"WTZA00DEU","Bad Koetzting","Germany","14201M013","A","2019-09-29","wtza00deu_20170803.log","FSW","EURASIAN","49.1442","12.8789","665.9","4075578.49","931852.66","4801569.95","IGS","ITRF2014",""
"WTZR00DEU","Bad Koetzting","Germany","14201M010","A","1995-12-31","wtzr00deu_20190403.log","FSW","EURASIAN","49.1442","12.8789","666.0","4075580.69","931853.66","4801568.05","IGS","ITRF2014","IGS14"
"WTZS00DEU","Bad Koetzting","Germany","14201M015","A","2019-09-29","wtzs00deu_20190328.log","FSW","EURASIAN","49.1448","12.8786","663.4","4075535.30","931822.19","4801608.92","IGS","ITRF2014",""
"WTZZ00DEU","Bad Koetzting","Germany","14201M014","A","2019-09-29","wtzz00deu_20200127.log","FSW","EURASIAN","49.1442","12.8789","665.9","4075579.27","931853.28","4801569.14","IGS","ITRF2014",""
"YEBE00ESP","Yebes","Spain","13420M001","A","2000-10-22","yebe00esp_20191202.log","IGE","EURASIAN","40.5249","-3.0886","972.8","4848724.95","-261632.51","4123093.95","IGS","ITRF2014","IGS14"
"ZADA00HRV","Zadar","Croatia","11905M001","A","2013-06-16","zada00hrv_20200213.log","SGA","EURASIAN","44.1132","15.2276","64.3","4425737.16","1204734.51","4417173.47","","",""
"ZARA00ESP","Zaragoza","Spain","13462M001","A","2006-06-25","zara00esp_20191202.log","IGE","EURASIAN","41.6334","-0.8822","296.1","4773803.30","-73506.20","4215453.90","","",""
"ZECK00RUS","Zelenchukskaya","Russian Federation","12351M001","A","1997-09-28","zeck00rus_20170803.log","IAA","EURASIAN","43.7884","41.5651","1167.0","3451175.15","3060335.95","4391955.97","IGS","ITRF2014","IGS14"
"ZIM200CHE","Zimmerwald","Switzerland","14001M008","A","2007-12-16","zim200che_20181218.log","LPT","EURASIAN","46.8771","7.4650","956.5","4331300.16","567537.08","4633133.51","IGS","ITRF2014","IGS14"
"ZIMM00CHE","Zimmerwald","Switzerland","14001M004","A","1995-12-31","zimm00che_20181218.log","LPT","EURASIAN","46.8771","7.4653","956.4","4331297.35","567555.64","4633133.73","IGS","ITRF2014","IGS14"
"ZOUF00ITA","Cercivento","Italy","12763M001","A","2004-01-11","zouf00ita_20191029.log","CRS","EURASIAN","46.5572","12.9736","1946.5","4282710.06","986659.42","4609469.77","","",""
"ZPRS00UKR","Zaporizhzhia","Ukraine","18102M001","A","2018-04-29","zprs00ukr_20180321.log","MAO","EURASIAN","47.8287","35.1615","93.6","3507143.16","2470487.82","4704181.52","","",""
"ZYWI00POL","Zywiec","Poland","12220S001","A","2003-08-10","zywi00pol_20190830.log","ASGEUPOS","EURASIAN","49.6867","19.2060","412.8","3904633.00","1360192.00","4840631.00","","",""