#StationName,X,Y,Z,Latitude,Longitude,Height,ReceiverName,ReceiverSatelliteSystem,ReceiverDateInstalled,AntennaName,AntennaRadome,AntennaSerialNumber,AntennaARP,AntennaMarkerUp,AntennaMarkerNorth,AntennaMarkerEast,AntennaDateInstalled,ClockType
ABMF00GLP,2919786,-5383745,1774604,16.262,-61.528,-25.268,SEPT POLARX5,GPS+GLO+GAL+BDS+SBAS,2020-02-07T10:00Z,TRM57971.00,NONE,1441112501,BAM,0,0,0,2012-01-24T12:00Z,INTERNAL
ABPO00MDG,4097216.6805,4429119.0287,-2065771.3676,-19.018,47.229,1553.398,SEPT POLARX5,GPS+GLO+GAL+BDS+QZSS,2021-01-29T21:25Z,ASH701945G_M,SCIT,CR6200342009,BPA,0.0083,0,0,2018-05-15T07:30Z,INTERNAL
AC2300USA,-2752834.7418,-1533597.398,5526823.2554,60.475,-150.878,80.744,SEPT POLARX5,GPS+GLO+GAL+BDS+QZSS,2021-04-28T00:31Z,TRM59800.99,SCIT,220346564,BPA,0.0083,0,0,2021-04-28T00:30Z,INTERNAL
ACRG00GHA,6347491.377,-22944.8986,622822.4766,5.641,-0.207,83.792,JAVAD TR_G3TH,GPS+GLO+GAL,2021-06-23T09:52Z,JAV_RINGANT_G3T,NONE,325,BAM,0.13,0,0,2017-10-03T12:00Z,INTERNAL
ACSO00USA,595828.9368,-4839735.3204,4097876.7222,40.232,-82.982,249.81,SEPT POLARX5,GPS+GLO+GAL+BDS,2021-09-27T21:01Z,TRM59800.80,SCIT,220375556,BPA,0.0083,0,0,2014-09-13T04:56Z,INTERNAL
ADIS00ETH,4913652.948,3945922.493,995383.145,9.035,38.766,2439.556,JPS LEGACY,GPS+GLO,2008,0,2008-03-11T07:00Z,TRM29659.00,NONE,220173805,BPA,0.001,0,0
AGGO00ARG,2765122.098,-4449250.084,-3626405.34,-34.874,-58.14,42.744,SEPT POLARX5TR,GPS+GLO+GAL+BDS+SBAS+IRNSS,2021-03-29T15:00Z,LEIAR25.R4,LEIT,726722,BPA,0.155,0,0,2016-11-11T10:30Z,EXTERNAL CESIUM 1
AIRA00JPN,-3530185.489,4118797.337,3344036.931,31.824,130.6,315.056,TRIMBLE ALLOY,GPS+GLO+GAL+QZSS,2021-08-16T11:00Z,TRM59800.00,SCIS,4938353451,BPA,0,0,0,2012-08-01T01:00Z,INTERNAL 
AJAC00FRA,4696990,723994,4239678,41.927,8.763,99.2,LEICA GR50,GPS+GLO+GAL+BDS+QZSS+SBAS,2021-12-15T15:00Z,TRM115000.00,NONE,6122223841,BAM,0,0,0,2020-01-21T10:00Z,INTERNAL
ALBH00CAN,-2341332.884,-3539049.509,4745791.36,48.39,-123.487,32.176,SEPT POLARX5,GPS+GLO+GAL,2019-01-16T22:16Z,TRM59800.00,SCIS,5112354071,BPA,0.1,0,0,2015-09-15T19:00Z,EXTERNAL H-MASER
ALGO00CAN,918129.4,-4346071.2,4561977.8,45.956,-78.071,201.258,SEPT POLARX5,GPS+GLO+GAL,2020-08-18T22:27Z,AOAD/M_T,NONE,303,BPA,0.1,0,0,2012-12-20T17:00Z,EXTERNAL H-MASER
ALIC00AUS,-4052052.7301,4212835.9796,-2545104.587,-23.67,133.886,603.645,SEPT POLARX5,GPS+QZSS+GLO+GAL+BDS,2021-02-25T23:43Z,LEIAR25.R3,NONE,9370001,BPA,0.0015,0,0,2011-07-20T00:00Z,INTERNAL
ALRT00CAN,388042.75,-740382.4,6302001.85,82.494,-62.34,78.562,ASHTECH UZ-12,GPS,2011-05-20T15:51Z,ASH701945D_M,NONE,CR520020903,BPA,0.1,0,0,2002-07-16,INTERNAL
AMC400USA,-1248596.405,-4819428.21,3976505.93,38.803,-104.525,1911.816,SEPT POLARX5TR,GPS+GLO+GAL+BDS,2021-04-12T17:15Z,TPSCR.G5C,NONE,1364-10065,BPA,0,0,0,2018-06-20,EXTERNAL H-MASER
ANKR00TUR,4121934.26,2652189.812,4069034.911,39.888,32.759,975.191,LEICA GR30,GPS+GLO+GAL+BDS+QZSS+SBAS,2019-10-28T13:00Z,LEIAR10,NONE,19353039,BAM,0.07,0,0,2017-06-24T00:00Z,INTERNAL
ANMG00MYS,-1270826.87,6242631.446,307792.439,2.785,101.507,15.402,TRIMBLE NETR9,GPS+GLO+GAL+BDS+QZSS,2019-04-18T01:57Z,JAVRINGANT_DM,SCIS,449,BPA,0,0,0,2014-02-21T00:00Z,INTERNAL
ANTC00CHL,1608539,-4816370,-3847799,-37.339,-71.532,746.168,TRIMBLE NETR9,GPS+GLO,2015-04-10T14:55Z,ASH700936D_M,SNOW,12462,BPA,0,0,0,2002-01-01T00:01Z,INTERNAL 
AREG00PER,1942816.3653,-5804077.1395,-1796884.4383,-16.465,-71.493,2489.742,SEPT POLARX5,GPS+GLO+GAL+BDS+SBAS,2021-01-26T08:50Z,TRM59800.00,NONE,5129354209,BPA,0.4291,0,-0.0006,2013-01-11T00:00Z,EXTERNAL RUBIDIUM
AREQ00PER,1942826.192,-5804070.331,-1796894.267,-16.466,-71.493,2489.327,SEPT POLARX5,GPS+GLO+GAL+BDS,2021-12-03T00:03Z,JAVRINGANT_DM,NONE,1548,BPA,0.061,0,0,2018-05-01T01:30Z,EXTERNAL XL-DC 151-358-108-2
ARHT00ATA,-1312626.536,311171.129,-6213081.915,-77.829,166.664,135.782,JAVAD TRE_3 DELTA,GPS+GLO+GAL+BDS+QZSS+IRNSS,2021-07-20T21:45Z,JAVRINGANT_DM,SCIS,836,BPA,0.0083,0,0,2017-12-05T00:00Z,INTERNAL
ARTU00RUS,1843956.968,3016202.97,5291261.66,56.43,58.56,247.95,JAVAD TRE_G3TH DELTA,GPS+GLO,2016,,2018-09-06T09:30Z,ASH700936D_M,DOME,CR13077,BPA,0.0796,,
ARUC00ARM,3500416.7822,3390432.6839,4103027.5848,40.286,44.086,1222.58,SEPT POLARX5,GPS+GLO+GAL+BDS+QZSS,2021-01-29T19:07Z,ASH701945C_M,SCIS,CR520003504,BPA,0.0792,0,0,2013-11-08T07:24Z,INTERNAL
ASCG00SHN,6121151.5493,-1563978.9235,-872615.3556,-7.916,-14.333,38.354,TRIMBLE ALLOY,GPS+GLO+GAL+BDS+SBAS,2021-03-23T10:25Z,TRM59800.00,NONE,5311354626,BPA,0.408,-0.0007,0.0001,2021-08-19T16:15Z,INTERNAL
ASPA00USA,-6100260.096,-996503.51,-1567977.812,-14.326,-170.722,54.07,TRIMBLE NETR5,GPS+GLO,2014-10-21T13:03Z,TRM55971.00,NONE,30517456,BAM,0,0,0,2008-10-01,INTERNAL
ATRU00KAZ,2679051.8578,3423332.414,4651652.39,47.131,51.954,-31.622,LEICA GR10,GPS+GLO+GAL+SBAS,2020-05-12T10:59Z,LEIAR25.R4,LEIT,726619,BPA,0,0,0,2017-10-22T00:00Z,INTERNAL
AUCK00NZL,-5105681,461564,-3782181.7,-36.603,174.834,133.092,TRIMBLE ALLOY,GPS+GLO+GAL+BDS+QZSS,2020-09-22T09:53Z,TRM115000.00,NONE,1551016656,BAM,0.055,0,0,2019-10-23T23:34Z,INTERNAL
BADG00RUS,-838281.513,3865777.334,4987624.632,51.77,102.235,811.838,JAVAD TRE_3 DELTA,GPS+GLO+GAL,2020,3,2020-11-17T13:00Z,JAVRINGANT_DM,JVDM,328,BPA,0.028,0,0
BAIE00CAN,1546823.34,-3879765.13,4804185.05,49.187,-68.263,27.911,TPS NET-G5,GPS+GLO,2020,5,2022-01-12T15:04Z,TPSCR.G3,NONE,383-0458,BPA,0.1,0,0
BAKE00CAN,-289833.93,-2756501.06,5725162.22,64.318,-96.002,4.854,TPS NET-G3A,GPS+GLO,2017 p6,5,2019-02-19T22:53Z,TPSCR.G3,NONE,383-0416,BPA,0.1,0,0
BAKO00IDN,-1836969.054,6065617.126,-716257.839,-6.491,106.849,158.562,LEICA GR50,GPS+GLO+GAL+BDS+QZSS+SBAS,2021-09-20T15:29Z,LEIAR20,LEIM,21015023,BAM,1.648,0,0,2018-07-31T00:00Z,EXTERNAL
BAMF00CAN,-2420721.2,-3439856.061,4778532.675,48.835,-125.135,11.071,SEPT POLARX5,GPS+GLO+GAL+BDS,2021-03-29T00:00Z,SEPCHOKE_B3E6,SPKE,5120,BPA,0,0,0,2018-03-20T22:18Z,INTERNAL CLOCK STEERING
BARH00USA,1693644.846,-4239067.57,4439567.239,44.395,-68.222,7.178,LEICA GR30,GPS+GLO,2022-01-20T11:51Z,LEIAR10,NONE,21299033,BAM,0,0,0,2019-02-08T16:30Z,INTERNAL
BAUT00DEU,3877545.5,1004370.9,4947148.1,51.192,14.522,212.211,JAVAD TRE_3 DELTA,GPS+GLO+GAL+BDS+SBAS,2021-08-30T13:15Z,LEIAR25.R3,LEIT,10020025,BPA,0.045,0,0,2021-02-17T08:30Z,INTERNAL
BELE00BRA,4228139.05,-4772752.08,-155761.38,-1.409,-48.463,9.476,TRIMBLE NETR9,GPS+GLO+GAL+BDS,2021-10-20T18:49Z,TRM115000.00,NONE,1551129596,BAM,0.008,0,0,2018-04-25T14:53Z,INTERNAL 
BHR300BHR,3633910.66,4425277.759,2799862.907,26.209,50.608,-13.446,NOV OEM6,GPS,2021-10-21T00:00Z,TPSCR.G5,TPSH,762-11842,BPA,0,0,0,2015-04-13T00:00Z,EXTERNAL CESIUM /RCVR1
BHR400BHR,3633910.66,4425277.759,2799862.907,26.209,50.608,-13.446,NOV OEM6,GPS,2021-10-21T00:00Z,TPSCR.G5,TPSH,762-11842,BPA,0,0,0,2015-04-13T00:00Z,EXTERNAL CESIUM /RCVR2
BIK000KGZ,1249005.5455,4513917.3461,4316147.9247,42.854,74.533,745.287,SEPT POLARX5,GPS+GLO+GAL+BDS+QZSS+IRNSS+SBAS,2021-09-15T08:00Z,JAV_RINGANT_G3T,NONE,313,BAM,0.13,0,0,2014-03-27T06:00Z,INTERNAL
BILL00USA,-2420420.5012,-4737131.5508,3507827.665,33.578,-117.065,470.478,SEPT POLARX5,GPS+GLO+GAL+BDS+QZSS+SBAS,2021-09-03T03:46Z,TRM59800.99,SCIT,220067546,BPA,0.0083,0,0,2020-09-21T17:16Z,INTERNAL
BJCO00BEN,6333076.505,270973.437,704551.984,6.385,2.45,31.127,TRIMBLE NETR5,GPS+GLO,2013-02-01,TRM59800.00,NONE,4804A44382,BPA,0,0,0,2009-03-26T15:40Z,INTERNAL
BJFS00CHN,-2148743.808,4426641.281,4044655.993,39.609,115.892,87.833,TRIMBLE NETR9,GPS+GLO,2017-03-10T00:00Z,TRM59900.00,SCIS,5317361110,BPA,0.0465,0,0,2015-11-26T00:00Z,EXTERNAL RUBIDIUM
BJNM00CHN,-2154287.413,4373440.047,4098885.628,40.245,116.224,109.492,SEPT POLARX3ETR,GPS+GLO,2010-05-04T00:00Z,NOV702GG,NONE,NAE09190046,BAM,0,0,0,2010-08-21T00:00Z,EXTERNAL HYDROGEN MASER
BLYT00USA,-2223206.72,-4830299.8,3510587.59,33.61,-114.715,86.324,TRIMBLE NETRS,GPS,2019-03-20T23:10Z,ASH701945B_M,ENCL,CR519991710,BPA,0.0332,0,0,2000-03-30T00:20Z,INTERNAL
BNOA00IDN,-2685309.038,5704009.251,-963466.461,-8.746,115.21,39.458,TRIMBLE NETR9,GPS,2013-11-16T00:00Z,TRM59900.00,SCIS,5119360130,BPA,0,0,0,2018-04-03T00:00Z,INTERNAL 
BOAV00BRA,3117452.21,-5555487.82,314480.74,2.845,-60.701,69.876,TRIMBLE NETR9,GPS+GLO+GAL+BDS,2021-10-20T18:50Z,TRM115000.00,NONE,1551129630,BAM,0.008,0,0,2018-07-25T21:14Z,INTERNAL 
BOGI00POL,3633815.7,1397453.9,5035280.8,52.475,21.035,140.355,JAVAD TRE_G3T DELTA,GPS+GLO+GAL,2018,0,2019-01-21T14:10Z,TPSCR.G5,TPSH,762-13216,BPA,0.0534,0,0
BOGT00COL,1744399.0397,-6116037.5577,512731.7532,4.64,-74.081,2577.179,JAVAD TRE_3 DELTA,GPS+GLO+GAL+BDS,2021-07-20T23:27Z,JAVRINGANT_DM,NONE,989,BPA,0.061,0,0,2015-08-19T21:00Z,INTERNAL
BOR100POL,3738358.833,1148173.963,5021816.113,52.277,17.073,125.335,TRIMBLE NETR9,GPS+GLO+GAL+BDS+QZSS+SBAS,2020-09-18T10:20Z,TRM59800.00,NONE,5421355014,BPA,0.0622,0,0,2016-10-05T11:00Z,EXTERNAL H-MASER
BRAZ00BRA,4115014.1128,-4550641.5225,-1741444.0984,-15.947,-47.878,1106.445,TRIMBLE NETR9,GPS+GLO+GAL,2021-10-20T18:56Z,TRM57971.00,NONE,2612117300,BAM,0.008,0,0,2016-09-28T13:30Z,INTERNAL
BREW00USA,-2112007.1404,-3705351.8421,4726827.1606,48.132,-119.683,239.058,SEPT POLARX5TR,GPS+GLO+GAL+BDS+QZSS,2021-02-01T22:12Z,ASH701945C_M,SCIT,CR620013703,BPA,0.0083,0,0,2018-08-16T22:00Z,EXTERNAL H-MASER
BRFT00BRA,4985393.532,-3954993.417,-428426.704,-3.877,-38.426,22.074,LEICA GRX1200PRO,GPS,2019-04-29T23:51Z,LEIAT504,NONE,868,BPA,0.0083,0,0,2005-09-06,INTERNAL
BRMG00DEU,4245557.1,568958.1,4710200,47.908,7.633,262.027,JAVAD TRE_3 DELTA,GPS+GLO+GAL+BDS+SBAS,2021-08-31T07:55Z,LEIAR25.R4,LEIT,726856,BPA,0.045,0,0,2020-04-08T10:00Z,INTERNAL
BRMU00GBR,2304703.476,-4874817.177,3395186.95,32.37,-64.696,-11.205,LEICA GRX1200GGPRO,GPS+GLO,2019-03-14T18:00Z,JAVRINGANT_DM,NONE,480,BPA,0,0,0,2011-09-28T00:00Z,INTERNAL
BRST00FRA,4231162,-332747,4745131,48.38,-4.497,65.952,TRIMBLE ALLOY,GPS+GLO+GAL+BDS+SBAS,2020-09-30T15:00Z,TRM57971.00,NONE,1441017048,BAM,2.0431,0,0,2012-04-19T12:00Z,INTERNAL
BRUN00BRN,-2680694.374,5761268.529,549016.773,4.971,114.952,91.069,TRIMBLE NETR9,GPS+GLO+GAL+BDS+QZSS,2015-08-22T00:00Z,JAVRINGANT_DM,SCIS,463,BPA,0,0,0,2014-06-04T00:00Z,INTERNAL
BRUX00BEL,4027881.628,306998.537,4919498.984,50.798,4.359,158.694,SEPT POLARX5TR,GPS+GLO+GAL+BDS+QZSS+IRNSS+SBAS,2021-02-04T09:40Z,JAVRINGANT_DM,SCIS,464,BPA,0.4689,0.001,0,2021-04-20T08:33Z,EXTERNAL CH1-75A MASER
BSHM00ISR,4396111.1752,3080477.64191,3433499.46187,32.779,35.02,225.516,SEPT POLARX5,GPS+GLO+GAL+BDS+QZSS+IRNSS,2021-08-24T11:00Z,TRM59800.00,SCIS,4811A47089,BPA,0,0,0,2009-07-20T00:00Z,INTERNAL
BTNG00IDN,-3674585.766,5210904.565,159093.409,1.439,125.19,75.393,TRIMBLE NETR9,GPS,2018-04-08T00:00Z,TRM59900.00,SCIS,5319361136,BPA,0,0,0,2018-04-08T00:00Z,INTERNAL 
BUCU00ROU,4093760.994,2007793.667,4445129.862,44.464,26.126,143.595,LEICA GR50,GPS+GLO+GAL+BDS+SBAS,2021-11-25T08:45Z,LEIAR25.R4,LEIT,726369,BPA,0.097,0,0,2020-10-06T10:00Z,INTERNAL
BZR200ITA,4312893.06,864794.52,4603598.27,46.496,11.338,331.633,LEICA GR30,GPS+GLO+GAL+BDS,2021-06-16T03:31Z,LEIAR25.R4,LEIT,726507,BPA,0,0,0,2017-10-27T06:27Z,INTERNAL
CAGS00CAN,1096349.16,-4335060.66,4533255.22,45.585,-75.807,235.442,TRIMBLE NETR8,GPS,2019-03-30T21:34Z,TRM59800.00,NONE,4926353381,BPA,0.1,0,0,2012-08-22T16:55Z,INTERNAL
CAS100ATA,-901776.221,2409383.497,-5816748.487,-66.283,110.52,22.999,TRIMBLE ALLOY,GPS+QZSS+GLO+GAL+BDS,2021-07-07T04:29Z,LEIAR25.R3,LEIT,9310002,BPA,0,0,0,2013-12-11T03:00Z,INTERNAL
CCJ200JPN,-4490605.4013,3483894.7513,2884928.2222,27.068,142.195,104.626,TRIMBLE ALLOY,GPS+GLO+GAL+QZSS,2021-12-05T05:00Z,TRM59800.00,SCIS,5015353788,BPA,0,0,0,2016-06-23T00:00Z,INTERNAL
CEBR00ESP,4846664.918,-370195.2,4116929.526,40.453,-4.368,776.225,SEPT POLARX5TR,GPS+GLO+GAL+BDS+SBAS,2021-01-19T13:00Z,SEPCHOKE_B3E6,NONE,5661,BPA,0.1527,0,0,2019-09-19T10:00Z,EXTERNAL H-MASER
CEDU00AUS,-3753473.19,3912741.0266,-3347959.6946,-31.867,133.81,145.13,SEPT POLARX5,GPS+GLO+GAL+BDS+QZSS+IRNSS,2021-08-11T06:17Z,AOAD/M_T,NONE,194,BPA,0.006,0,0,2016-10-17T00:00Z,INTERNAL
CGGN00NGA,6201032.5267,995277.2635,1113815.5634,10.123,9.118,917.097,JAVAD TRE_G3TH DELTA,GPS+GLO,2016-03-29T00:53Z,ASH701945B_M,NONE,CR519992105,BPA,0.171,0,0,2012-06-03T12:26Z,INTERNAL
CHAN00CHN,-2674377,3757198,4391503,43.79,125.443,271.958,ASHTECH UZ-12,GPS,2007-11-15T00:00Z,ASH701945C_M,NONE,16892,BPA,0.25,0,0,2021-01-22T01:00Z,EXTERNAL H-MASER
CHIL00USA,-2478003.12,-4655349.22,3577932.2,34.333,-118.026,1567.929,TPS NET-G3A,GPS+GLO,2019 p10,5,2019-03-25T19:45Z,TPSCR.G3,SCPL,383-1822,BPA,0.644,0,0
CHOF00JPN,-3946216.71,3366689.83,3698971.69,35.675,139.531,94.315,JAVAD TRE_G3TH DELTA,GPS+GLO+GAL+QZSS+IRNSS+SBAS,2020-12-11T13:00Z,TRM57971.00,NONE,31187001,BAM,0,0,0,2009-08-17T00:00Z,INTERNAL
CHPG00BRA,4163476.6693,-4163821.9362,-2444511.1746,-22.682,-45.002,566.658,TRIMBLE ALLOY,GPS+GLO+GAL+BDS+SBAS,2020-09-28T13:12Z,TRM59800.00,NONE,5151354351,BPA,0.4246,0.0003,0.0002,2013-03-27T00:00Z,INTERNAL
CHPI00BRA,4164613.89,-4162456.91,-2445028.76,-22.687,-44.985,617.826,SEPT POLARX5,GPS+GLO+GAL+BDS,2021-02-01T22:31Z,TPSCR.G3,NONE,3830153,BPA,0.0792,0,0,2018-05-03T14:30Z,INTERNAL
CHTI00NZL,-4607855.9,-272375.8,-4386954.5,-43.735,-176.617,76.101,TRIMBLE ALLOY,GPS+GLO+GAL+BDS+QZSS,2020-09-22T07:52Z,TRM115000.00,NONE,1441052895,BAM,0.002,0,0,2019-10-31T00:35Z,INTERNAL
CHUM00KAZ,1228950.716,4508079.93,4327868.505,42.999,74.751,716.758,TRIMBLE NETRS,GPS,2019-03-04T00:00Z,AOAD/M_T,NONE,237,BPA,0.09,0,0,2003-09-17T00:00Z,INTERNAL
CHUR00CAN,-236438.7,-3307616.7,5430049.1,58.759,-94.089,-19.1,TPS NET-G3A,GPS+GLO,2017 p6,5,2019-03-19T16:50Z,ASH701945E_M,NONE,CR620045037,BPA,0.1,0,0
CHWK00CAN,-2215259.73,-3543996.83,4802098.77,49.157,-122.008,174.444,SEPT POLARX5,GPS+GLO+GAL+BDS,2021-03-29T00:00Z,SEPCHOKE_B3E6,SPKE,5135,BPA,0,0,0,2020-11-26T00:15Z,INTERNAL CLOCK STEERING
CIBG00IDN,-1837002.6304,6065627.3598,-716183.2715,-6.49,106.849,169.534,TRIMBLE ALLOY,GPS+GLO+GAL+BDS+QZSS+SBAS+IRNSS,2021-10-01T08:05Z,LEIAR25.R4,NONE,10231019,BPA,0,0,0,2019-04-24T04:19Z,INTERNAL
CIT100USA,-2491490.2616,-4660803.2317,3559129.0005,34.137,-118.127,215.77,TRIMBLE NETR9,GPS+GLO+SBAS,2019-07-25T18:28Z,TRM57971.00,NONE,50001153448,BAM,0,0,0,2013-12-17T19:35Z,INTERNAL
CKIS00COK,-5583182.1381,-2054143.6114,-2292166.7567,-21.201,-159.801,18.831,TRIMBLE NETR9,GPS+GLO+GAL+BDS+QZSS,2017-04-27T00:00Z,JAVRINGANT_DM,NONE,2028,BPA,0.0015,0,0,2017-12-05T00:45Z,INTERNAL
CKSV00TWN,-2956619.1898,5075902.1717,2476625.5462,22.999,120.22,59.978,TRIMBLE ALLOY,GPS+GLO+GAL+BDS+QZSS+SBAS,2021-09-16T00:00Z,TPSCR.G3,TPSH,383-0108,BPA,0,0,0,2007-01-26T00:00Z,INTERNAL
CMP900USA,-2508506.1541,-4637174.7958,3579499.9356,34.353,-118.411,1138.413,TPS NET-G3A,GPS+GLO,2019 p10,5,2019-03-25T20:39Z,TPSCR.G3,SCIS,383-1786,BPA,0.12,0,0
CMUM00THA,-938078.387,5968373.965,2038404.323,18.761,98.932,309.368,TRIMBLE NETR9,GPS+GLO+GAL+BDS+QZSS,2019-04-17T04:53Z,JAV_GRANT-G3T,NONE,1320,BAM,0,0,0,2014-02-18T00:00Z,INTERNAL
CNMR00USA,-5087757.849,3465028.937,1664653.754,15.23,145.743,64.798,TRIMBLE NETR9,GPS+GLO+GAL,2021-05-21T21:25Z,TRM55971.00,NONE,30260435,BAM,0,0,0,2019-07-22T15:00Z,INTERNAL
COCO00AUS,-741949.8528,6190961.6634,-1337768.7328,-12.188,96.834,-34.817,SEPT POLARX5,GPS+QZSS+GAL+BDS+GLO+IRNSS,2021-08-27T01:00Z,LEIAR25.R4,NONE,726831,BPA,0.0065,0,0,2021-08-25T00:00Z,INTERNAL
CORD00ARG,2345503.9452,-4910842.9601,-3316365.5474,-31.528,-64.47,747.481,JAVAD TRE_G3TH DELTA,GPS+GLO+GAL,2021-07-15T00:36Z,TPSCR.G3,NONE,383-0362,BPA,0.0922,0,0,2013-08-28T00:00Z,INTERNAL
COSO00USA,-2411148.2861,-4571430.2322,3727461.4502,35.982,-117.809,1455.582,SEPT POLARX5,GPS+GLO+GAL+SBAS,2019-12-12T21:37Z,TWIVC6150,SCIS,VC6150L1907310007,BPA,0.243,0,0,2019-12-12T21:37Z,INTERNAL
COTE00ATA,-1285757.4165,417822.4915,-6214230.8473,-77.806,161.998,1878.554,TRIMBLE NETR9,GPS+GLO,2018-11-06T04:28Z,TRM59800.00,SCIS,4852A62823,BPA,0,0,0,2017-01-02T13:21Z,INTERNAL
COYQ00CHL,1391587,-4255574,-4527926,-45.514,-71.892,476.277,TRIMBLE NETR9,GPS,2017-06-01T20:50Z,ASH700936D_M,SNOW,12479,BPA,0,0,0,1999-01-01T00:00Z,INTERNAL
CPNM00THA,-1020874.496,6183763.086,1179096.215,10.725,99.374,9.545,TRIMBLE NETR9,GPS+GLO+GAL+BDS+QZSS,2019-04-17T05:01Z,JAVRINGANT_DM,SCIS,469,BPA,0,0,0,2013-04-04T00:00Z,INTERNAL
CPVG00CPV,5626883.4267,-2380932.5096,1824483.8747,16.732,-22.935,94.494,TRIMBLE ALLOY,GPS+GLO+GAL+BDS+SBAS,2021-09-20T11:45Z,TRM59800.00,NONE,5138354328,BPA,0.43,0,0,2013-10-22T00:00Z,INTERNAL
CRFP00USA,-2410446.7968,-4710490.3879,3550422.4952,34.039,-117.1,689.238,TRIMBLE NETR9,GPS+GLO+SBAS,2021-02-25T00:00Z,TRM57971.00,NONE,5000115161,BAM,0.0355,0,0,2013-12-12T21:55Z,INTERNAL
CRO100VIR,2607771.494,-5488076.997,1932768.0602,17.757,-64.584,-31.092,SEPT POLARX5TR,GPS+GLO+GAL+BDS,2021-03-12T17:00Z,JAVRINGANT_DM,SCIS,843,BPA,0.6435,0,0,2015-09-24T17:00Z,EXTERNAL H-MASER
CUSV00THA,-1132913.7678,6092530.5657,1504633.5192,13.736,100.534,76.463,JAVAD TRE_3 DELTA,GPS+GLO+GAL+BDS+QZSS,2021-07-21T01:43Z,JAVRINGANT_DM,NONE,918,BPA,0,0,0,2015-06-15T01:00Z,INTERNAL
CUT000AUS,-2364337.2699,4870285.5624,-3360809.8398,-32.004,115.895,24.403,TRIMBLE NETR9,GPS+GLO+GAL+BDS+QZSS+SBAS,2020-04-30T03:30Z,TRM59800.00,SCIS,4928353386,BPA,0,0,0,2012-02-02T00:00Z,INTERNAL
CUUT00THA,-1132915.824,6092526.351,1504641.505,13.736,100.534,74.699,TRIMBLE NETR9,GPS+GLO+GAL+BDS+QZSS+SBAS,2019-10-03T17:00Z,TRM57971.00,NONE,5000120293,BAM,0,0,0,2015-01-13T04:27Z,INTERNAL
CYNE00GUF,3880933,-5033206,532565,4.822,-52.365,-22.414,SEPT POLARX5,GPS+GLO+GAL+BDS+SBAS,2020-02-07T00:00Z,TRM115000.00,NONE,1551000367,BAM,0,0,0,2019-10-23T00:00Z,INTERNAL
CZTG00ATF,2719994.82,3463392.63,-4598612.94,-46.432,51.855,203.222,TRIMBLE ALLOY,GPS+GLO+GAL+BDS+QZSS+SBAS,2021-06-22T00:00Z,LEIAR20,LEIM,16247017,BAM,0.44,0,0,2014-03-14T12:00Z,INTERNAL
DAE200KOR,-3120042.274,4084614.722,3764026.818,36.399,127.374,117.244,TRIMBLE NETR9,GPS+GLO+GAL+BDS+QZSS,2019-04-18T03:27Z,TRM59800.00,SCIS,4923363230,BPA,0,0,0,2014-04-22T00:00Z,EXTERNAL CESIUM
DAEJ00KOR,-3120041.821,4084615.221,3764027.013,36.399,127.374,117.458,TRIMBLE NETR9,GPS+GLO+GAL+BDS+QZSS,2020-03-31T05:00Z,TRM59800.00,SCIS,4923363230,BPA,0,0,0,2011-01-12T12:00Z,EXTERNAL CESIUM
DAKR00SEN,5886533.48,-1849181.6,1610300.44,14.721,-17.439,52.201,TPS NET-G3A,GPS+GLO,2017 p6,5,2019-03-27T15:54Z,TPSCR.G3,NONE,383-2123,BPA,0,0,0
DARW00AUS,-4091359.6122,4684606.4228,-1408579.1258,-12.844,131.133,125.51,SEPT POLARX5,GPS+BDS+IRNSS+GLO+GAL+QZSS,2021-06-16T05:00Z,JAVRINGANT_DM,NONE,687,BPA,0,0,0,2017-07-05T00:00Z,INTERNAL
DAV100ATA,486854.4996,2285099.3657,-5914955.7712,-68.577,77.973,44.953,SEPT POLARX5,GPS+GLO+GAL+BDS+IRNSS+QZSS,2021-08-09T23:27Z,LEIAR25.R3,LEIT,9310018,BPA,0,0,0,2011-02-21T00:00Z,INTERNAL
DEAR00ZAF,5017617.2841,2233214.7864,-3234696.1991,-30.665,23.993,1322.122,TRIMBLE ALLOY,GPS,2021-05-09T00:00Z,ASH701941.B,SCIS,CRL1999100121,BPA,0,0,0,2000-07-01T00:00Z,INTERNAL
DGAR00GBR,1916269.343,6029977.689,-801719.821,-7.27,72.37,-64.345,SEPT POLARX5,GPS+GLO+GAL+BDS+QZSS+IRNSS,2021-01-28T00:52Z,ASH701945E_M,NONE,CR620024214,BPA,0.0814,0,0,2004-05-18T00:00Z,INTERNAL
DHLG00USA,-2319099.26,-4799846.5,3490090.45,33.39,-115.788,-82.63,TPS NET-G3A,GPS+GLO,2019-03-26T00:00Z,TPSCR.G3,SCIS,383-1895,BPA,0.1224,0,0,2012-06-21T22:43Z,INTERNAL
DJIG00DJI,4583086.1415,4250982.5036,1266243.0645,11.526,42.847,711.812,SEPT POLARX5,GPS+GLO+GAL+BDS+SBAS+IRNSS,2021-02-09T11:25Z,TRM59800.00,NONE,5037353965,BPA,0.4404,0.0015,0.0009,2016-08-24T13:15Z,INTERNAL
DLF100NLD,3924697.942,301124.893,5001905.154,51.986,4.387,76.283,TRIMBLE NETR9,GPS+GLO+GAL+BDS+QZSS+SBAS,2020-05-16T15:15Z,LEIAR25.R3,LEIT,10030006,BPA,0,0,0,2011-04-15T10:00Z,EXTERNAL CESIUM
DLTV00VNM,-1978879.097,5920511.651,1311808.34,11.945,108.482,1585.694,TRIMBLE NETR9,GPS+GLO+GAL+BDS+QZSS,2015-11-08T00:00Z,JAVRINGANT_DM,SCIS,450,BPA,0,0,0,2014-12-16T00:00Z,INTERNAL
DRAG00ISR,4432980.662,3149432.093,3322110.441,31.593,35.392,32.225,JAVAD TRE_3 DELTA,GPS+GLO,2019-01-24,ASH700936D_M,SNOW,CR14346,BPA,0,0,0,2000-02-07T00:00Z,INTERNAL
DRAO00CAN,-2059164.682,-3621108.388,4814432.366,49.323,-119.625,542.291,SEPT POLARX5,GPS+GLO+GAL,2019-05-31T05:00Z,TWIVC6050,SCIS,7.1015220200417E+017,BPA,0.1,0,0,2021-09-02T22:45Z,EXTERNAL H-MASER
DUBO00CAN,-417603.6,-4064529.8,4881432.16,50.259,-95.866,245.695,SEPT POLARX5,GPS+GLO+GAL,2019-02-07T00:10Z,AOAD/M_T,NONE,464,BPA,0.1,0,0,2015-10-23T20:22Z,EXTERNAL RUBIDIUM SYMMETRICOM
DUMG00ATA,-1940884,1628468,-5833720,-66.665,140.002,-2.939,LEICA GR25,GPS+GLO+GAL+BDS+QZSS+SBAS,2019-01-09T00:00Z,LEIAR25.R4,LEIT,726468,BPA,0.4278,-0.0005,0.0003,2017-01-17T00:00Z,INTERNAL
DUND00NZL,-4388121.17,726671.05,-4556535.63,-45.884,170.597,389.288,TRIMBLE ALLOY,GPS+GLO+GAL+BDS+QZSS,2020-09-22T08:45Z,TRM115000.00,NONE,1551016666,BAM,0.002,0,0,2019-10-01T00:07Z,INTERNAL
DYNG00GRC,4595220.016,2039434.081,3912626.007,38.079,23.932,510.995,SEPT POLARX5,GPS+GLO+GAL+BDS+IRNSS+SBAS,2021-11-10T10:10Z,TRM59800.00,NONE,5406354930,BPA,2.018,0,0,2015-09-25T10:00Z,INTERNAL
EBRE00ESP,4833520,41536,4147461,40.821,0.492,107.745,LEICA GR50,GPS+GLO+GAL+BDS,2019-04-05T10:22Z,LEIAR25.R4,NONE,726359,BPA,0.077,0,0,2016-12-14T11:07Z,INTERNAL
EIL300USA,-2296304.083,-1484805.898,5743078.376,64.688,-147.113,177.682,NOV OEM6,GPS,2021-10-25T00:00Z,TPSCR.G5,TPSH,762-11832,BPA,0,0,0,2015-05-27T00:00Z,EXTERNAL CESIUM /RCVR 1
EIL400USA,-2296304.083,-1484805.898,5743078.376,64.688,-147.113,177.682,NOV OEM6,GPS,2021-10-25T00:00Z,TPSCR.G5,TPSH,762-11832,BPA,0,0,0,2015-05-27T00:00Z,EXTERNAL CESIUM /RCVR 2
ENAO00PRT,4375732.153,-2329166.814,4000238.281,39.091,-28.026,91.975,JAVAD TRE_3,GPS+GLO+GAL+BDS+SBAS,2021-06-14T09:30Z,JAVRINGANT_G5T,NONE,3222C,BAM,0.1206,0,0,2019-07-23T16:30Z,INTERNAL
EPRT00USA,1768544.556,-4164839.445,4480190.419,44.909,-66.992,30.789,LEICA GR50,GPS+GLO+GAL,2019-02-27T21:42Z,LEIAR20,LEIM,20251001,BAM,0,0,0,2018-05-09T22:14Z,INTERNAL
ESCU00CAN,1852954.53,-3937498.76,4647314.64,47.073,-64.799,-15.592,TRIMBLE NETR9,GPS,2020-08-19T17:30Z,ASH701945E_M,NONE,CR6200323004,BPA,0.1,0,0,2016-07-10T23:00Z,INTERNAL
FAA100PYF,-5247393.111,-3076867.223,-1911521.528,-17.555,-149.614,12.543,SEPT POLARX5,GPS+GLO+GAL+BDS+QZSS+SBAS,2021-01-19T12:00Z,LEIAR25.R4,NONE,725235,BPA,0.1262,0,0,2012-12-05T00:00Z,INTERNAL 
FAIR00USA,-2281621.7717,-1453595.9493,5756961.9444,64.978,-147.499,319.623,SEPT POLARX5,GPS+GLO+GAL+BDS+QZSS,2021-04-14T00:00Z,ASH701945G_M,JPLA,CR5200348003,BPA,0.0863,0,0,2016-08-26T21:30Z,INTERNAL
FALE00WSM,-6134112,-862145,-1514975,-13.832,-172,48.201,TRIMBLE NETRS,GPS,2017-09-07T04:10Z,TRM41249.00,NONE,12697180,BAM,0.0535,0,0,2010-10-22T02:50Z,INTERNAL
FALK00FLK,2106811.344,-3355170.6666,-4981786.3348,-51.694,-57.874,51.275,SEPT POLARX5,GPS+GLO+GAL+BDS,2021-02-02T20:56Z,ASH701945E_M,SCIT,CR6200539006,BPA,0.0083,0,0,2008-07-21T00:00Z,INTERNAL
FFMJ00DEU,4053455.7,617729.9,4869395.9,50.091,8.665,178.696,JAVAD TRE_3 DELTA,GPS+GLO+GAL+BDS+SBAS,2021-08-31T08:40Z,LEIAR25.R3,LEIT,9050002,BPA,0.045,0,0,2019-09-04T10:53Z,INTERNAL
FLIN00CAN,-766174.46,-3611375.32,5184056.22,54.726,-101.978,311.932,SEPT POLARX5,GPS+GLO+GAL,2020-02-18T15:53Z,NOV750.R4,NOVS,9470003,BPA,0.15,0,0,2018-08-30T15:20Z,INTERNAL
FLRS00PRT,4221530.01,-2549242.33,4031397.8,39.454,-31.126,80.286,TRIMBLE ALLOY,GPS+GLO+GAL,2021-10-20T15:45Z,TRM159900.00,NONE,5925338547,BPA,0,0,0,2021-10-20T15:45Z,INTERNAL
FRDN00CAN,1760543.42,-4080069.4,4560178.6,45.933,-66.66,96.379,TPS NET-G3A,GPS+GLO,2017 p6,5,2019-03-13T20:21Z,TPSCR.G3,NONE,383-0933,BPA,0.1,0,0
FTNA00WLF,-6178322.4459,-202694.9925,-1566024.4684,-14.308,-178.121,85.262,TRIMBLE NETR9,GPS+GLO+GAL+BDS+QZSS+SBAS,2020-05-25T12:05Z,TRM59800.00,NONE,5112364069,BPA,0,0,0,2012-05-20T08:00Z,INTERNAL
FUNC00PRT,5143339.43,-1563412.87,3421191.44,32.648,-16.908,78.917,TRIMBLE ALLOY,GPS+GLO+GAL,2020-11-25T13:05Z,TRM159900.00,NONE,5925338548,BPA,0,0,0,2021-01-23T09:18Z,INTERNAL
GAMB00PYF,-4147126.8085,-4152222.1446,-2490033.108,-23.13,-134.965,81.068,TRIMBLE NETR9,GPS+GLO+GAL+BDS+SBAS,2020-06-10T02:10Z,TRM59800.00,NONE,5406354932,BPA,0,0,0,2014-10-08T22:10Z,INTERNAL
GAMG00KOR,-3191598,4096876,3691823,35.59,127.92,898.703,SEPT POLARX5TR,GPS+GLO+GAL+BDS+QZSS+SBAS+IRNSS,2021-01-26T09:00Z,LEIAR25.R4,LEIT,726358,BPA,2.034,0,0,2016-07-12T00:00Z,INTERNAL
GANP00SVK,3929181.5,1455236.8,4793653.9,49.035,20.323,746.453,TRIMBLE ALLOY,GPS+GLO+GAL+BDS+QZSS+IRNSS+SBAS,2021-11-03T09:54Z,TRM59800.00,SCIS,5620361622,BPA,0.383,0,0,2017-02-06T10:40Z,INTERNAL
GCGO00USA,-2281621.6297,-1453585.1138,5756964.9518,64.978,-147.499,319.835,JAVAD TRE_3 DELTA,GPS+GLO+GAL+BDS+QZSS,2021-07-27T01:06Z,JAVRINGANT_DM,SCIS,981,BPA,0.0083,0,0,2016-08-26T00:00Z,INTERNAL
GENO00ITA,4507890.272,707618.974,4441603.008,44.419,8.921,153.878,LEICA GR30,GPS+GLO+GAL+BDS+SBAS,2020-04-17T15:45Z,LEIAR20,NONE,19311020,BAM,0,0,0,2018-03-06T15:45Z,INTERNAL
GLPS00ECU,-33801.259,-6377516.5276,-82154.3037,-0.743,-90.304,2.188,JAVAD TRE_G3TH DELTA,GPS+GLO+GAL,2021-07-15T17:25Z,ASH701945B_M,SCIT,CR519992104,BPA,0.0083,0,0,2012-12-06T21:45Z,INTERNAL
GLSV00UKR,3512889.29,2068980.654,4888903.261,50.364,30.497,227.227,TRIMBLE NETR9,GPS+GLO+GAL+BDS+QZSS,2020-05-07T17:40Z,TRM115000.00,NONE,1551038935,BAM,0,0,0,2019-06-24T08:05Z,INTERNAL
GODE00USA,1130773.718,-4831253.581,3994200.422,39.022,-76.827,14.927,SEPT POLARX5TR,GPS+GLO+GAL+BDS,2021-02-03T22:48Z,AOAD/M_T,JPLA,129,BPA,0.0614,0,0,2013-01-30T18:15Z,EXTERNAL H-MASER
GODN00USA,1130760.8757,-4831298.688,3994155.1861,39.021,-76.827,18.294,JAVAD TRE_3 DELTA,GPS+GLO+GAL+BDS,2021-07-22T17:21Z,TPSCR.G3,SCIS,383-0151,BPA,0.0083,0,0,2012-01-14T00:00Z,EXTERNAL H2 Maser
GODS00USA,1130752.3046,-4831349.1223,3994098.9504,39.021,-76.827,19.523,JAVAD TRE_3 DELTA,GPS+GLO+GAL+BDS,2021-07-22T17:39Z,JAVRINGANT_DM,SCIS,2083,BPA,0.0083,0,0,2020-09-03T00:00Z,EXTERNAL H2 Maser
GODZ00USA,1130773.867,-4831253.583,3994200.409,39.022,-76.827,14.947,JPS EGGDT,GPS+GLO,2008-06-27T14:54Z,AOAD/M_T,JPLA,129,BPA,0.0614,0,0,2013-01-30T18:15Z,EXTERNAL H-MASER
GOL200USA,-2353614.316,-4641385.324,3676976.407,35.425,-116.889,987.061,ASHTECH UZ-12,GPS,2006-09-27T00:00Z,AOAD/M_T,NONE,401-B,BPA,0.0254,0,0,2011-09-13,EXTERNAL H-MASER
GOLD00USA,-2353614.316,-4641385.3523,3676976.434,35.425,-116.889,987.097,JAVAD TRE_G3TH DELTA,GPS+GLO+GAL+QZSS,2021-07-15T18:16Z,AOAD/M_T,NONE,401-B,BPA,0.0254,0,0,2011-09-13,EXTERNAL H-Maser 
GOP600CZE,3979319.62,1050311.94,4857064.38,49.914,14.786,593.033,SEPT POLARX5,GPS+GLO+GAL+BDS+QZSS+IRNSS+SBAS,2021-02-08T13:42Z,SEPCHOKE_B3E6,SPKE,5287,BPA,0.0653,0,0,2019-04-09T07:10Z,EXTERNAL CESIUM
GOP700CZE,3979319.64,1050311.92,4857064.37,49.914,14.786,593.035,TRIMBLE NETR9,GPS+GLO+GAL+BDS+QZSS,2019-04-23T14:49Z,SEPCHOKE_B3E6,SPKE,5287,BPA,0.0653,0,0,2019-04-09T07:10Z,EXTERNAL CESIUM
GOPE00CZE,3979316.134,1050312.478,4857067.108,49.914,14.786,593.038,TRIMBLE ALLOY,GPS+GLO+GAL+BDS+IRNSS+SBAS,2020-09-30T16:48Z,TPSCR.G3,TPSH,30161,BPA,0.1114,0,0,2018-07-17T19:08Z,EXTERNAL CESIUM
GRAC00FRA,4581708.63,556132.23,4389340.93,43.754,6.921,1320.227,LEICA GR50,GPS+GLO+GAL+BDS+SBAS,2022-02-11T11:00Z,TRM57971.00,NONE,5000113989,BAM,0.05,0,0,2015-03-10T13:00Z,INTERNAL
GRAS00FRA,4581690.811,556114.972,4389360.88,43.755,6.921,1319.745,TRIMBLE NETR9,GPS+GLO+GAL+BDS+SBAS,2021-10-06T09:15Z,ASH701945E_M,NONE,CR520024222,BPA,0.035,0,0,2004-10-21T09:00Z,INTERNAL
GRAZ00AUT,4194424.124,1162702.46,4647245.193,47.067,15.493,538.718,SEPT POLARX5,GPS+GLO+GAL+BDS,2021-11-03T07:24Z,LEIAR25.R4,LEIT,726444,BPA,1.964,0,0,2017-11-23T09:42Z,INTERNAL
GUAM00GUM,-5071312.6574,3568363.6347,1488904.402,13.589,144.868,202.317,SEPT POLARX5,GPS+GLO+GAL+BDS+QZSS,2021-11-26T17:00Z,JAVRINGANT_DM,SCIS,842,BPA,0.6229,0,0,2019-03-07T00:58Z,INTERNAL
GUAT00GTM,-56063.582,-6174978.67,1596665.267,14.59,-90.52,1520.277,LEICA GRX1200GGPRO,GPS+GLO,2014-08-13T22:26Z,LEIAR25.R3,LEIT,10190009,BPA,0,0,0,2012-06-12,INTERNAL
GUUG00USA,-5070465.249,3576460.234,1472093.785,13.433,144.803,135.139,TRIMBLE ALLOY,GPS+GLO+GAL,2021-11-29T21:43Z,LEIAR20,LEIM,20251006,BAM,0,0,0,2021-09-23T00:11Z,INTERNAL
HAL100USA,-5466017.9454,-2404394.6546,2242210.2481,20.707,-156.256,3073.251,SEPT POLARX5,GPS+GLO+GAL+BDS+QZSS,2021-02-02T23:36Z,JAVRINGANT_DM,SCIS,982,BPA,0.0083,0,0,2015-02-11T00:00Z,INTERNAL
HAMD00IRN,3469898.0183,3926741.412,3626961.1469,34.869,48.534,1751.356,TRIMBLE NETR9,GPS+GLO,2011-05-18T00:00Z,TRM57971.00,SCIT,1441036425,BAM,0,0,0,2011-05-18,INTERNAL
HARB00ZAF,5084657.615,2670325.2503,-2768481.0274,-25.887,27.707,1558.489,SEPT POLARX5TR,GPS+GLO+GAL+BDS+SBAS+IRNSS,2021-02-08T16:00Z,TRM59800.00,NONE,5210354435,BPA,3.052,0,0,2021-01-22T12:15Z,EXTERNAL CESIUM
HERS00GBR,4033471.33,23667.86,4924300.35,50.867,0.336,76.927,SEPT POLARX5TR,GPS+GLO+GAL+BDS+SBAS,2021-02-08T13:45Z,LEIAR25.R3,NONE,10250002,BPA,0.0096,0,0,2010-08-19T12:00Z,EXTERNAL H-MASER
HERT00GBR,4033461.038,23537.662,4924318.165,50.867,0.334,83.77,LEICA GRX1200GGPRO,GPS+GLO,2015-09-18T15:00Z,LEIAT504GG,NONE,200429,BPA,0,0,0,2015-03-03T12:00Z,INTERNAL
HKSL00HKG,-2393382.414,5393861.187,2412592.401,22.372,113.928,95.712,LEICA GR50,GPS+GLO+GAL+BDS,2021-11-29T00:02Z,LEIAR25.R4,LEIT,725194,BPA,0.0083,0,0,2011-09-07T00:00Z,INTERNAL
HKWS00HKG,-2430579.004,5374285.676,2418956.331,22.434,114.335,64.197,LEICA GR50,GPS+GLO+GAL+BDS,2021-11-29T02:33Z,LEIAR25.R4,LEIT,725198,BPA,0.0083,0,0,2011-09-07T00:00Z,INTERNAL
HLFX00CAN,2018905.8,-4069070.52,4462415.41,44.684,-63.611,3.546,TPS NET-G3A,GPS+GLO,2017 p6,5,2019-03-07T21:26Z,TPSCR.G3,NONE,383-0474,BPA,0.1,0,0
HNLC00USA,-5506799,-2240050,2302720,21.303,-157.865,22.61,TRIMBLE NETR9,GPS,2020-12-11T00:00Z,ASH700936D_M,SNOW,CR14263,BPA,0,,,1997-06-19T02:23Z,INTERNAL
HNPT00USA,1196626.343,-4846358.5,3956723.115,38.589,-76.13,-27.545,LEICA GR50,GPS+GLO+GAL,2021-03-22T16:43Z,LEIAX1202GG,NONE,6300058,BAM,0,0,0,2007-06-14,INTERNAL
HNUS00ZAF,4973168.8045,1734085.3905,-3585434.1455,-34.425,19.223,63.459,TRIMBLE ALLOY,GPS+GLO,2020-10-13T09:40Z,ASH701941.B,SCIS,CRL1999100126,BPA,0,0,0,1999-07-08T00:00Z,INTERNAL
HOB200AUS,-3950072.2497,2522415.3618,-4311637.4022,-42.805,147.439,41.459,SEPT POLARX5,GPS+GLO+GAL+BDS+IRNSS+QZSS,2021-07-05T16:00Z,LEIAR25.R4,NONE,726829,BPA,0.025,0,0,2021-12-17T00:00Z,EXTERNAL H-MASER
HOFN00ISL,2679689.848,-727951.343,5722788.898,64.267,-15.198,82.741,LEICA GR50,GPS+GLO+GAL+BDS+IRNSS+SBAS,2021-05-19T10:30Z,LEIAR25.R4,LEIT,725283,BPA,0.0319,0,0,2013-05-05T12:00Z,INTERNAL
HOLB00CAN,-2503040.424,-3188233.325,4908701.543,50.64,-128.135,560.021,SEPT POLARX5,GPS+GLO+GAL+BDS,2021-03-29T00:00Z,SEPCHOKE_B3E6,SPKE,5130,BPA,0.0821,0,0,2017-10-26T20:10Z,INTERNAL RECEIVER CLOCK
HOLM00CAN,-983063.87,-1867634.52,5998678.91,70.736,-117.761,39.951,ASHTECH UZ-12,GPS,2010-12-07T23:40Z,ASH701945D_M,NONE,CR520020905,BPA,0.1,0,0,2002-08-09,INTERNAL
HOLP00USA,-2500946.0962,-4670472.9515,3539500.5469,33.925,-118.168,-6.29,SEPT POLARX5,GPS+GLO+GAL+SBAS,2021-06-23T17:16Z,TWIVC6150,SCIS,VC6150L19030006,BPA,0.131,0,0,2021-06-23T17:16Z,INTERNAL
HRAG00ZAF,5085418.18,2668226.51,-2768758.21,-25.89,27.685,1407.788,JAVAD TRE_G3TH DELTA,GPS+GLO+GAL+IRNSS+SBAS,2020-12-11T13:25Z,LEIAR25.R3,LEIT,9310005,BPA,0.128,0,0,2018-09-13T13:30Z,EXTERNAL H-MASER
HRAO00ZAF,5085352.597,2668395.992,-2768731.551,-25.89,27.687,1414.744,SEPT POLARX5TR,GPS+GLO+GAL+BDS+SBAS+IRNSS,2021-10-13T03:50Z,ASH701945E_M,NONE,CR6200610005,BPA,0.0814,0,0,2021-07-27T00:00Z,EXTERNAL H-MASER
HUEG00DEU,4251963.3,567043.8,4704708.7,47.834,7.596,278.745,JAVAD TRE_3 DELTA,GPS+GLO+GAL+BDS+SBAS,2021-08-31T09:25Z,LEIAR25.R4,LEIT,726365,BPA,0,0,0,2019-11-14T13:30Z,INTERNAL
HYDE00IND,1208444.8595,5966806.0568,1897076.6227,17.417,78.551,442.11,LEICA GRX1200GGPRO,GPS+GLO,2014-09-27T09:27Z,LEIAT504GG,NONE,200348,BPA,0,0,0,2007-11-26T00:00Z,INTERNAL
IENG00ITA,4476537.4,600431.46,4488761.34,45.015,7.639,317.049,SEPT POLARX4TR,GPS+GLO+GAL+BDS+SBAS,2019-07-19T11:30Z,SEPCHOKE_MC,NONE,5261,BAM,0,0,0,2019-04-11T07:05Z,EXTERNAL H-MASER
IISC00IND,1337936.455,6070317.1261,1427876.7852,13.021,77.57,844.117,SEPT POLARX5,GPS+GLO+GAL+BDS+QZSS+IRNSS,2021-01-29T19:43Z,ASH701945E_M,NONE,CR6200548032,BPA,0.078,0,0,2008-07-10T00:00Z,INTERNAL
INEG00MEX,-1260435.67,-5788547.37,2360340.12,21.856,-102.284,1888.498,TRIMBLE ALLOY,GPS+GLO+GAL+BDS,2021-05-17T16:00Z,TRM115000.00,NONE,60413G0087,BAM,0.067,0,0,2021-05-17T16:00Z,INTERNAL
INVK00CAN,-1628432.02,-1714393.06,5903844.73,68.306,-133.527,46.813,TRIMBLE NETR9,GPS,2017-11-17T20:27Z,ASH701945C_M,SCIS,CR620010805,BPA,0.1,0,0,2003-08-21T15:30Z,INTERNAL
IQAL00CAN,1036001.02,-2631455.56,5697819.69,63.756,-68.51,92.142,TPS NET-G3A,GPS+GLO,2017 p6,5,2019-03-22T14:29Z,TPSCR.G3,NONE,383-0408,BPA,0.05,0,0
IQQE00CHL,2034208,-5629172,-2196142,-20.274,-70.132,39.003,TRIMBLE NETR9,GPS,2021-08-08T00:00Z,ASH700936D_M,SNOW,12470,BPA,0,0,0,2002-01-01T00:01Z,INTERNAL 
IRKJ00RUS,-968328.35,3794426.541,5018167.196,52.219,104.316,502.409,JPS LEGACY,GPS+GLO,2007,0,2007-10-31,JPSREGANT_SD_E1,NONE,RA0225,BPA,0.128,0,0
IRKM00RUS,-968332.3889,3794425.4087,5018167.7058,52.219,104.316,502.752,JAVAD TRE_G3TH DELTA,GPS+GLO,2020,0,2020-07-13T09:00Z,AOAD/M_T,NONE,178,BPA,0.128,0,0
ISBA00IRQ,3808364.974,3734430.116,3485693.39,33.341,44.438,72.791,TRIMBLE NETR5,GPS+GLO,2020-05-20,TRM57971.00,NONE,30763366,BAM,0,0,0,2011-10-05,INTERNAL
ISHI00JPN,-3959648.7541,3296836.3371,3747005.5756,36.209,140.219,156.249,TRIMBLE ALLOY,GPS+GLO+GAL+QZSS,2021-08-16T11:00Z,TRM59800.00,SCIS,5204354380,BPA,0,0,0,2016-04-25,EXTERNAL H-MASER
ISPA00CHL,-1881703.507,-5359979.772,-2890599.259,-27.125,-109.344,112.906,ASHTECH UZ-12,GPS,2007-06-03T06:00Z,ASH701945E_M,SCIT,CR620024321,BPA,0.0083,0,0,2012-10-05T00:00Z,INTERNAL
ISTA00TUR,4208830.46,2334850.14,4171267.18,41.104,29.019,147.665,LEICA GR25,GPS+GLO+GAL+BDS+SBAS,2021-05-26T08:05Z,LEIAR25.R4,LEIT,726339,BPA,0.061,0,0,2016-05-09T07:00Z,INTERNAL
IZMI00TUR,4456584.236,2278765.506,3939930.889,38.395,27.082,75.322,TRIMBLE NETR5,GPS+GLO+SBAS,2018-10-17T11:00Z,TRM55971.00,NONE,30763420,BAM,0.087,0,0,2008-08-10T00:00Z,INTERNAL
JCTW00ZAF,5023564.462,1677795.751,-3542025.865,-33.951,18.469,84.013,TRIMBLE NETR9,GPS+GLO+GAL+BDS,2015-08-28T00:00Z,TRM59800.00,SCIS,31053932,BPA,0,0,0,2014-02-18T00:00Z,INTERNAL
JDPR00IND,1671950.8578,5476891.3303,2799675.5722,26.206,73.024,167.703,TRIMBLE ALLOY,GPS+GLO+GAL+BDS,2021-06-18T04:14Z,LEIAT504GG,NONE,200337,BPA,0.14,0,0,2020-12-19T10:00Z,defaultdict(<function rec_dd at 0x7f349ce211e0>
JFNG00CHN,-2279828.8292,5004706.5483,3219777.4684,30.516,114.491,71.739,TRIMBLE ALLOY,GPS+GLO+GAL+BDS+QZSS+SBAS+IRNSS,2020-09-17T03:12Z,TRM59800.00,NONE,5116354160,BPA,0,0,0,2012-10-10T00:00Z,INTERNAL
JNAV00VNM,-1626346.47,5730605.79,2271881.48,21.005,105.844,35.275,TRIMBLE NETR9,GPS+GLO+GAL+BDS+QZSS,2015-10-29T00:00Z,JAVRINGANT_DM,SCIS,489,BPA,0,0,0,2014-05-13T00:00Z,INTERNAL
JOG200IDN,-2200208.0871,5924895.6273,-855929.2334,-7.764,110.372,174.776,JAVAD TRE_G3TH DELTA,GPS+GLO+GAL+QZSS,2020-11-11T12:39Z,JAV_RINGANT_G3T,NONE,323,BAM,0.1206,0,0,2013-02-06T00:00Z,INTERNAL
JOZ200POL,3664881,1409190,5009618,52.098,21.032,152.696,TRIMBLE NETR9,GPS+GLO+GAL+BDS+QZSS,2021-07-30T12:00Z,TRM59800.00,NONE,5516356133,BPA,0,0,0,2019-03-22T15:30Z,INTERNAL
JOZE00POL,3664940.5,1409153.59,5009571.17,52.097,21.032,141.834,SEPT POLARX5,GPS+GLO+GAL+BDS+QZSS+IRNSS+SBAS,2021-07-30T13:02Z,SEPCHOKE_B3E6,NONE,5081,BPA,0.198,0,0,2018-10-25T16:49Z,INTERNAL
JPLM00USA,-2493304.6796,-4655215.1032,3565497.5918,34.205,-118.173,424.456,SEPT POLARX5,GPS+GLO+GAL+BDS,2021-02-02T21:30Z,AOAD/M_T,NONE,422,BPA,0.061,0,0,1994-06-14T00:00Z,INTERNAL
JPRE00ZAF,5064032.232,2724721.054,-2752950.721,-25.732,28.283,1387.738,TRIMBLE NETR9,GPS+GLO+GAL+BDS,2015-12-04T00:00Z,TRM59800.00,SCIS,5037353945,BPA,0,0,0,2015-12-04T00:00Z,INTERNAL
KARR00AUS,-2713833.2672,5303935.1068,-2269513.7525,-20.981,117.097,109.543,SEPT POLARX5,GPS+GLO+GAL+BDS+QZSS+IRNSS,2021-12-02T00:43Z,TRM59800.00,NONE,5038353985,BPA,0.0005,0,0,2013-09-11T00:00Z,INTERNAL
KAT100AUS,-4147413.8151,4581462.5866,-1573359.0833,-14.376,132.153,184.691,SEPT POLARX5,GPS+GLO+GAL+BDS+IRNSS,2021-08-11T08:18Z,LEIAR25.R3,LEIT,9310015,BPA,0,0,0,2010-03-13T00:00Z,INTERNAL
KERG00ATF,1406337,3918161,-4816167,-49.351,70.256,73.049,TRIMBLE NETR9,GPS+GLO+GAL+BDS+SBAS,2020-05-25T16:05Z,ASH701945E_M,SNOW,CR6200539022,BPA,0.42,0,0,2008-09-05T11:40Z,INTERNAL
KGNI00JPN,-3941949.165,3368156.343,3702214.825,35.71,139.488,123.949,JAVAD TRE_G3TH DELTA,GPS+GLO+GAL+QZSS+SBAS,2021-10-18T09:59Z,JAVRINGANT_DM,SCIS,484,BPA,0,0,0,2021-10-18T09:59Z,EXTERNAL H-MASER
KHAR00UKR,3312984.369,2428203.401,4863307.795,50.005,36.239,201.447,NOV OEMV3,GPS+GLO,2015-07-20T09:50Z,NOV702GG,NONE,70119,BAM,0,0,0,2015-03-23T12:30Z,INTERNAL
KIR000SWE,2248123.504,865686.533,5886425.594,67.878,21.06,498.413,SEPT POLARX5,GPS+GLO+GAL+BDS+QZSS+SBAS,2019-11-06T16:40Z,JNSCR_C146-22-1,OSOD,368,BPA,0.071,0,0,2016-08-23T08:00Z,INTERNAL
KIR800SWE,2248127.371,865685.468,5886424.301,67.878,21.06,498.43,TRIMBLE ALLOY,GPS+GLO+GAL+BDS+QZSS+SBAS,2020-06-17T13:00Z,LEIAR25.R3,LEIT,9030016,BPA,0.003,0,0,2011-08-12,INTERNAL
KIRI00KIR,-6327822.4922,785604.1018,149769.0463,1.355,172.923,36.59,TRIMBLE NETR9,GPS+GLO+GAL+BDS+QZSS,2020-03-03T00:38Z,TRM59800.00,NONE,5421355010,BPA,0.0038,0,0,2015-04-28T00:00Z,INTERNAL
KIRU00SWE,2251420.999,862817.095,5885476.564,67.857,20.968,391.348,SEPT POLARX5,GPS+GLO+GAL+BDS+QZSS+SBAS,2021-01-19T13:00Z,SEPCHOKE_B3E6,SPKE,5651,BPA,0.062,0,0,2019-11-12T11:30Z,EXTERNAL CESIUM
KIT300UZB,1944944.8306,4556652.418,4004326.1235,39.135,66.885,623.025,SEPT ASTERX4,GPS+GLO+GAL+BDS+QZSS+IRNSS+SBAS,2021-01-20T11:24Z,SEPCHOKE_B3E6,NONE,5478,BPA,0.1206,0,0,2020-08-28T06:00Z,INTERNAL
KITG00UZB,1944879.726,4556783.77,4004205.937,39.133,66.887,621.054,SEPT POLARX5,GPS+GLO+GAL+BDS+QZSS+SBAS+IRNSS,2021-01-26T09:26Z,TRM59800.00,SCIS,5225354540,BPA,2.0374,0.0003,0,2016-06-18T00:00Z,INTERNAL
KMNM00TWN,-2761837.8555,5110347.1476,2625150.8677,24.464,118.389,49.493,TRIMBLE ALLOY,GPS+GLO+GAL+BDS+QZSS+SBAS,2021-09-16T00:00Z,TPSCR3_GGD,CONE,217-03333,BPA,0,0,0,2009-01-01T00:00Z,INTERNAL
KOKB00USA,-5543838.3609,-2054586.6103,2387810.1225,22.126,-159.665,1167.93,SEPT POLARX5TR,GPS+GLO+GAL+BDS+QZSS,2021-02-03T23:15Z,ASH701945G_M,NONE,CR6200342010,BPA,0.0614,0,0,2021-03-25T00:00Z,EXTERNAL H-MASER
KOKV00USA,-5543838.3609,-2054586.6103,2387810.1225,22.126,-159.665,1167.93,JAVAD TRE_G3TH DELTA,GPS+GLO+BDS+QZSS,2021-07-29T22:31Z,ASH701945G_M,NONE,CR6200342010,BPA,0.0614,0,0,2021-03-25T00:00Z,EXTERNAL H-MASER
KOS100NLD,3899613.948,397361.592,5014738.666,52.173,5.818,105.235,SEPT POLARX5E,GPS+GLO+GAL+BDS+QZSS+IRNSS+SBAS,2020-09-21T12:15Z,LEIAR25.R3,LEIT,10050009,BPA,0.13,0,0,2013-05-23T00:00Z,INTERNAL
KOST00KAZ,1701038.957,3427939.4424,5085671.495,53.225,63.608,159.701,LEICA GR10,GPS+GLO+GAL+SBAS,2020-08-01T17:16Z,LEIAR25.R4,LEIT,10471009,BPA,0,0,0,2018-06-05T00:00Z,INTERNAL
KOUC00NCL,-5751222.662,1617967.645,-2225744.218,-20.559,164.287,84.58,TRIMBLE NETR9,GPS+GLO+QZSS+GAL+BDS,2022-01-24T02:38Z,TRM57971.00,TZGD,1440921127,BAM,0,0,0,2009-11-17T00:00Z,INTERNAL
KOUG00GUF,3855263,-5049731,563040,5.098,-52.64,106.614,SEPT POLARX5TR,GPS+GLO+GAL+BDS+SBAS,2021-01-26T14:03Z,LEIAR25.R3,LEIT,10180007,BPA,0,0,0,2013-03-25T14:37Z,EXTERNAL CESIUM
KOUR00GUF,3839591.447,-5059567.538,579956.867,5.252,-52.806,-25.362,SEPT POLARX5,GPS+GLO+GAL+BDS+SBAS,2021-01-19T13:00Z,SEPCHOKE_B3E6,NONE,5653,BPA,0.095,0,0,2019-10-09T20:00Z,EXTERNAL H-MASER
KRGG00ATF,1406336.2099,3918154.6213,-4816172.8453,-49.352,70.256,73.4,TRIMBLE ALLOY,GPS+GLO+GAL+BDS+QZSS+SBAS+IRNSS,2020-05-18T07:20Z,LEIAR25.R4,LEIT,10301029,BPA,1.0332,0.0004,0.0034,2017-02-02T10:58Z,INTERNAL
KRS100TUR,3542999.668,3314720.171,4129002.589,40.588,43.093,1812.124,TRIMBLE NETR5,GPS+GLO+SBAS,2018-10-17T11:00Z,TRM55971.00,TZGD,30569131,BAM,0.087,0,0,2008-09-27T00:00Z,INTERNAL
KSU100USA,-570504.689,-4923591.018,4001208.4839,39.101,-96.609,326.013,SEPT POLARX5,GPS+GLO+GAL+BDS,2021-09-28T19:01Z,TRM59800.99,SCIT,4622A15590,BPA,0.0083,0,0,2021-03-18T18:03Z,INTERNAL
KUJ200CAN,773263.38,-3557025.2,5219841.77,55.29,-77.735,9.074,SEPT POLARX5,GPS+GLO+GAL,2019-06-14T00:00Z,AOAD/M_T_RFI_T,NONE,285,BPA,0.05,0,0,2019-06-14T00:00Z,INTERNAL
KZN200RUS,2352345.7,2717466.1,5251458.5,55.791,49.119,94.113,TRIMBLE ALLOY,GPS+GLO+GAL+BDS+QZSS+SBAS+IRNSS,2021-06-08T06:43Z,TRM59800.00,SCIS,5106354023,BPA,0.075,,,2012-02-24T00:00Z,INTERNAL 
LAE100PNG,-5312857.053,3451108.016,-736322.743,-6.674,146.993,140.728,ASHTECH UZ-12,GPS,2013-09-01T00:00Z,ASH700936A_M,NONE,12486,BPA,0.011,0,0,1997-07-28T00:00Z,INTERNAL 
LAMA00POL,3524523,1329693,5129846,53.892,20.67,187.09,LEICA GR50,GPS+GLO+GAL+BDS+QZSS+SBAS,2022-02-17T13:00Z,LEIAR20,LEIM,794207,BAM,0,0,0,2022-02-17T13:00Z,INTERNAL
LAUT00FJI,-6075194.5,270924,-1917189.6,-17.609,177.447,90.074,SEPT POLARX5,GPS+BDS+GLO+QZSS+GAL+IRNSS,2021-08-04T05:42Z,JAVRINGANT_DM,NONE,682,BPA,0.0015,0,0,2017-03-17T00:00Z,INTERNAL
LBCH00USA,-2507798.7984,-4676369.6918,3526890.8008,33.788,-118.203,-27.167,SEPT POLARX5,GPS+GLO+GAL+SBAS,2020-07-25T00:46Z,TWIVC6150,SCIS,VC6150L1909270024,BPA,0,0,0,2019-11-07T23:00Z,INTERNAL
LCK300IND,894676.3053,5620593.4735,2869571.0496,26.912,80.956,64.576,TRIMBLE ALLOY,GPS+GLO+GAL+BDS+QZSS+SBAS+IRNSS,2020-08-24T17:30Z,LEIAR25.R3,LEIT,9380001,BPA,0.1,0,0,2014-08-20T11:24Z,EXTERNAL PASSIVE HYDROGEN MASER
LCK400IND,894678.4718,5620595.0084,2869567.4303,26.912,80.956,64.594,TRIMBLE ALLOY,GPS+GLO+GAL+BDS+QZSS+SBAS+IRNSS,2020-08-24T16:40Z,LEIAR25.R3,LEIT,9440006,BPA,0.1,0,0,2014-08-20T11:23Z,EXTERNAL Passive Hydrogen Maser
LEIJ00DEU,3898736.2,855345.5,4958372.6,51.354,12.374,178.861,JAVAD TRE_3 DELTA,GPS+GLO+GAL+BDS+SBAS,2021-08-31T09:45Z,LEIAR25.R4,LEIT,10211018,BPA,0.045,0,0,2019-08-12T07:50Z,INTERNAL
LHAZ00CHN,-106943.5,5549296.14,3139212.6,29.657,91.104,3646.671,LEICA GR25,GPS+GLO+GAL+BDS+SBAS,2021-05-21T11:15Z,LEIAR25.R4,LEIT,8430006,BPA,0.133,0,0,2016-03-16T12:00Z,INTERNAL
LICC00GBR,3978703.569,-12141.038,4968417.218,51.5,-0.175,89.084,CHC P5E,GPS+GLO+GAL+BDS+SBAS,2020-01-08,CHCC220GR2,CHCD,2004010012,BPA,0.105,0,0,2019-09-10,INTERNAL
LLAG00ESP,5384906.53,-1576770.73,3023828.01,28.482,-16.321,623.236,JAVAD TRE_G2T DELTA,GPS+GAL+SBAS,2020-12-07T13:15Z,TRM57971.00,NONE,31050629,BAM,0,0,0,2010-05-27T07:30Z,INTERNAL
LMMF00MTQ,2993387.952,-5399363.731,1596748.042,14.595,-60.996,-26.566,TRIMBLE ALLOY,GPS+GLO+GAL+BDS+SBAS,2020-09-30T15:30Z,TRM57971.00,NONE,5311118262,BAM,0,0,0,2013-06-24T13:00Z,INTERNAL
LPAL00ESP,5326648,-1719828,3052056,28.764,-17.894,2207.444,LEICA GRX1200GGPRO,GPS+GLO,2013-05-14T11:07Z,LEIAT504GG,NONE,200625,BPA,0,0,0,2008-07-09T10:00Z,INTERNAL
LPGS00ARG,2780102.9896,-4437418.9149,-3629404.5253,-34.907,-57.932,30.286,JAVAD TRE_3,GPS+GLO+GAL+BDS,2021-06-24T07:37Z,JAV_RINGANT_G3T,NONE,349,BAM,0.069,0,0,2021-05-12T15:45Z,INTERNAL
LROC00FRA,4424632.8,-94175.5,4577543.9,46.159,-1.219,58.323,LEICA GR25,GPS+GLO+GAL+SBAS,2019-04-17T09:37Z,ASH701945B_M,NONE,CR620013801,BPA,0,0,0,2001-11-23T00:00Z,INTERNAL
M0SE00ITA,4642432.5,1028629.4,4236854.2,41.893,12.493,120.979,LEICA GR25,GPS+GLO+GAL+BDS+SBAS,2020-03-23T16:00Z,LEIAR25.R4,LEIT,725219,BPA,0,0,0,2012-04-13,EXTERNAL RUBIDIUM
MAC100AUS,-3464038.4875,1334172.7432,-5169224.4229,-54.5,158.936,-6.259,SEPT POLARX5,GPS+GLO+GAL+BDS+QZSS+IRNSS,2021-08-10T00:02Z,JAVRINGANT_DM,SCIS,1514,BPA,0.053,0,0,2016-11-29T04:00Z,INTERNAL
MAD200ESP,4849202.3989,-360328.9943,4114913.1884,40.429,-4.25,829.885,ASHTECH Z-XII3T,GPS,2004-11-29T22:50Z,AOAD/M_T,NONE,451-U,BPA,0.0254,0,0,2003-11-11T13:30Z,EXTERNAL H-MASER
MADR00ESP,4849202.394,-360328.9929,4114913.1862,40.429,-4.25,829.879,JAVAD TRE_G3TH DELTA,GPS+GLO+GAL+QZSS,2021-07-15T22:34Z,AOAD/M_T,NONE,451-U,BPA,0.0254,0,0,2003-11-11T13:30Z,EXTERNAL H-MASER
MAG000RUS,-2825810.152,1581233.0113,5477005.6213,59.576,150.77,362.368,ASHTECH Z-XII3,GPS,2011-07-06T00:00Z,ASH700936D_M,JPLA,13078,BPA,0.08,,,1997-11-12,INTERNAL
MAJU00MHL,-6257572.5057,950332.3662,785215.1556,7.119,171.365,34.252,SEPT POLARX4TR,GPS+GLO+GAL+BDS+QZSS,2017-04-27T00:00Z,JAVRINGANT_DM,NONE,1513,BPA,0.0016,0,0,2015-06-10T00:00Z,INTERNAL
MAL200KEN,4865385.694,4110717.189,-331137.637,-2.996,40.194,-20.507,SEPT POLARX5,GPS+GLO+GAL+BDS+SBAS,2021-01-19T12:00Z,LEIAR25.R4,NONE,725234,BPA,0,0,0,2013-04-04T12:00Z,INTERNAL 
MANA00NIC,407981.838,-6222925.713,1333528.967,12.149,-86.249,71.444,TRIMBLE NETR9,GPS,2019-04-05T21:00Z,TRM59800.99,NONE,220191257,BPA,0,0,0,2020-02-04T18:15Z,INTERNAL
MAR600SWE,2998189.713,931451.589,5533398.473,60.595,17.259,75.818,SEPT POLARX5,GPS+GLO+GAL+BDS+IRNSS+SBAS,2019-11-04T10:30Z,AOAD/M_T,OSOD,221,BPA,0.071,0,0,2019-08-02T09:00Z,INTERNAL
MAR700SWE,2998198.758,931449.71,5533392.638,60.595,17.258,74.701,TRIMBLE ALLOY,GPS+GLO+GAL+BDS+SBAS,2020-06-17T13:00Z,LEIAR25.R3,LEIT,9040009,BPA,0.003,0,0,2011-04-27,INTERNAL
MARS00FRA,4630532.8,433946.1,4350142.6,43.279,5.354,62.162,LEICA GR50,GPS+GLO+GAL+BDS+SBAS,2022-02-11T11:00Z,TRM57971.00,NONE,5311118232,BAM,0.07,0,0,2012-09-26T13:00Z,INTERNAL
MAS100ESP,5439192.263,-1522055.61,2953454.72,27.764,-15.633,197.57,SEPT POLARX5,GPS+GLO+GAL+BDS+SBAS,2021-01-19T12:00Z,LEIAR25.R4,NONE,725055,BPA,0.033,0,0,2012-06-18T14:20Z,EXTERNAL CESIUM
MAT100ITA,4641951.507,1393053.602,4133280.821,40.649,16.705,534.947,LEICA GR30,GPS+GLO+GAL+BDS+SBAS,2018-07-25T08:15Z,LEIAR20,NONE,19203021,BAM,0,0,0,2017-07-05T14:15Z,INTERNAL
MATE00ITA,4641949.709,1393045.298,4133287.333,40.649,16.704,536.072,LEICA GR30,GPS+GLO+GAL+BDS+SBAS,2020-04-17T13:15Z,LEIAR20,NONE,19203002,BAM,0.101,0,0,2017-07-04T09:30Z,EXTERNAL H_MASER
MATG00ITA,4641953.035,1393063.547,4133279.589,40.649,16.705,537.424,LEICA GR10,GPS+GLO+GAL+BDS+SBAS,2020-03-26T09:45Z,LEIAR25,NONE,9300006,BPA,0,0,0,2012-01-30T14:00Z,INTERNAL
MAUI00USA,-5466069,-2404328,2242127,20.707,-156.257,3062.426,TRIMBLE NETRS,GPS,2015-02-27T22:05Z,ASH700936D_M,SNOW,12610,BPA,0,,,1999-01-01T00:00Z,INTERNAL
MAW100ATA,1111287.138,2168911.297,-5874493.644,-67.605,62.871,59.633,SEPT POLARX5,GPS+GLO+GAL+BDS+QZSS+IRNSS,2021-08-13T07:42Z,AOAD/M_T,AUST,275,BPA,0.0035,0,0,1994-01-01T00:00Z,INTERNAL
MAYG00MYT,4379104.6069,4418744.4751,-1401897.9428,-12.782,45.258,-15.947,TRIMBLE ALLOY,GPS+GLO+GAL+BDS+SBAS+IRNSS,2020-09-24T07:25Z,TRM59800.00,NONE,5316354663,BPA,3.0356,0,0,2013-11-21T12:00Z,INTERNAL
MBAR00UGA,5482951.3876,3260442.6429,-66519.8489,-0.601,30.738,1338.053,JAVAD TRE_3 DELTA,GPS+GLO+GAL+BDS+IRNSS,2021-08-02T20:00Z,ASH701945B_M,SCIS,CR519993001,BPA,0.0083,0,0,2001-03-20T00:00Z,INTERNAL
MCHL00AUS,-4857858.923,3018464.3659,-2814983.2231,-26.359,148.145,534.992,TRIMBLE ALLOY,GPS+BDS+GLO+QZSS+GAL,2021-05-19T06:00Z,TRM59800.00,NONE,4939353482,BPA,0,0,0,2016-04-04T00:00Z,INTERNAL
MCIL00JPN,-5227188.142,2551880.364,2607617.909,24.29,153.979,36.073,TRIMBLE ALLOY,GPS+GLO+GAL+QZSS,2021-11-11T00:00Z,TRM59800.80,SCIS,10404,BPA,0,0,0,2015-02-26T10:00Z,EXTERNAL RUBIDIUM
MCM400ATA,-1311703.172,310814.982,-6213255.16,-77.838,166.669,98.476,JAVAD TRE_G3TH DELTA,GPS+GLO+GAL+QZSS,2021-07-15T23:54Z,AOAD/M_T,JPLA,363,BPA,0.0814,0,0,2012-01-24T22:45Z,INTERNAL
MDO100USA,-1329998.797,-5328393.357,3236504.141,30.681,-104.015,2004.891,SEPT POLARX5,GPS+GLO+GAL+BDS,2021-02-02T22:20Z,JAVRINGANT_DM,SCIS,2134,BPA,0.6219,0,0,2019-09-26T13:24Z,INTERNAL
MDVJ00RUS,2845456.3,2160954.3,5265993.4,56.021,37.215,257.815,TPS NETG3,GPS+GLO,2019 p7,0,2019-04-04T09:15Z,JPSREGANT_DD_E1,NONE,RA0195,BPA,0.166,0,0
MEDI00ITA,4461400.894,919593.443,4449504.669,44.52,11.647,50.471,LEICA GR10,GPS+GLO+GAL+BDS+SBAS,2020-03-26T11:10Z,LEIAR20,LEIM,18345001,BAM,0,0,0,2018-10-17T11:30Z,EXTERNAL H-MASER
MELI00ESP,5205630,-268410,3663434,35.281,-2.952,93.899,LEICA GR10,GPS+GLO+GAL,2021-04-07T00:00Z,LEIAR25.R4,LEIT,725140,BPA,0.0606,0,0,2011-12-14T12:00Z,INTERNAL
MERS00TUR,4239149.446,2886967.945,3778877.023,36.566,34.256,38.89,LEICA GR50,GPS+GLO+GAL+BDS+QZSS+SBAS,2018-09-20T00:00Z,LEIAR10,NONE,18245024,BAM,0.08,0,0,2016-11-17T00:00Z,INTERNAL
MET300FIN,2892583.975,1311799.563,5512619.854,60.217,24.395,79.624,JAVAD TRE_3 DELTA,GPS+GLO+GAL+BDS+SBAS,2021-11-19T07:25Z,JAVRINGANT_DM,SCIS,742,BPA,0,0,0,2013-08-27T12:00Z,INTERNAL
METG00FIN,2890652.5,1310295.548,5513958.877,60.242,24.384,60.115,SEPT POLARX5,GPS+GLO+GAL+BDS+SBAS+IRNSS,2021-01-26T13:20Z,TRM59800.00,SCIS,5208354398,BPA,2.0352,0.0046,0.002,2016-10-19T07:31Z,INTERNAL
METS00FIN,2892570.999,1311843.28,5512634.011,60.217,24.395,95.01,JAVAD TRE_3 DELTA,GPS,2021-11-19T13:45Z,ASH700936C_M,NONE,11761,BPA,0,0,0,2013-08-27T09:45Z,INTERNAL
MFKG00ZAF,5185375.39,2477739.181,-2760201.1271,-25.805,25.54,1311.294,TRIMBLE NETRS,GPS,2019-03-30T00:00Z,ASH701941.B,SCIS,CRL1999100134,BPA,0,0,0,2001-10-08T00:00Z,INTERNAL
MGUE00ARG,1823327.909,-4850352.447,-3709085.536,-35.777,-69.398,1554.141,SEPT POLARX5TR,GPS+GLO+GAL+BDS+SBAS,2021-01-19T13:00Z,LEIAR25.R4,NONE,725120,BPA,0,0,0,2012-06-21,EXTERNAL H-MASER
MIKL00UKR,3698554.628,2308675.267,4639770.434,46.973,31.973,95.132,LEICA GR50,GPS+GLO+GAL+BDS+QZSS,2021-12-09T18:37Z,LEIAR20,LEIM,23014040,BAM,0.1008,0,0,2021-12-09T18:37Z,INTERNAL
MIZU00JPN,-3857167.6484,3108694.9138,4004041.6876,39.135,141.133,117.427,SEPT POLARX5,GPS+GLO+GAL+BDS+QZSS+IRNSS+SBAS,2021-04-23T01:15Z,SEPCHOKE_B3E6,NONE,5474,BPA,0.1206,0,0,2019-09-18T13:00Z,INTERNAL
MKEA00USA,-5464105.317,-2495165.842,2148291.476,19.801,-155.456,3755.067,SEPT POLARX5,GPS+GLO+GAL+BDS+QZSS,2021-02-02T18:33Z,JAVRINGANT_DM,SCIS,983,BPA,0,0,0,2020-01-23T21:20Z,INTERNAL
MOBJ00RUS,2936424.674,2178374.012,5208858.3846,55.115,36.57,183.046,JPS LEGACY,GPS+GLO,2008,0,2009-03-25T07:00Z,JPSREGANT_SD_E1,NONE,RA0033,BPA,0.1312,0,0
MOBK00RUS,2936424.674,2178374.012,5208858.3846,55.115,36.57,183.046,JPS EGGDT,GPS+GLO,2008,0,2009-12-21T00:00Z,JPSREGANT_SD_E1,NONE,RA0033,BPA,0.1312,0,0
MOBN00RUS,2936432.14,2178364.5,5208858.18,55.115,36.57,183.066,ASHTECH UZ-12,GPS,2013-06-26T13:30Z,ASH701945C_M,SCIS,CR520003602,BPA,0,0,0,2000-12-18T00:00Z,INTERNAL
MOBS00AUS,-4130636.754,2894953.14,-3890530.236,-37.829,144.975,40.989,SEPT POLARX5,GPS+QZSS+GLO+GAL+IRNSS+BDS,2021-04-21T01:29Z,JAVRINGANT_DM,NONE,2178,BPA,0.0021,0,0,2021-10-27T22:38Z,INTERNAL
MOIU00KEN,5207811.3703,3685972.9487,31891.7647,0.288,35.29,2201.932,JAVAD TRE_3 DELTA,GPS+GLO+GAL+BDS,2019-08-09T21:22Z,ASH701945E_M,NONE,CR200610010,BPA,0.0083,0,0,2008-11-15T00:00Z,INTERNAL
MONP00USA,-2386247.3,-4802359.2,3444902.34,32.892,-116.422,1842.957,TPS NET-G3A,GPS,2011-07-29T22:17Z,ASH701945B_M,SCIS,CR519991751,BPA,0.1176,,,2000-03-22T22:16Z,INTERNAL
MORP00GBR,3645667.9,-107277.3,5215053.5,55.213,-1.685,144.893,TRIMBLE NETR8,GPS,2014-01-20T12:00Z,AOAD/M_T,NONE,221,BPA,0.033,0,0,2009-08-17T13:40Z,INTERNAL
MQZG00NZL,-4580569.543,590465.441,-4384380.166,-43.703,172.655,155.125,TRIMBLE ALLOY,GPS+GLO+GAL+BDS+QZSS,2020-09-22T09:23Z,TRM115000.00,NONE,1551016679,BAM,0.055,0,0,2020-01-29T22:19Z,INTERNAL
MRC100USA,1092811.8197,-4877221.9707,3948968.109,38.499,-77.371,27.622,SEPT POLARX5,GPS+GLO+GAL+BDS,2020-03-12T18:47Z,SEPCHOKE_B3E6,SPKE,5150,BPA,0.0083,0,0,2017-07-26T00:00Z,EXTERNAL H-MASER
MRL100NZL,-4749991.001,520984.518,-4210604.147,-41.576,173.741,147.652,NOV OEM6,GPS,2021-10-08T00:00Z,TPSCR.G5,TPSH,762-11643,BPA,0,0,0,2015-06-30T00:00Z,EXTERNAL CESIUM /RCVR 1
MRL200NZL,-4749991.001,520984.518,-4210604.147,-41.576,173.741,147.652,NOV OEM6,GPS,2021-10-08T00:00Z,TPSCR.G5,TPSH,762-11643,BPA,0,0,0,2015-06-30T00:00Z,EXTERNAL CESIUM /RCVR 2
MRO100AUS,-2556630.0377,5097138.2766,-2848384.7814,-26.697,116.637,354.463,TRIMBLE NETR9,GPS+QZSS+GLO+GAL+BDS,2020-04-03T05:44Z,TRM59800.00,NONE,5220354494,BPA,0,0,0,2013-10-23T00:00Z,INTERNAL
MSSA00JPN,-3854396.7261,3427835.9923,3741739.5228,36.14,138.352,1626.837,TRIMBLE NETR9,GPS+GLO+GAL+BDS+QZSS,2021-03-08T00:00Z,TRM59900.00,SCIS,5317361096,BPA,0,0,0,2018-03-29T00:00Z,EXTERNAL H-MASER
MTKA00JPN,-3947762.7496,3364399.8789,3699428.5111,35.68,139.561,109.432,TRIMBLE NETR9,GPS+GLO,2017-06-30,ASH701073.1,SNOW,CRG0118,BPA,0,0,0,1998-10-13,INTERNAL
MTV100URY,2914536.977,-4349790.287,-3630033.464,-34.914,-56.176,41.138,NOV OEM6,GPS,2021-10-20T00:00Z,TPSCR.G5,TPSH,762-11827,BPA,0,0,0,2015-09-18T00:00Z,EXTERNAL CESIUM / RCVR1
MTV200URY,2914536.977,-4349790.287,-3630033.464,-34.914,-56.176,41.138,NOV OEM6,GPS,2021-10-20T00:00Z,TPSCR.G5,TPSH,762-11827,BPA,0,0,0,2015-09-18T00:00Z,EXTERNAL CESIUM / RCVR2
NABG00NOR,1201009.37,252158.016,6238022.126,78.943,11.857,43.362,TRIMBLE NETR9,GPS+GLO+GAL+BDS,2021-11-25T18:03Z,TRM59900.00,SCIS,5506362018,BPA,0,0,0,2019-09-01T00:00Z,EXTERNAL H-MASER
NAIN00CAN,1671837.36,-3103474.6,5297671.08,56.537,-61.689,33.925,ASHTECH UZ-12,GPS,2017-11-10T15:00Z,ASH701945D_M,NONE,CR520020901,BPA,0.1,0,0,2002-12-18T14:11Z,INTERNAL
NANO00CAN,-2335726.73,-3451608.329,4812009.971,49.295,-124.086,6.989,SEPT POLARX5,GPS+GLO+GAL+BDS,2021-03-29T00:00Z,SEPCHOKE_B3E6,SPKE,5149,BPA,0.0771,0,0,2018-02-14T22:38Z,INTERNAL CLOCK STEERING
NAUR00NRU,-6212555.1726,1442786.6229,-61006.7968,-0.552,166.926,46.678,SEPT POLARX4TR,GPS+GLO+GAL+BDS+QZSS,2017-01-05T00:00Z,LEIAR25.R3,LEIT,10150005,BPA,0.001,0,0,2011-01-10T00:00Z,INTERNAL
NCKU00TWN,-2956913.107,5075881.93,2476417.112,22.997,120.223,98.625,TRIMBLE NETR9,GPS+GLO+GAL+BDS+QZSS,2019-04-17T04:43Z,JAVRINGANT_DM,SCIS,475,BPA,0,0,0,2014-05-12T00:00Z,INTERNAL
NICO00CYP,4359417.88,2874117.01,3650778.27,35.141,33.396,192.145,LEICA GR50,GPS+GLO+GAL+BDS+SBAS,2021-12-13T14:40Z,LEIAR25.R4,LEIT,725285,BPA,0.065,0,0,2013-07-16T11:00Z,INTERNAL
NIST00USA,-1288398.36,-4721697.04,4078625.5,39.995,-105.263,1648.912,NOV OEM4-G2,GPS,2006-05-10T00:00Z,NOV702,NONE,4230007,BAM,0,0,0,2006-05-10T00:00Z,EXTERNAL H-MASER
NIUM00NIU,-5937159.6673,-1054675.7248,-2071390.5806,-19.077,-169.927,90.527,TRIMBLE NETR9,GPS+QZSS+GLO+GAL+BDS,2020-03-03T00:38Z,TRM59800.00,NONE,534754893,BPA,0,0,0,2014-03-13T01:30Z,INTERNAL
NKLG00GAB,6287385.7333,1071574.6758,39132.0395,0.354,9.672,31.89,SEPT POLARX5,GPS+GLO+GAL+BDS+SBAS+IRNSS,2021-01-26T10:10Z,TRM59800.00,SCIS,4811A48439,BPA,3.043,-0.0015,-0.0025,2013-03-29T11:40Z,INTERNAL
NLIB00USA,-130934.4493,-4762291.7386,4226854.6638,41.772,-91.575,207.467,SEPT POLARX5TR,GPS+GLO+GAL+BDS,2021-02-02T18:51Z,JAVRINGANT_DM,SCIS,841,BPA,0.6127,0,0,2018-06-14T15:00Z,EXTERNAL H-MASER
NNOR00AUS,-2414151.326,4907778.436,-3270645.333,-31.049,116.193,235.248,SEPT POLARX5TR,GPS+GLO+GAL+BDS+QZSS+SBAS+IRNSS,2021-01-19T13:00Z,SEPCHOKE_B3E6,NONE,5657,BPA,0.1121,0,0,2019-10-25T12:45Z,EXTERNAL SLAVED CRYSTAL
NOT100ITA,4934528.669,1321262.251,3806479.508,36.876,14.99,126.657,LEICA GR30,GPS+GLO+GAL+BDS+SBAS,2018-07-26T07:00Z,LEIAR20,NONE,19203022,BAM,0,0,0,2017-10-11T09:30Z,EXTERNAL H-MASER
NOVM00RUS,452261.2,3635877.47,5203453.26,55.031,82.909,150.418,JPS LEGACY,GPS+GLO,2007,10,2011-08-18,JPSREGANT_SD_E1,NONE,RA0038,BPA,0.08,0,0
NRC100CAN,1112777.33,-4341475.83,4522955.78,45.454,-75.624,82.907,JAVAD TRE_G3TH DELTA,GPS+GLO+GAL,2019,5,2019-03-19T13:54Z,AOAD/M_T,NONE,171,BPA,0,0,0
NRIL00RUS,64537.2912,2253782.8543,5946363.4808,69.362,88.36,48.343,ASHTECH UZ-12,GPS,2009-10-29T12:20Z,ASH701945B_M,SCIT,CR620002607,BPA,0.0795,,,2000-09-17T00:00Z,INTERNAL
NRMD00NCL,-5743537.658,1380504.26,-2397897.027,-22.228,166.485,160.792,TRIMBLE NETR9,GPS+GLO+QZSS+GAL+BDS,2021-04-13T22:30Z,TRM57971.00,TZGD,1440921240,BAM,0,0,0,2009-10-02T00:00Z,defaultdict(<function rec_dd at 0x7f349ce211e0>
NTUS00SGP,-1508022,6195580,148800,1.346,103.68,78.867,LEICA GR50,GPS+GLO+GAL+BDS+QZSS+SBAS,2022-02-14T01:24Z,LEIAR20,LEIM,20288014,BAM,0.0776,0,0,2018-04-18T02:50Z,INTERNAL
NVSK00RUS,433604.1534,3655557.747,5191288.0377,54.841,83.235,124.08,TRIMBLE R9S,GPS+GLO,2021-07-19T00:00Z,TRM57971.00,NONE,1441116772,BAM,6.1661,0,0,2016-03-16T00:00Z,INTERNAL
NYA100NOR,1202434,252632,6237772,78.93,11.865,84.13,TRIMBLE NETR9,GPS+GLO+GAL+BDS+QZSS,2021-11-27T18:56Z,ASH701073.1,SNOW,CRG0117,BPA,0,0,0,1999-06-02T00:40Z,INTERNAL
NYA200NOR,1202379.31,252474.654,6237786.542,78.93,11.859,81.914,SEPT POLARX5,GPS+GLO+GAL+BDS+QZSS+IRNSS+SBAS,2021-01-20T10:41Z,JAVRINGANT_G5T,NONE,3231C,BAM,0,0,0,2019-08-08T10:00Z,INTERNAL
NYAL00NOR,1202431,252627,6237768,78.93,11.865,79.443,TRIMBLE NETR9,GPS+GLO+GAL+BDS+QZSS,2021-09-24T09:37Z,AOAD/M_B,DOME,R106,BCR,5.216,0.004,-0.001,1993-01-01T00:00Z,INTERNAL
OAK100GBR,4011440.89,-63375.739,4941877.084,51.118,-0.905,140.081,NOV OEM6,GPS,2021-10-15T00:00Z,TPSCR.G5,TPSH,762-11858,BPA,0,0,0,2015-04-08T00:00Z,EXTERNAL CESIUM / RCVR 1
OAK200GBR,4011440.89,-63375.739,4941877.084,51.118,-0.905,140.081,NOV OEM6,GPS,2021-10-15T00:00Z,TPSCR.G5,TPSH,762-11858,BPA,0,0,0,2015-04-08T00:00Z,EXTERNAL CESIUM / RCVR 2
OBE400DEU,4186704.43,834903.583,4723664.857,48.085,11.278,650.987,SEPT ASTERX4,GPS+GLO+GAL+BDS+QZSS+IRNSS+SBAS,2021-11-17T13:00Z,SEPCHOKE_B3E6,NONE,5612,BPA,0.07,0,0,2021-04-30T10:00Z,INTERNAL
OHI200ATA,1525811.8,-2432479.1,-5676166,-63.321,-57.901,33.594,JAVAD TRE_G3TH DELTA,GPS+GLO+GAL+SBAS,2021-06-02T15:30Z,LEIAR25.R4,LEIT,725307,BPA,0.0728,0,0,2017-02-27T11:40Z,EXTERNAL H-Maser
OHI300ATA,1525808.9,-2432478.5,-5676166,-63.321,-57.901,32.674,LEICA GR50,GPS+GLO+GAL+BDS+SBAS,2021-05-19T09:15Z,LEIAR25.R4,LEIT,725282,BPA,0.066,0,0,2013-09-28T16:00Z,EXTERNAL H-Maser
ONS100SWE,3370667.198,711818.723,5349787.879,57.395,11.925,44.858,TRIMBLE ALLOY,GPS+GLO+GAL+BDS+SBAS,2021-03-19T00:00Z,LEIAR25.R3,LEIT,8520002,BPA,0.003,0,0,2012-01-28,EXTERNAL H-MASER
ONSA00SWE,3370658.832,711876.939,5349786.745,57.395,11.926,45.974,SEPT POLARX5TR,GPS+GLO+GAL+BDS+SBAS,2021-03-19T12:00Z,AOAD/M_B,OSOD,20,BCR,0.995,0,0,2013-11-06T13:05Z,EXTERNAL H-MASER
OP7100FRA,4202779.735,171370.766,4778660.65,48.836,2.335,124.987,SEPT POLARX4TR,GPS+GLO+GAL+BDS+SBAS,2019-12-01T00:00Z,LEIAR25.R4,LEIT,725498,BPA,0,0,0,2016-10-18T00:00Z,EXTERNAL UTC(OP)
OPMT00FRA,4202777.3831,171367.9881,4778660.1844,48.836,2.335,123.015,ASHTECH Z-XII3T,GPS,2001-07-01T00:00Z,3S-02-TSADM,NONE,19,TOP,0,0,0,2001-07-01T00:00Z,EXTERNAL UTC(OP)
ORID00MKD,4498451.81,1708266.83,4173591.78,41.127,20.794,773.417,LEICA GR30,GPS+GLO+GAL+BDS+SBAS,2021-11-30T12:25Z,LEIAR25.R4,LEIT,726371,BPA,0.031,0,0,2020-02-18T11:05Z,INTERNAL
OSN300KOR,-3068340.81,4066863.981,3824757.006,37.083,127.034,64.863,NOV OEM6,GPS,2021-09-17T00:00Z,TPSCR.G5,TPSH,762-11526,BPA,0,0,0,2014-08-15T00:00Z,EXTERNAL CESIUM /RCVR1
OSN400KOR,-3068340.81,4066863.981,3824757.006,37.083,127.034,64.863,NOV OEM6,GPS,2021-09-17T00:00Z,TPSCR.G5,TPSH,762-11526,BPA,0,0,0,2014-08-15T00:00Z,EXTERNAL CESIUM /RCVR2
OUS200NZL,-4387890.8367,733420.3903,-4555176.3706,-45.869,170.511,26.545,SEPT POLARX5,GPS+GLO+GAL+BDS+QZSS+IRNSS+SBAS,2021-11-14T00:00Z,SEPCHOKE_B3E6,NONE,5395,BPA,0.0711,0,0,2019-09-25T08:30Z,INTERNAL
OWMG00NZL,-4584394.1059,-290931.9957,-4410048.0233,-44.024,-176.369,22.027,TRIMBLE ALLOY,GPS+GLO+GAL+BDS+QZSS+SBAS,2020-12-18T21:00Z,TRM59800.00,NONE,5406354937,BPA,2.0352,0.0004,0.0003,2016-03-01T00:00Z,INTERNAL
P04300USA,-1128701.5937,-4465270.5852,4399615.9675,43.881,-104.186,1491.36,SEPT POLARX5,GPS+GLO+GAL+BDS+QZSS,2021-10-06T17:01Z,TRM59800.99,SCIT,220066597,BPA,0.0083,0,0,2020-06-03T19:01Z,INTERNAL
P05100USA,-1416838.9163,-4223178.9758,4551064.1022,45.807,-108.546,1081.527,SEPT POLARX5,GPS+GLO+GAL+BDS+QZSS,2021-10-08T14:01Z,TRM59800.00,SCIT,5034353890,BPA,0.0083,0,0,2019-02-07T21:22Z,INTERNAL
P05300USA,-1283559.1005,-4015770.3241,4771131.6324,48.726,-107.725,815.419,SEPT POLARX5,GPS+GLO+GAL+BDS+QZSS,2021-09-30T16:01Z,TRM59800.99,SCIT,4822A53917,BPA,0.0083,0,0,2019-11-08T18:44Z,INTERNAL
P38900USA,-2347407.3618,-3968720.2532,4394008.5091,43.812,-120.603,1398.318,SEPT POLARX5,GPS+GLO+GAL+BDS+QZSS,2021-08-18T19:58Z,TRM59800.80,SCIT,220356904,BPA,0.0083,0,0,2016-07-19T20:22Z,INTERNAL
P80200USA,-810033.1477,-4318611.4126,4608498.8926,46.558,-100.623,573.53,SEPT POLARX5,GPS+GLO+GAL+BDS+QZSS,2021-11-02T23:01Z,TRM59800.80,SCIT,220379534,BPA,0.0083,0,0,2016-11-03T13:49Z,INTERNAL
PADO00ITA,4388882.41,924567.03,4519588.45,45.411,11.896,65.126,STONEX SC2200,GPS+GLO+GAL+BDS+IRNSS+SBAS,2021-03-11T09:15Z,STXSA1500,STXG,C18119000473,BAM,0,0,0,2020-11-23T09:35Z,INTERNAL
PALM00ATA,1192671.992,-2450887.706,-5747096.184,-64.775,-64.051,31.685,SEPT POLARX5,GPS+GLO+GAL+BDS+QZSS,2022-01-06T17:31Z,ASH700936D_M,SCIS,CR14107,BPA,0.0794,0,0,1997-04-23T00:00Z,INTERNAL
PARC00CHL,1255992.5,-3622975.2,-5079719.2,-53.137,-70.88,22.725,TRIMBLE ALLOY,GPS+GLO+GAL+BDS+QZSS,2021-07-01T00:00Z,TRM57971.00,NONE,31051052,BAM,0,0,0,2009-11-01T00:00Z,INTERNAL
PARK00AUS,-4554255.2187,2816652.4462,-3454059.7028,-32.999,148.265,397.79,SEPT POLARX5TR,GPS+QZSS+GLO+GAL+BDS,2021-08-11T03:36Z,ASH701945C_M,NONE,CR620011902,BPA,0,0,0,2005-07-18T00:00Z,EXTERNAL H-MASER
PDEL00PRT,4551596.139,-2186893.415,3883410.679,37.748,-25.663,111.18,TRIMBLE ALLOY,GPS+GLO+GAL,2021-10-18T13:29Z,TRM159900.00,NONE,5925338556,BPA,0,0,0,2021-10-15T10:27Z,INTERNAL
PENC00HUN,4052449.8,1417680.8,4701406.9,47.79,19.282,292.144,LEICA GRX1200GGPRO,GPS+GLO,2021-08-30T12:02Z,LEIAT504GG,LEIS,200219,BPA,0.03,0,0,2014-06-24T07:34Z,INTERNAL
PERT00AUS,-2368688.0354,4881316.6934,-3341794.975,-31.802,115.885,13.08,TRIMBLE ALLOY,GPS+GLO+GAL+BDS+QZSS,2022-02-14T02:19Z,TRM59800.00,NONE,5220354498,BPA,0.0595,0,0,2012-10-23T05:30Z,INTERNAL
PETS00RUS,-3580828.5,1399698.1,5072185.2,53.023,158.65,102.604,JAVAD TRE_G3TH DELTA,GPS+GLO,2020,0,2020-06-23T06:00Z,ASH701933B_M,SCIS,1999040131,BPA,0.0885,0,0
PGEN00PHL,-3650007.527,5187339.662,669409.452,6.065,125.132,121.525,LEICA GR50,GPS+GLO+GAL+BDS+QZSS+SBAS,2018-07-13T08:51Z,LEIAR25,LEIT,9300004,BPA,0,0,0,2010-01-21T00:00Z,INTERNAL
PICL00CAN,-11253.04,-3980586.68,4967210.25,51.48,-90.162,315.531,SEPT POLARX5,GPS+GLO+GAL,2019-07-18T17:00Z,TWIVC6150,NONE,1903150001,BPA,0.1,0,0,2019-08-26T13:50Z,INTERNAL
PIE100USA,-1640916.928,-5014781.187,3575447.077,34.302,-108.119,2348.129,JAVAD TRE_3 DELTA,GPS+GLO+GAL+BDS,2021-07-27T22:41Z,ASH701945E_M,NONE,CR520022114,BPA,0.061,0,0,2007-01-23T18:00Z,EXTERNAL H-MASER
PIMO00PHL,-3186293.8,5286624.28,1601158.31,14.636,121.078,95.936,JAVAD TRE_G3TH DELTA,GPS+GLO+BDS+QZSS,2021-07-08T17:29Z,ASH701945C_M,NONE,CR620010502,BPA,0.0792,0,0,2005-09-22T00:00Z,INTERNAL
PIN100USA,-2369510.78,-4761206.89,3511396.27,33.612,-116.458,1256.573,TPS NET-G3A,GPS,2021-09-13T00:00Z,ASH701945B_M,SCIS,CR519991846,BPA,1.745,,,2004-09-10T03:30Z,INTERNAL
PNGM00PNG,-5367943.2,3437431.2,-225886,-2.043,147.366,116.751,TRIMBLE NETR9,GPS+GLO+GAL+BDS+QZSS,2020-03-03T00:40Z,TRM59800.00,NONE,5038353981,BPA,0.0011,0,0,2012-09-08T00:00Z,INTERNAL
POAL00BRA,3467519.4,-4300378.53,-3177517.73,-30.074,-51.12,77.155,TRIMBLE NETR9,GPS+GLO+GAL+BDS,2021-10-20T14:39Z,TRM115000.00,NONE,1551129639,BAM,0.0075,0,0,2018-05-15T17:00Z,INTERNAL
POHN00FSM,-5879158.7411,2350291.7598,767748.1911,6.96,158.21,91.101,SEPT POLARX5,GPS+GLO+GAL+BDS+QZSS+IRNSS,2021-08-10T00:42Z,JAVRINGANT_DM,NONE,2053,BPA,0.001,0,0,2017-12-15T03:00Z,INTERNAL
POL200KGZ,1239971.4511,4530790.0876,4302578.795,42.68,74.694,1714.63,JAVAD TRE_3 DELTA,GPS+GLO+GAL+BDS+QZSS,2021-07-21T17:16Z,TPSCR.G3,NONE,383-1030,BPA,0.078,,,2009-10-23T00:00Z,INTERNAL
POLV00UKR,3411557.338,2348463.835,4834396.643,49.603,34.543,178.551,LEICA GR50,GPS+GLO+GAL+BDS+QZSS,2021-11-30T14:36Z,LEIAR20,LEIM,23014041,BAM,0.07,0,0,2021-11-30T14:36Z,INTERNAL
POTS00DEU,3800689.634,882077.386,5028791.318,52.379,13.066,144.853,JAVAD TRE_3,GPS+GLO+GAL+BDS+QZSS+IRNSS+SBAS,2021-10-07T13:26Z,JAVRINGANT_G5T,NONE,6077C,BAM,0.1206,0,0,2020-10-06T08:00Z,INTERNAL
POVE00BRA,2774265.608,-5662060.1407,-959415.8531,-8.709,-63.896,119.975,TRIMBLE NETR9,GPS+GLO+GAL+BDS,2021-10-20T14:39Z,TRM115000.00,NONE,1551129628,BAM,0.0075,0,0,2018-05-17T00:00Z,INTERNAL
PPPC00PHL,-3022676.471,5511839.403,1075517.567,9.773,118.74,66.945,LEICA GR50,GPS+GLO+GAL+BDS+QZSS+SBAS,2018-07-10T03:28Z,LEIAR25,LEIT,9300007,BPA,0,0,0,2010-06-26T00:00Z,INTERNAL
PRDS00CAN,-1659602.83,-3676725.75,4925493.59,50.871,-114.293,1248.373,JAVAD TRE_3N DELTA,GPS+GLO+GAL,2019,5,2019-11-12T18:42Z,AOAD/M_T,NONE,KW-9493-01,BPA,0.1,0,0
PRE300ZAF,5066223.489,2719222.966,-2754406.543,-25.746,28.224,1414.248,NOV OEM6,GPS,2021-10-14T00:00Z,TPSCR.G5,TPSH,762-10995,BPA,0,0,0,2015-02-20T00:00Z,EXTERNAL CESIUM /RCVR1
PRE400ZAF,5066223.489,2719222.966,-2754406.543,-25.746,28.224,1414.248,NOV OEM6,GPS,2021-10-14T00:00Z,TPSCR.G5,TPSH,762-10995,BPA,0,0,0,2015-02-20T00:00Z,EXTERNAL CESIUM /RCVR2
PTAG00PHL,-3184318.745,5291065.489,1590418.235,14.535,121.041,87.051,LEICA GR50,GPS+GLO+GAL+BDS+QZSS+SBAS,2020-11-15T14:57Z,LEIAR25.R4,LEIT,726458,BPA,0,0,0,2017-01-27T06:47Z,INTERNAL
PTBB00DEU,3844060.11,709661.2,5023129.46,52.296,10.46,130.681,SEPT POLARX5TR,GPS+GLO+GAL+BDS+IRNSS+SBAS,2021-02-02T08:15Z,LEIAR25.R4,LEIT,726333,BPA,0.059,0,0,2019-03-26T14:00Z,EXTERNAL ACTIVE H-MASER
PTGG00PHL,-3184365.6327,5291038.8848,1590414.0821,14.535,121.041,87.347,SEPT POLARX5,GPS+GLO+GAL+BDS+QZSS+SBAS+IRNSS,2021-01-18T09:15Z,TRM59800.00,SCIS,5332354745,BPA,2.036,0,0,2018-02-14T00:45Z,INTERNAL
PTVL00VUT,-5950573.262,1230677.252,-1932016.954,-17.749,168.315,86.846,TRIMBLE NETR9,QZSS+GPS+GLO+GAL+BDS,2020-03-03T01:57Z,JAVRINGANT_DM,NONE,931,BPA,0,0,0,2018-01-23T00:00Z,INTERNAL
QAQ100GRL,2170942.18,-2251829.95,5539988.29,60.715,-46.048,110.835,SEPT POLARX5,GPS+GLO+GAL+BDS+QZSS,2021-07-26T23:24Z,ASH701945E_M,SCIS,24206,BPA,0.1206,0,0,2003-12-30T17:09Z,INTERNAL
QIKI00CAN,1069081.29,-2195214.2,5872519.02,67.559,-64.034,13.718,ASHTECH UZ-12,GPS,2014-08-07T01:40Z,ASH701945E_M,NONE,CR620024521,BPA,0,0,0,2008-08-23T19:04Z,INTERNAL
QUI300ECU,1275746.601,-6252216.81,-15440.994,-0.14,-78.467,2927.924,NOV OEM6,GPS,2021-08-16T00:00Z,TPSCR.G5,TPSH,762-11852,BPA,0,0,0,2015-06-22T00:00Z,EXTERNAL CESIUM /RCVR1
QUI400ECU,1275746.601,-6252216.81,-15440.994,-0.14,-78.467,2927.924,NOV OEM6,GPS,2021-08-16T00:00Z,TPSCR.G5,TPSH,762-11852,BPA,0,0,0,2015-06-22T00:00Z,EXTERNAL CESIUM /RCVR2
QUIN00USA,-2517231.209,-4198595.058,4076531.208,39.975,-120.944,1106.188,JAVAD TRE_3 DELTA,GPS+GLO+GAL+BDS+QZSS,2021-07-21T17:40Z,ASH701945E_M,SNOW,CR6200548028,BPA,0.5847,0,0,2017-10-19T07:00Z,INTERNAL 
RABT00MAR,5255617.68,-631745.622,3546322.61,33.998,-6.854,90.539,JAVAD TRE_3 DELTA,GPS+GLO+GAL+BDS+IRNSS,2021-10-21T18:27Z,TRM29659.00,SCIS,220148021,BPA,0.08,0,0,2000-05-17T00:00Z,INTERNAL
RAEG00PRT,4618477.733,-2166047.526,3816304.845,36.986,-25.126,298.32,LEICA GR25,GPS+GLO+GAL,2021-04-07T00:00Z,LEIAR20,NONE,16073038,BAM,0.5793,0,0,2015-05-15T00:00Z,EXTERNAL H-MASER
RAMO00ISR,4514719.1,3133506,3228042.6,30.598,34.763,893.501,JAVAD TRE_G3TH DELTA,GPS+GLO,2019-01-15,ASH701945B_M,SNOW,CR20014604,BPA,0.003,0,0,2004-03-18T00:00Z,INTERNAL
RBAY00ZAF,4739765.8116,2970758.3766,-3054077.6457,-28.796,32.078,32.206,TRIMBLE ALLOY,GPS+GLO,2021-11-12T15:00Z,TRM59800.00,SCIS,50373533928,BPA,0,0,0,2012-12-02T00:00Z,INTERNAL
RDSD00DOM,2078681.178,-5683736.413,2006886.9092,18.461,-69.911,-8.803,TRIMBLE NETR9,GPS+GLO+GAL+BDS,2021-06-10T17:01Z,TRM59800.00,SCIS,5220354497,BPA,0.02,0,0,2013-03-07T17:01Z,INTERNAL
REDU00BEL,4091423.462,368380.429,4863179.703,50.002,5.145,370.327,SEPT POLARX5,GPS+GLO+GAL+BDS+SBAS,2021-01-19T12:00Z,SEPCHOKE_B3E6,NONE,5644,BPA,0.115,0,0,2019-10-29T10:00Z,EXTERNAL CESIUM
RESO00CAN,-144097.43,-1683123.97,6129777.88,74.691,-94.893,35.359,ASHTECH UZ-12,GPS,2006-03-10T20:26Z,ASH700936A_M,NONE,468,BPA,0.1,0,0,2001-09-12,INTERNAL
REUN00REU,3364099.1673,4907944.4587,-2293466.897,-21.208,55.572,1558.807,SEPT POLARX5,GPS+GLO+GAL+BDS+SBAS,2020-02-13T10:00Z,TRM55971.00,NONE,30976568,BAM,0.061,0,0,2008-12-03T12:00Z,INTERNAL
REYK00ISL,2587384.533,-1043033.497,5716564.008,64.139,-21.955,93.54,LEICA GR50,GPS+GLO+GAL+BDS+IRNSS+SBAS,2022-01-24T14:40Z,LEIAR25.R4,LEIT,725281,BPA,0.0635,0,0,2019-05-14T18:00Z,INTERNAL
RGDG00ARG,1429870.3961,-3495334.7685,-5122723.0071,-53.786,-67.752,32.8,TRIMBLE ALLOY,GPS+GLO+GAL+BDS+SBAS,2020-05-25T09:32Z,TRM59800.00,SCIS,5222354514,BPA,0.42,0,0,2018-07-10T15:30Z,INTERNAL
RIGA00LVA,3183899.344,1421478.378,5322810.736,56.949,24.059,35.155,LEICA GR25,GPS+GLO+GAL+BDS+SBAS,2021-06-08T12:50Z,LEIAR25.R4,LEIT,726676,BPA,0.085,0,0,2013-12-11T15:00Z,INTERNAL
RIO200ARG,1429907.7834,-3495354.8119,-5122698.6553,-53.785,-67.751,32.477,SEPT ASTERX4,GPS+GLO+GAL+BDS+SBAS,2021-01-20T11:38Z,SEPCHOKE_B3E6,NONE,5482,BPA,0.069,0,0,2020-02-20T15:00Z,INTERNAL
RIOP00ECU,1255140.9798,-6253585.5781,-182569.6128,-1.651,-78.651,2793.4,TRIMBLE NETRS,GPS,2019-03-21T15:03Z,TRM41249.00,NONE,60261189,BAM,0.0729,0,0,2009-06-30T18:48Z,INTERNAL
ROAG00ESP,5105577.352,-555208.925,3769714.099,36.463,-6.206,83.661,SEPT POLARX5TR,GPS+GLO+GAL+BDS+SBAS+IRNSS,2020-02-24T12:50Z,LEIAR25.R4,NONE,726362,BPA,0,0,0,2018-02-05T00:00Z,EXTERNAL H-MASER
ROCK00USA,-2533220.219,-4631543.3986,3568400.542,34.236,-118.676,553.811,SEPT POLARX5,GPS+GLO+GAL+SBAS,2021-06-10T21:30Z,TWIVC6150,SCIS,VC6150L1907310012,BPA,0.142,0,0,2021-06-10T21:30Z,INTERNAL
ROTH00ATA,909246.711,-2264763.494,-5873056.98,-67.571,-68.126,40.632,LEICA GRX1200+GNSS,GPS+GLO,2019-04-04T12:00Z,LEIAR25,LEIT,765734,BPA,0,0,0,2009-12-14T21:15Z,INTERNAL 
SALU00BRA,4566947.87,-4443098.5,-286674.66,-2.593,-44.212,19.353,TRIMBLE NETR9,GPS+GLO+GAL+BDS,2021-10-20T14:14Z,TRM115000.00,NONE,1551129671,BAM,0.008,0,0,2018-04-09T14:40Z,INTERNAL QUARTZ
SAMO00WSM,-6129702.2557,-890029.4165,-1516807.4422,-13.849,-171.738,77.285,TRIMBLE NETR9,GPS+GLO+GAL+BDS+SBAS+QZSS,2021-05-11T02:47Z,JAVRINGANT_DM,NONE,958,BPA,0.004,0,0,2017-10-04T01:20Z,INTERNAL
SANT00CHL,1769693.588,-5044574.184,-3468320.907,-33.15,-70.669,723.491,SEPT POLARX5,GPS+GLO+GAL+BDS,2021-02-01T23:43Z,JAVRINGANT_DM,NONE,849,BPA,0.0614,0,0,2017-01-06T00:00Z,INTERNAL
SASK00CAN,-1106129.71,-3758704.03,5016675.77,52.196,-106.398,579.01,JAVAD TRE_G3TH DELTA,GPS+GLO+GAL,2019,5,2019-07-30T17:12Z,NOV750.R4,NOVS,NDE10020019,BPA,0.05,0,0
SAVO00BRA,4870283.7503,-3864605.3094,-1418872.4823,-12.939,-38.432,76.704,TRIMBLE NETR9,GPS+GLO+GAL+BDS,2021-10-20T14:13Z,TRM115000.00,NONE,1551129631,BAM,0.001,0,0,2018-04-19T16:00Z,INTERNAL QUARTZ
SBOK00ZAF,5279492.0167,1703114.2749,-3139092.9922,-29.669,17.879,1043.489,TRIMBLE NETRS,GPS,2019-03-30T00:00Z,ASH701941.B,SCIS,CRL1999100113,BPA,0,0,0,2000-02-29T00:00Z,INTERNAL
SCH200CAN,1448636.93,-3385243.67,5191046.95,54.832,-66.833,498.624,JAVAD TRE_3N DELTA,GPS+GLO+GAL,2019,5,2019-04-02T18:44Z,ASH701945E_M,NONE,CR620045048,BPA,0.1,0,0
SCIP00USA,-2556587.44,-4711014.03,3446241.4,32.914,-118.488,453.29,TPS NET-G3A,GPS+GLO,2011-06-02T18:51Z,TPSCR.G3,SCIS,383-1839,BPA,0.0083,0,0,2014-10-08T20:46Z,INTERNAL
SCOR00GRL,1982096.1,-798821.025,5989464.5,70.485,-21.95,128.94,SEPT POLARX5,GPS+GLO+GAL+BDS+QZSS,2021-07-26T23:45Z,LEIAR20,LEIM,49014,BAM,0.1977,0,0,2021-09-09T15:08Z,EXTERNAL RUBIDIUM
SCRZ00BOL,2743005.924,-5420745.291,-1937117.112,-17.797,-63.16,442.51,LEICA GR10,GPS+GLO+GAL+BDS+SBAS,2019-02-20T09:05Z,LEIAR10,NONE,14206107,BAM,0,0,0,2012-11-17T00:00Z,INTERNAL 
SCTB00ATA,-1311028.8,308512.8,-6213390.9,-77.849,166.758,-18.45,TRIMBLE ALLOY,GPS+GLO+GAL+BDS+QZSS,2020-09-21T23:55Z,TRM115000.00,NONE,1441025918,BAM,0.055,0,0,2019-11-01T23:52Z,INTERNAL
SCUB00CUB,1474538.1759,-5811243.3797,2168958.8133,20.012,-75.762,21.436,JAVAD TRE_G3TH DELTA,GPS+GLO+GAL,2021-11-16T10:50Z,JAV_RINGANT_G3T,NONE,341,BAM,0.046,0,0,2014-12-18T09:00Z,INTERNAL
SEJN00KOR,-3110081.801,4082093.983,3775023.519,36.522,127.303,181.627,TRIMBLE NETR9,GPS+GLO+GAL,2021-08-02T00:00Z,TRM59800.00,SCIS,5109354039,BPA,0,0,0,2012-02-15T00:00Z,INTERNAL
SEME00KAZ,688306.417,4012382.787,4893725.828,50.433,80.266,180.644,LEICA GR10,GPS+GLO+GAL+SBAS,2020-05-25T09:40Z,LEIAR25.R4,LEIT,726637,BPA,0,0,0,2017-10-03T00:00Z,INTERNAL
SEY200SYC,3602867.3394,5238179.3811,-516268.0725,-4.674,55.479,539.216,JAVAD TRE_G3TH DELTA,GPS+GLO+BDS,2021-07-08T18:48Z,JAVRINGANT_DM,SCIS,805,BPA,0.0083,0,0,2015-03-06T00:00Z,INTERNAL
SEYG00SYC,3597836,5240884,-516781,-4.679,55.531,-37.238,SEPT POLARX5,GPS+GLO+GAL+BDS+SBAS+IRNSS,2021-01-26T12:55Z,TRM59800.00,NONE,5037353964,BPA,0.5193,-0.0011,-0.001,2012-06-20T00:00Z,INTERNAL
SFDM00USA,-2532676.4067,-4615598.8587,3588781.3303,34.46,-118.755,291.939,SEPT POLARX5,GPS+GLO+GAL+BDS+SBAS,2021-08-25T18:32Z,TRM59800.99,SCIT,4624A17075,BPA,0.0083,0,0,2021-04-28T19:47Z,INTERNAL
SFER00ESP,5105519.055,-555146.005,3769803.246,36.464,-6.206,84.563,LEICA GR25,GPS+GLO+GAL+SBAS,2020-06-17T06:30Z,LEIAR25,NONE,726380,BPA,1.626,0,0,2019-01-17T11:00Z,EXTERNAL CESIUM
SGOC00LKA,1113280.0609,6233644.2886,760276.9549,6.892,79.874,-78.095,JAVAD TRE_3,GPS+GLO+GAL+BDS+QZSS+IRNSS+SBAS,2022-02-11T10:47Z,JAVRINGANT_G5T,NONE,6076C,BAM,0.13,0,0,2018-09-20T05:20Z,INTERNAL
SGPO00USA,-667801.1647,-5082858.388,3782394.883,36.604,-97.485,290.586,JAVAD TRE_3,GPS+GLO+GAL+BDS+SBAS,2021-06-23T09:09Z,JAVRINGANT_G5T,NONE,3203C,BAM,0.1555,0,0,2019-02-04T18:30Z,INTERNAL
SHAO00CHN,-2831733.583,4675665.958,3275369.41,31.1,121.2,22.505,ASHTECH UZ-12,GPS,2007-09-27T00:00Z,AOAD/M_T,JPLA,429,BPA,0.0814,0,0,1995-01-20T00:00Z,INTERNAL
SHE200CAN,1899507.99,-3991722.36,4582242.82,46.221,-64.552,-14.866,TRIMBLE NETR8,GPS,2019-03-31T01:09Z,TRM29659.00,NONE,4624A17046,BPA,0.1,0,0,2012-10-04T14:00Z,INTERNAL
SIN100SGP,-1507972.56,6195614.06,148488,1.343,103.679,92.943,TRIMBLE NETR9,GPS+GLO+GAL+BDS+QZSS+SBAS,2021-09-30T07:15Z,LEIAR25.R3,LEIT,9330041,BPA,0,0,0,2010-09-09T08:00Z,INTERNAL
SMST00JPN,-3822373.395,3699359.882,3507585.789,33.578,135.937,97.953,TRIMBLE NETR9,GPS,2021-03-23T00:01Z,TRM57971.00,NONE,119971,BAM,1.955,0,0,2020-02-18T06:00Z,EXTERNAL NONE
SNI100USA,-2631346.8232,-4646278.7114,3477113.3756,33.248,-119.524,240.089,TPS NET-G3A,GPS+GLO,2019 p10,5,2019-03-27T20:04Z,TPSCR.G3,SCIS,383-1866,BPA,0,0,0
SOD300FIN,2200149.224,1091650.85,5866868.645,67.421,26.389,301.294,JAVAD TRE_3 DELTA,GPS+GLO+GAL+BDS+SBAS,2021-11-19T11:35Z,JAVRINGANT_DM,SCIS,745,BPA,0,0,0,2012-11-05T12:00Z,INTERNAL
SOFI00BGR,4319372.39,1868687.57,4292063.8,42.556,23.395,1120.009,LEICA GR50,GPS+GLO+GAL+BDS+SBAS,2021-05-26T09:25Z,LEIAR25.R3,LEIT,9160008,BPA,0.22,0,0,2010-04-29T13:00Z,INTERNAL
SOLO00SLB,-5911340.124,2156887.299,-1038664.005,-9.435,159.954,123.225,TRIMBLE NETR9,GPS+GLO+GAL+BDS+QZSS,2020-03-06T03:24Z,JAVRINGANT_DM,NONE,954,BPA,0.001,0,0,2015-03-10T01:45Z,INTERNAL
SPK100USA,-2535991.9364,-4642434.9628,3552148.2605,34.059,-118.646,440.546,TPS NET-G3A,GPS+GLO,2019 p10,5,2019-03-27T20:43Z,TPSCR.G3,NONE,383-1932,BPA,0,0,0
SPT000SWE,3328984.813,761910.066,5369033.475,57.715,12.891,220.344,SEPT POLARX5TR,GPS+GLO+GAL+BDS+SBAS,2021-03-19T12:00Z,TRM59800.00,OSOD,5025353801,BPA,0.071,0,0,2020-08-13T10:00Z,EXTERNAL H-MASER
SPTU00BRA,3766123.31,-4567433.46,-2367323.83,-21.929,-50.492,509.182,TRIMBLE NETR9,GPS+GLO+GAL+BDS,2020-05-13T15:08Z,TRM57971.00,NONE,5311118901,BAM,0.008,0,0,2014-07-25T00:00Z,INTERNAL 
SSIA00SLV,95610.0615,-6197817.1521,1500617.9412,13.697,-89.116,664.835,TRIMBLE NETR9,GPS+GLO+GAL,2020-01-24T20:22Z,TRM59800.80,SCIS,4623A16423,BPA,0,0,0,2019-05-31T16:44Z,INTERNAL 
STFU00USA,-2700404.18,-4292605.52,3855137.41,37.427,-122.173,20.834,JAVAD TRE_G3TH DELTA,GPS+GLO+GAL+SBAS,2020-11-02T14:10Z,TRM57971.00,NONE,30123268,BAM,0,0,0,2009-12-09T00:00Z,EXTERNAL RUBIDIUM
STHL00GBR,6104817.308,-605827.996,-1740738.865,-15.943,-5.667,453.695,JAVAD TRE_3 DELTA,GPS+GLO+GAL+BDS,2021-08-03T17:58Z,TPSCR.G3,SCIS,383-0150,BPA,0.0083,0,0,2010-03-03T00:00Z,INTERNAL
STJ300CAN,2612588.6706,-3426820.6402,4686773.7555,47.595,-52.678,154.946,SEPT POLARX5TR,GPS+GLO+GAL+BDS+SBAS,2021-01-26T12:15Z,LEIAR25.R4,NONE,10231016,BPA,0.0542,0,0,2018-10-04T14:00Z,INTERNAL 
STJO00CAN,2612631.2,-3426807,4686757.8,47.595,-52.678,153.238,JAVAD TRE_3N DELTA,GPS+GLO+GAL,2019,5,2019-03-18T13:53Z,AOAD/M_T,NONE,473,BPA,0.1,0,0
STK200JPN,-3642161.206,2861487.883,4370351.333,43.529,141.845,118.965,TRIMBLE ALLOY,GPS+GLO+GAL+QZSS,2021-08-16T11:00Z,TRM59800.00,SCIS,5015353788,BPA,0,0,0,2012-02-14T01:12Z,EXTERNAL CESIUM
STPM00SPM,2436208.256,-3634804.894,4624885.452,46.778,-56.168,0.903,TRIMBLE NETR9,GPS+GLO+GAL+BDS+SBAS,2020-06-23T12:00Z,TRM57971.00,NONE,5311118375,BAM,3.0434,0,0,2013-06-06T00:00Z,INTERNAL
STR100AUS,-4467103.1971,2683039.4779,-3666948.7528,-35.316,149.01,800.342,SEPT POLARX5,GPS+GLO+GAL+BDS+QZSS+IRNSS,2022-01-13T03:18Z,ASH701945C_M,NONE,CR620023911,BPA,0.004,0,0,2003-11-07T00:00Z,EXTERNAL CESIUM
STR200AUS,-4467075.2448,2683011.8532,-3667007.0505,-35.316,149.01,802.884,TRIMBLE ALLOY,GPS+GLO+GAL+BDS+QZSS,2022-01-13T03:01Z,LEIAR25.R3,NONE,9330026,BAM,0,0,0,2017-11-27T00:00Z,INTERNAL
SULP00UKR,3765296.991,1677559.204,4851297.409,49.836,24.014,370.957,TRIMBLE NETR9,GPS+GLO+GAL+BDS+SBAS,2020-12-18T00:00Z,TPSCR.G5,TPSH,11138,BPA,4.729,0,0,2013-03-30T11:16Z,INTERNAL
SUTH00ZAF,5041274.8417,1916054.1204,-3397075.9716,-32.38,20.81,1800.182,SEPT POLARX5,GPS+GLO+GAL+BDS,2021-01-29T20:18Z,ASH701945G_M,NONE,CR6200342011,BPA,0.084,0,0,2004-06-01T00:00Z,INTERNAL
SUTM00ZAF,5041190.169,1916067.017,-3397189.514,-32.381,20.811,1798.017,JAVAD TRE_3,GPS+GLO+GAL+BDS+IRNSS+SBAS,2021-06-23T09:11Z,JAVRINGANT_G5T,NONE,6082C,BAM,0.13,0,0,2019-05-10T11:00Z,INTERNAL
SUWN00KOR,-3062023.4156,4055449.1662,3841819.3768,37.276,127.054,84.353,TRIMBLE NETR9,GPS+GLO+GAL+BDS,2021-08-04T05:25Z,TRM59800.80,SCIS,220170420,BPA,1.57,0,0,2018-02-05T00:00Z,EXTERNAL CESIUM
SVTL00RUS,2730156,1562365,5529989,60.533,29.781,77.227,JAVAD TRE_3 DELTA,GPS+GLO+GAL,2017,3,2019-10-03T10:00Z,JAVRINGANT_DM,JVDM,324,BPA,0.0285,0,0
SYDN00AUS,-4648240.8542,2560636.4459,-3526317.7896,-33.781,151.15,85.987,SEPT POLARX5TR,QZSS+GPS+GLO+GAL+BDS,2021-08-11T03:51Z,ASH701945C_M,NONE,CR519994908,BPA,0.03,0,0,2004-05-05T00:00Z,EXTERNAL CESIUM
SYOG00ATA,1766207.8686,1460290.3801,-5932297.7652,-69.007,39.584,50.539,TRIMBLE ALLOY,GPS+GLO+GAL+QZSS,2022-01-13T08:14Z,TRM159900.00,SCIS,5925338542,BPA,0,0,0,2020-01-18T00:00Z,EXTERNAL CESIUM
TABL00USA,-2448550.1126,-4668099.0769,3582741.024,34.382,-117.678,2228.447,TRIMBLE NETR9,GPS+GLO+SBAS,2019-08-19T22:00Z,TRM57971.00,NONE,5000115197,BAM,0.1256,0,0,2013-11-21T20:45Z,INTERNAL
TANA00ETH,4970747.7784,3790687.1134,1271109.0376,11.569,37.329,1851.365,LEICA GR25,GPS+GLO,2016-02-16T11:11Z,LEIAR25.R4,LEIT,726669,BPA,0.0762,0,0,2013-11-30T00:00Z,INTERNAL 
TASH00UZB,1695945.1994,4487138.5684,4190140.6931,41.328,69.296,440.123,SEPT ASTERX4,GPS+GLO+GAL+BDS+QZSS+IRNSS+SBAS,2021-01-20T11:39Z,SEPCHOKE_B3E6,NONE,5483,BPA,0.1206,0,0,2020-09-24T12:30Z,EXTERNAL RUBIDIUM
TCMS00TWN,-2982782.8539,4966660.1585,2658809.4594,24.798,120.987,77.67,TRIMBLE NETR9,GPS,2021-06-23T01:00Z,LEIAT504,NONE,720,BPA,0,,,2002-08-22T01:00Z,INTERNAL
TDOU00ZAF,5064840.8313,2969624.4192,-2485110.0433,-23.08,30.384,630.627,TRIMBLE ALLOY,GPS+GLO,2021-11-17T00:00Z,LEIAT504,LEIS,102704,BPA,0,0,0,2008-02-14T00:00Z,INTERNAL
TEHN00IRN,3240499.403,4049740.323,3701663.005,35.697,51.334,1194.993,TRIMBLE NETR9,GPS+GLO,2016-05-24T06:30Z,TRM57971.00,NONE,1441017406,BAM,0,0,0,2016-05-24T06:30Z,INTERNAL
THTG00PYF,-5246414,-3077260,-1913842,-17.577,-149.606,97.107,SEPT POLARX5TR,GPS+GLO+GAL+BDS+QZSS+SBAS,2021-01-26T12:55Z,LEIAR25.R3,LEIT,10210021,BPA,1.05,0,0,2011-01-13T00:00Z,EXTERNAL CESIUM
THTI00PYF,-5246415.8134,-3077260.6338,-1913841.9696,-17.577,-149.606,98.895,TRIMBLE NETR8,GPS+GLO+SBAS,2018-09-10T08:00Z,ASH701945E_M,NONE,CR5200327039,BPA,1.047,0,0,2004-01-13T00:00Z,INTERNAL
THU200GRL,538093.193,-1389088.13,6180979.36,76.537,-68.825,36.674,SEPT POLARX5,GPS+GLO+GAL+BDS+QZSS,2021-07-26T23:59Z,ASH701073.1,SCIS,G0111,BPA,0.1002,0,0,2000-11-17T18:00Z,INTERNAL
TID100AUS,-4460996.9496,2682557.084,-3674442.6322,-35.399,148.98,665.729,SEPT POLARX5,GPS+GLO+GAL+BDS+QZSS,2021-08-13T07:30Z,AOAD/M_T,NONE,402,BPA,0.0614,0,0,2016-08-04T01:00Z,EXTERNAL H-MASER
TIDB00AUS,-4460996.4047,2682557.0885,-3674443.393,-35.399,148.98,665.791,ASHTECH UZ-12,GPS,2010-07-05T00:00Z,AOAD/M_T,NONE,402,BPA,0.0614,0,0,2016-08-04T01:00Z,EXTERNAL H-MASER
TIT200DEU,3993787.1,450204.2,4936131.8,51.035,6.432,156.532,JAVAD TRE_3 DELTA,GPS+GLO+GAL+BDS+SBAS,2021-08-31T13:20Z,LEIAR25.R4,LEIT,725551,BPA,0.045,0,0,2019-11-13T10:15Z,INTERNAL
TIXI00RUS,-1264872.963,1569455.814,6031003.388,71.634,128.866,47.435,JPS EGGDT,GPS+GLO,2008,,2010-10-20T17:00Z,TPSCR3_GGD,NONE,263,BPA,0.0792,0,0
TLSE00FRA,4627851.899,119638.546,4372993.537,43.561,1.481,207.626,TRIMBLE NETR9,GPS+GLO+GAL+BDS+SBAS,2020-05-18T07:05Z,TRM59800.00,NONE,5129354206,BPA,1.053,0,0,2016-03-21T11:00Z,INTERNAL
TLSG00FRA,4628684.7869,119997.1258,4372110.3365,43.55,1.485,209.18,SEPT POLARX5TR,GPS+GLO+GAL+BDS+SBAS+IRNSS,2021-01-26T13:20Z,TRM59800.00,NONE,5111354062,BPA,0.441,0,0,2014-02-12T00:00Z,EXTERNAL CESIUM
TNML00TWN,-2982779.0389,4966662.6552,2658805.7381,24.798,120.987,76.269,TRIMBLE NETR9,GPS+GLO+GAL,2019-07-17T00:00Z,TRM115000.00,NONE,1440905709,BAM,1.577,0,0,2019-07-17T00:00Z,EXTERNAL RUBIDIUM
TONG00TON,-5930303.7231,-500147.2009,-2286366.2029,-21.145,-175.179,56.732,SEPT POLARX5,GPS+BDS+GLO+QZSS+GAL,2021-08-04T05:40Z,TRM59800.00,NONE,4844A59860,BPA,0.003,0,0,2017-01-09T00:00Z,INTERNAL
TOPL00BRA,4174345.6,-4690236.73,-1118921.27,-10.171,-48.331,256.929,TRIMBLE NETR9,GPS+GLO+GAL+BDS,2021-10-20T14:12Z,TRM115000.00,NONE,1551129606,BAM,0.008,0,0,2018-05-25T16:19Z,INTERNAL 
TORP00USA,-2517894.5535,-4670259.8838,3527827.6264,33.798,-118.331,-4.798,SEPT POLARX5,GPS+GLO+GAL+SBAS,2021-09-20T22:05Z,TWIVC6150,SCIS,VC6150L1910310004,BPA,0.1145,0,0,2021-09-21T22:00Z,INTERNAL
TOW200AUS,-5054583.3956,3275504.1093,-2091538.4702,-19.269,147.056,88.503,SEPT POLARX5,GPS+QZSS+GLO+GAL+BDS,2021-08-13T07:00Z,LEIAR25.R3,NONE,9310016,BPA,0.0033,0,0,2013-01-22T00:00Z,INTERNAL
TRAK00USA,-2480029.62,-4703110.48,3511298.77,33.618,-117.803,115.95,TPS NET-G3A,GPS+GLO,2019-04-02,TPSCR.G3,SCIT,383-1754,BPA,0.58,,,2011-05-25T23:48Z,INTERNAL
TRO100NOR,2102929,721619,5958196,69.663,18.94,138.415,TRIMBLE NETR9,GPS+GLO+GAL+BDS,2021-11-25T17:40Z,TRM59800.00,SCIS,5007353748,BPA,0,0,0,2010-07-26T16:52Z,EXTERNAL RUBIDIUM
TSK200JPN,-3957184.109,3310231.726,3737703.956,36.106,140.087,70.35,TRIMBLE ALLOY,GPS+GLO+GAL+QZSS,2021-09-14T11:00Z,TRM159900.00,NONE,5938338714,BPA,0,0,0,2021-05-26T04:45Z,EXTERNAL H-MASER
TSKB00JPN,-3957199.24,3310199.668,3737711.708,36.106,140.087,67.677,TRIMBLE ALLOY,GPS+GLO+QZSS,2021-09-14T11:00Z,AOAD/M_T,DOME,312,BPA,0,0,0,2017-05-17T08:20Z,EXTERNAL CESIUM
TUBI00TUR,4211318.522,2377865.759,4144664.456,40.787,29.451,222.255,TRIMBLE 5700,GPS,2019-04-01T11:36Z,TRM29659.00,UNAV,145524,BPA,1.426,0,0,1999-01-07T00:00Z,INTERNAL
TUVA00TUV,-6307543.7662,88454.3221,-939278.1193,-8.525,179.197,38.826,SEPT POLARX5,GPS+GAL+GLO+BDS+QZSS+SBAS+IRNSS,2021-09-24T06:15Z,JAVRINGANT_DM,NONE,688,BPA,0.0025,0,0,2017-11-09T04:57Z,INTERNAL
TWTF00TWN,-2994425.04,4951312.24,2674498.6,24.954,121.164,203.529,SEPT POLARX4TR,GPS+GLO+GAL+BDS+QZSS+SBAS,2020-10-06T02:00Z,ASH701945C_M,SCIS,CR620012101,BPA,0,0,0,2001-08-01,EXTERNAL STEERED H-MASER
UCAL00CAN,-1641945.2,-3664804.1,4940009.3,51.08,-114.134,1119.238,TRIMBLE NETR9,GPS+GLO+GAL+BDS+QZSS+SBAS,2021-09-29T12:00Z,TRM57971.00,NONE,5000112670,BAM,0.15,0,0,2013-08-21T05:00Z,INTERNAL
UCLP00USA,-2519007.2327,-4650672.3153,3552862.7886,34.069,-118.442,111.96,TPS NET-G3A,GPS+GLO,2019 p10,5,2019-03-27T21:03Z,TPSCR.G3,SCIS,383-1913,BPA,0.025,0,0
UCLU00CAN,-2440669.042,-3416437.062,4785136.849,48.926,-125.542,10.487,SEPT POLARX5,GPS+GLO+GAL+BDS,2021-03-29T00:00Z,SEPCHOKE_B3E6,SPKE,5132,BPA,0.0771,0,0,2018-03-22T01:04Z,INTERNAL CLOCK
UFPR00BRA,3763751.676,-4365113.8613,-2724404.579,-25.448,-49.231,926.179,TRIMBLE NETR9,GPS+GLO+GAL+BDS,2021-10-20T14:12Z,TRM115000.00,NONE,1551129613,BAM,0.1,0,0,2018-04-04T15:30Z,INTERNAL
ULAB00MNG,-1257408.9234,4099404.3974,4707992.6715,47.865,107.052,1576.101,JAVAD TRE_3,GPS+GLO+GAL+BDS+QZSS+IRNSS+SBAS,2021-06-23T09:12Z,JAVRINGANT_G5T,NONE,6090C,BAM,0.1206,0,0,2018-09-20T05:22Z,INTERNAL
ULDI00ZAF,4796680.9045,2930311.4777,-3005435.8146,-28.293,31.421,608.362,TRIMBLE NETR9,GPS+GLO,2018-02-10T10:00Z,ASH701941.B,SCIS,CRL1999100139,BPA,0,0,0,2000-02-29T00:00Z,INTERNAL 
UNB300CAN,1761288.2,-4078238.6,4561417.8,45.95,-66.642,23.32,TRIMBLE ALLOY,GPS+GLO+GAL+BDS+SBAS,2021-06-10T02:04Z,TRM57971.00,NONE,5311118062,BAM,0.3145,0,0,2012-06-01T14:30Z,INTERNAL
UNBD00CAN,1761305.9,-4078238.57,4561411.35,45.95,-66.641,23.545,JAVAD TRE_G2T DELTA,GPS+GAL+SBAS,2019-04-11T11:30Z,TRM55971.00,NONE,30217879,BAM,0,0,0,2013-08-08T14:00Z,INTERNAL
UNBJ00CAN,1761288.1,-4078238.6,4561417.7,45.95,-66.642,23.221,TPS LEGACY,GPS+GLO,2008,-90,2010-01-15T00:00Z,TRM57971.00,NONE,5311118062,BAM,0.3145,,
UNBN00CAN,1761288.2,-4078238.6,4561417.8,45.95,-66.642,23.32,NOV OEM6,GPS+GLO+SBAS,2018-01-19T15:13Z,TRM57971.00,NONE,5311118062,BAM,0.3145,0,0,2012-06-01T14:30Z,INTERNAL
UNSA00ARG,2412830.4245,-5271936.73,-2652209.0548,-24.727,-65.408,1258.213,SEPT ASTERX4,GPS+GLO+GAL+BDS+SBAS,2021-05-27T08:34Z,SEPCHOKE_B3E6,NONE,5470,BPA,0.13,0,0,2020-02-17T15:00Z,INTERNAL
UNX200AUS,-4644465.21,2549952.76,-3538929.46,-33.918,151.232,87.491,JAVAD TRE_G3TH DELTA,GPS+GLO+GAL+QZSS+IRNSS+SBAS,2017-09-05T09:30Z,LEIAR25.R3,LEIT,9330039,BPA,0,0,0,2013-11-22T00:00Z,INTERNAL
UNX300AUS,-4644465.21,2549952.76,-3538929.46,-33.918,151.232,87.491,SEPT POLARX4,GPS+GLO+GAL+BDS+QZSS+SBAS,2017-11-14T08:30Z,LEIAR25.R3,LEIT,9330039,BPA,0,0,0,2013-11-22T00:00Z,INTERNAL
URAL00RUS,1716013.966,3047281.697,5316302.551,56.838,60.615,278.057,TRIMBLE R9S,GPS+GLO+GAL+QZSS+SBAS,2021-07-07T00:00Z,CHCC220GR2,CHCD,2016040060,BPA,0.075,0,0,2016-12-16T00:00Z,INTERNAL
URUM00CHN,193030.2318,4606851.332,4393311.5615,43.808,87.601,859.352,JAVAD TRE_3,GPS+GLO+GAL+BDS+QZSS+IRNSS+SBAS,2021-06-23T09:16Z,JAVRINGANT_G5T,NONE,6070C,BAM,0.046,0,0,2017-11-01T09:00Z,INTERNAL
USCL00CHL,1762489.887,-5027632.74,-3496009.235,-33.45,-70.681,570.606,SEPT POLARX5,GPS+GLO+GAL+BDS+SBAS,2021-09-24T00:00Z,SEPCHOKE_B3E6,SPKE,5856,BPA,0.0343,0,0,2021-09-05T00:00Z,INTERNAL
USN700USA,1112162.138,-4842854.667,3985497.066,38.921,-77.066,59.346,SEPT POLARX5TR,GPS+GLO+GAL+BDS,2021-02-04T00:22Z,TPSCR.G5,TPSH,762-11615,BPA,0,0,0,2014-11-12T11:00Z,EXTERNAL H-MASER
USN800USA,1112162.138,-4842854.667,3985497.066,38.921,-77.066,59.346,SEPT POLARX5TR,GPS+GLO+GAL+BDS+SBAS,2019-04-03T07:50Z,TPSCR.G5,TPSH,762-11615,BPA,0,0,0,2014-11-12T11:00Z,EXTERNAL H-MASER
USN900USA,1112162.138,-4842854.667,3985497.066,38.921,-77.066,59.346,NOV OEM6,GPS+GLO+GAL+BDS+SBAS,2020-11-13T15:59Z,TPSCR.G5,TPSH,762-11615,BPA,0,0,0,2014-11-12T11:00Z,EXTERNAL H-MASER
USP100FJI,-6060627.2843,164379.897,-1974093.2186,-18.149,178.446,70.966,PANDA PD51A,GPS+GLO+GAL+BDS,2019-12-01T00:00Z,HXCCGX601A,HXCS,C1802000118,BAM,3.2,0,0,2019-12-01T00:00Z,INTERNAL
USUD00JPN,-3855263.0361,3427432.5571,3741020.2929,36.133,138.362,1509.039,SEPT POLARX5,GPS+GLO+GAL+BDS+QZSS,2021-01-28T01:31Z,AOAD/M_T,JPLA,121,BPA,-0.035,0,0,1993-07-20T00:00Z,EXTERNAL H-MASER
UTQI00USA,-1880399.9215,-813136.6979,6019921.5735,71.323,-156.615,12.565,JAVAD TR_G3TH,GPS+GLO+GAL,2021-06-23T10:55Z,JAV_GRANT-G3T,NONE,1721,BAM,0,0,0,2018-12-20T23:30Z,INTERNAL
UZHL00UKR,3907587.6652,1602428.5337,4763783.6858,48.632,22.298,232.475,NOV OEMV3,GPS+GLO,2013-11-12T07:48Z,NOV702GG,NONE,90006,BAM,0.0063,0,0,2013-11-12T07:48Z,INTERNAL
VACS00MUS,3215946.33,5047448.47,-2198719.6,-20.297,57.497,420.75,SEPT POLARX5,GPS+GLO+GAL+BDS+QZSS+IRNSS,2021-08-27T21:00Z,JAVRINGANT_DM,NONE,850,BPA,0.25,0,0,2018-06-21T00:00Z,INTERNAL
VALD00CAN,919075.83,-4167766.23,4724323.53,48.097,-77.564,313.205,TPS NET-G5,GPS+GLO,2018,5,2019-03-14T18:46Z,TPSCR.G3,NONE,383-0466,BPA,0.1,0,0
VILL00ESP,4849833.874,-335049.255,4116014.809,40.444,-3.952,647.835,SEPT POLARX5,GPS+GLO+GAL+BDS+SBAS,2021-01-19T12:00Z,SEPCHOKE_B3E6,NONE,5674,BPA,0.0937,0,0,2020-01-07T12:30Z,EXTERNAL CESIUM
VIS000SWE,3246470.561,1077900.313,5365277.902,57.654,18.367,80.218,SEPT POLARX5,GPS+GLO+GAL+BDS+SBAS,2019-09-26T08:00Z,AOAD/M_T,OSOD,253,BPA,0.071,0,0,1996-11-08,INTERNAL
VNDP00USA,-2678090.1164,-4525437.3954,3597431.7369,34.556,-120.616,-11.085,SEPT POLARX5,GPS+GLO+GAL+BDS+QZSS+SBAS,2021-12-03T00:35Z,TRM59800.00,SCIS,4925353344,BPA,1.748,0,0,2015-07-27T22:00Z,INTERNAL
VOIM00MDG,4054014.146,4316070.229,-2365224.017,-21.906,46.793,1163.786,JAVAD TR_G3TH,GPS+GLO+GAL,2021-06-23T12:43Z,JAV_RINGANT_G3T,NONE,338,BAM,0.13,0,0,2013-05-01T00:00Z,INTERNAL
WAB200CHE,4327318,566956,4636426,46.924,7.464,611.544,SEPT POLARX5TR,GPS+GAL,2020-03-03T11:13Z,SEPCHOKE_B3E6,SPKE,5168,BPA,1.3327,0,0,2017-09-15T00:00Z,EXTERNAL UTC(CH) Master Clock
WARK00NZL,-5115333.2299,477886.9079,-3767147.473,-36.434,174.663,111.71,TRIMBLE ALLOY,GPS+GLO+GAL+BDS+QZSS,2020-09-22T10:07Z,TRM115000.00,NONE,1551016808,BAM,0.002,0,0,2019-09-26T01:03Z,EXTERNAL H-MASER
WARN00DEU,3658785.6,784471.1,5147870.7,54.17,12.101,51.174,JAVAD TRE_3 DELTA,GPS+GLO+GAL+BDS+SBAS,2021-08-31T11:35Z,LEIAR25.R4,LEIT,725559,BPA,0.069,0,0,2019-05-13T11:00Z,INTERNAL
WDC500USA,1112158.868,-4842855.614,3985496.946,38.921,-77.066,59.419,NOV OEM6,GPS,2021-10-22T00:00Z,TPSCR.G5,TPSH,762-11833,BPA,0,0,0,2015-08-28T00:00Z,EXTERNAL H-MASER
WDC600USA,1112158.868,-4842855.614,3985496.946,38.921,-77.066,59.419,NOV OEM6,GPS,2021-10-22T00:00Z,TPSCR.G5,TPSH,762-11833,BPA,0,0,0,2015-08-28T00:00Z,EXTERNAL H-MASER
WES200USA,1492233.247,-4458089.489,4296046.035,42.613,-71.493,85.439,TRIMBLE ALLOY,GPS+GLO+GAL,2021-11-29T20:41Z,TWIVC6150,SCIS,202109220004,BPA,0,0,0,2021-10-28T18:00Z,EXTERNAL H-MASER
WGTN00NZL,-4777269.46,434270.155,-4189484.491,-41.323,174.806,26.486,TRIMBLE ALLOY,GPS+GLO+GAL+BDS+QZSS,2020-09-22T09:39Z,TRM115000.00,NONE,1551016811,BAM,0.055,0,0,2020-02-14T01:16Z,INTERNAL
WHC100USA,-2488199.3244,-4673487.1517,3544649.2637,33.98,-118.031,94.665,TPS NET-G3A,GPS+GLO,2019 p10,5,2019-03-27T21:26Z,TPSCR.G3,SCIS,383-1860,BPA,0,0,0
WHIT00CAN,-2218337.85,-2201205.06,5543057.57,60.751,-135.222,1427.808,SEPT POLARX5,GPS+GLO+GAL,2021-06-22T18:13Z,AOAD/M_T,NONE,289,BPA,0.1,0,0,2011-06-28T18:03Z,INTERNAL
WIDC00USA,-2354850.17,-4745524.01,3540693.1,33.935,-116.392,445.462,TRIMBLE NETR9,GPS+GLO+SBAS,2021-02-25T00:00Z,TRM57971.00,NONE,5000115156,BAM,0.0083,0,0,2013-11-19T21:10Z,INTERNAL
WILL00CAN,-2084258.016,-3313872.98,5019853.081,52.237,-122.168,1096.093,SEPT POLARX5,GPS+GLO+GAL+BDS,2021-08-31T23:13Z,SEPCHOKE_B3E6,SPKE,5146,BPA,0.0771,0,0,2021-08-31T23:13Z,INTERNAL
WIND00NAM,5633708.7802,1732017.696,-2433985.8026,-22.575,17.089,1735.083,JAVAD TRE_3,GPS+GLO+GAL+BDS+IRNSS+SBAS,2021-06-23T09:19Z,JAVRINGANT_G5T,NONE,3374C,BAM,0.1206,0,0,2021-03-04T14:00Z,INTERNAL
WLSN00USA,-2483640.9494,-4660072.8425,3568172.1952,34.226,-118.056,1705.679,TPS NET-G3A,GPS+GLO,2019 p10,5,2019-03-27T21:45Z,TPSCR.G3,NONE,383-1875,BPA,0.061,0,0
WROC00POL,3835751,1177249,4941605,51.113,17.062,180.697,LEICA GR50,GPS+GLO+GAL+BDS+QZSS+SBAS,2021-08-13T10:54Z,LEIAR25.R4,LEIT,725270,BPA,0,0,0,2012-10-22T11:01Z,INTERNAL
WSRT00NLD,3828739,443305,5064887,52.915,6.605,86.424,SEPT POLARX5,GPS+GLO+GAL+BDS+QZSS+IRNSS+SBAS,2020-02-18T19:15Z,AOAD/M_T,DUTD,273,BPA,0.3888,0,0,1998-03-17T15:09Z,INTERNAL
WTZ300DEU,4075535.3,931822.185,4801608.915,49.145,12.879,663.837,JAVAD TRE_G3TH DELTA,GPS+GLO+GAL+SBAS,2019-04-11T10:00Z,LEIAR25.R3,LEIT,10020020,BPA,0.056,0,0,2010-06-30T13:30Z,EXTERNAL H-MASER EFOS 39
WTZA00DEU,4075578.494,931852.658,4801569.946,49.144,12.879,666.35,SEPT POLARX2,GPS,2017-08-03T14:50Z,ASH700936C_M,SNOW,12118,BPA,0.045,0,0,2021-06-08T09:30Z,EXTERNAL CESIUM
WTZR00DEU,4075580.685,931853.66,4801568.054,49.144,12.879,666.462,LEICA GR50,GPS+GLO+GAL+BDS+IRNSS+SBAS,2021-05-18T12:30Z,LEIAR25.R3,LEIT,10020031,BPA,0.071,0,0,2010-06-30T08:00Z,EXTERNAL H-MASER EFOS 18
WTZS00DEU,4075535.3,931822.185,4801608.915,49.145,12.879,663.837,SEPT POLARX5TR,GPS+GLO+GAL+BDS+IRNSS+SBAS,2021-09-21T13:00Z,LEIAR25.R3,LEIT,10020020,BPA,0.056,0,0,2021-09-21T13:00Z,EXTERNAL CESIUM
WTZZ00DEU,4075579.269,931853.281,4801569.136,49.144,12.879,666.322,JAVAD TRE_3 DELTA,GPS+GLO+GAL+BDS+SBAS,2021-09-01T12:00Z,LEIAR25.R3,LEIT,10240011,BPA,0.284,0,0,2015-07-13T10:00Z,EXTERNAL H-MASER EFOS 18
WUH200CHN,-2267749,5009154,3221290,30.532,114.357,25.541,JAVAD TRE_3,GPS+GLO+GAL+BDS+QZSS+IRNSS+SBAS,2021-11-25T06:18Z,JAVRINGANT_G5T,NONE,3354C,BAM,0.1206,0,0,2018-11-02T06:00Z,INTERNAL
WUHN00CHN,-2267750.266,5009156.142,3221291.898,30.532,114.357,28.635,TRIMBLE NETR9,GPS+GLO+BDS,2018-05-05T00:00Z,TRM59800.00C,ENCL,4917353043,BPA,2.3612,-0.0094,-0.0022,2016-09-21T01:40Z,EXTERNAL RUBIDIUM CLOCK STEERED BY GPS
XMIS00AUS,-1696344.7528,6039590.0108,-1149275.0817,-10.45,105.689,261.917,TRIMBLE NETR9,QZSS+GPS+GLO+GAL+BDS,2020-04-03T05:50Z,JAVRINGANT_DM,NONE,955,BPA,0.0005,0,0,2017-04-10T00:00Z,INTERNAL
YAKT00RUS,-1914998.836,2308241.52,5610225.578,62.031,129.68,103.813,JAVAD TRE_3N DELTA,GPS+GLO,2017,,2019-04-09T10:00Z,ASH701933B_M,SCIS,CRN1999100160,BPA,0.081,,
YAR200AUS,-2389026.612,5043317.0539,-3078529.5552,-29.047,115.347,241.685,TRIMBLE ALLOY,GPS+GLO+QZSS+GAL+IRNSS+BDS,2020-08-07T08:00Z,AOAD/M_T,NONE,371,BPA,0.0814,0,0,2015-02-19T00:00Z,INTERNAL
YAR300AUS,-2389043.7677,5043313.5822,-3078524.39,-29.046,115.347,242.855,SEPT POLARX5,QZSS+GPS+GLO+GAL+BDS,2021-08-13T07:52Z,LEIAR25,NONE,8360001,BPA,0.004,0,0,2008-12-05T00:00Z,INTERNAL
YARR00AUS,-2389025.5745,5043315.5343,-3078532.9739,-29.047,115.347,241.756,SEPT POLARX5,GPS+GLO+GAL+BDS+QZSS+IRNSS,2021-08-11T04:58Z,LEIAT504,NONE,103314,BPA,0.0045,0,0,2007-10-04T03:00Z,INTERNAL
YEBE00ESP,4848724.95,-261632.509,4123093.952,40.525,-3.089,973.249,LEICA GR50,GPS+GLO+GAL+BDS,2021-06-02T12:00Z,LEIAR20,LEIM,23349016,BAM,0.06,0,0,2021-11-18T13:20Z,EXTERNAL H-MASER
YEL200CAN,-1224441.9824,-2689174.6494,5633660.3762,62.481,-114.481,181.452,SEPT POLARX5TR,GPS+GLO+GAL+BDS+SBAS,2021-01-26T12:20Z,LEIAR25.R4,NONE,10231042,BPA,0.05,0,0,2013-07-19T10:15Z,EXTERNAL VCH-1008 MASER
YELL00CAN,-1224452.4,-2689216,5633638.2,62.481,-114.481,181.168,JAVAD TRE_3N DELTA,GPS+GLO+GAL,2019,5,2019-03-01T14:18Z,AOAD/M_T,NONE,527,BPA,0.1,0,0
YIBL00OMN,3294552.811,4905092.434,2393579.637,22.186,56.112,95.529,TRIMBLE NETR9,GPS,2014-01-19T12:20Z,ASH701945C_M,NONE,4812CR62001,BPA,0,0,0,2003-07-11T00:00Z,INTERNAL
YKRO00CIV,6306439.897,-578380.783,757956.481,6.871,-5.24,270.584,JAVAD TRE_3 DELTA,GPS+GLO+GAL+BDS,2021-08-12T17:17Z,ASH701945C_M,NONE,CR620012801,BPA,0.0455,0,0,2008-09-30T00:00Z,INTERNAL
YONS00KOR,-3047506.741,4043980.58,3865243.01,37.541,127.001,97.27,TRIMBLE ALLOY,GPS+GLO+GAL,2020-07-06T06:00Z,TRM159900.00,SCIS,5007338036,BPA,0,0,0,2020-07-06T06:00Z,INTERNAL
YSSK00RUS,-3465320.847,2638269.382,4644085.485,47.03,142.717,91.719,JAVAD TRE_3N DELTA,GPS+GLO,2017,,2019-03-05T01:00Z,ASH701933B_M,DOME,CRN1999040133,BPA,0.0798,,
ZAMB00ZMB,5415353.011,2917209.914,-1685888.865,-15.426,28.311,1325.318,JAVAD TRE_3 DELTA,GPS+GLO+GAL+BDS,2021-07-22T18:59Z,AOAD/M_T,NONE,372,BPA,0.054,0,0,2002-03-28T00:00Z,INTERNAL
ZECK00RUS,3451175.15,3060335.95,4391955.97,43.788,41.565,1167.416,JAVAD TRE_3 DELTA,GPS+GLO+GAL,2020,0,2021-01-22T09:00Z,JAVRINGANT_DM,JVDM,314,BPA,0.045,0,0
ZIM200CHE,4331300.16,567537.081,4633133.51,46.877,7.465,956.881,TRIMBLE NETR9,GPS+GLO+GAL+BDS,2020-06-08T06:30Z,TRM59800.00,NONE,60369,BPA,0,0,0,2013-10-10T12:00Z,INTERNAL
ZIM300CHE,4331300.16,567537.081,4633133.51,46.877,7.465,956.881,TRIMBLE NETR9,GPS+GLO+GAL+BDS+QZSS+SBAS,2020-06-05T06:30Z,TRM59800.00,NONE,60369,BPA,0,0,0,2013-10-10T12:00Z,EXTERNAL H-MASER
ZIMM00CHE,4331297.348,567555.639,4633133.728,46.877,7.465,956.782,TRIMBLE NETR9,GPS,2020-06-08T07:15Z,TRM29659.00,NONE,99390,BPA,0,0,0,1999-07-02,INTERNAL
